<?xml version="1.0" encoding="UTF-8"?>
<kml xmlns="http://www.opengis.net/kml/2.2"
 xmlns:gx="http://www.google.com/kml/ext/2.2"
 xmlns:kml="http://www.opengis.net/kml/2.2"
 xmlns:atom="http://www.w3.org/2005/Atom">
<Document>
	<name>2016p858000.kml</name>
	<Style id="sn_noicon">
		<IconStyle>
			<Icon>
			</Icon>
		</IconStyle>
		<LabelStyle>
			<scale>0.8</scale>
		</LabelStyle>
	</Style>
	<Style id="linestyle">
			<LineStyle>
				<width>2</width>
			</LineStyle>
	</Style>
	<Placemark>
		<name>0.3 events</name>
		<styleUrl>#sn_noicon</styleUrl>
		<Point>
			<altitudeMode>clampToSeaFloor</altitudeMode>
			<gx:altitudeMode>clampToSeaFloor</gx:altitudeMode>
			<coordinates>172.77887568,-42.9800749382973,0.0</coordinates>
		</Point>
	</Placemark>
	<Placemark>
		<name>0.3 events</name>
		<styleUrl>#sn_noicon</styleUrl>
		<Point>
			<altitudeMode>clampToSeaFloor</altitudeMode>
			<gx:altitudeMode>clampToSeaFloor</gx:altitudeMode>
			<coordinates>173.72887568,-42.55559283606389,0.0</coordinates>
		</Point>
	</Placemark>
	<Placemark>
		<name>0.3 events</name>
		<styleUrl>#sn_noicon</styleUrl>
		<Point>
			<altitudeMode>clampToSeaFloor</altitudeMode>
			<gx:altitudeMode>clampToSeaFloor</gx:altitudeMode>
			<coordinates>174.32887568,-41.518851862089754,0.0</coordinates>
		</Point>
	</Placemark>
	<Placemark>
		<name>0.31</name>
		<styleUrl>#linestyle</styleUrl>
		<Style>
 			<LineStyle>
				<color>#ffff7100</color>
 			</LineStyle>
 		</Style>
		<LineString>
			<tessellate>1</tessellate>
			<altitudeMode>clampToSeaFloor</altitudeMode>
			<gx:altitudeMode>clampToSeaFloor</gx:altitudeMode>
			<coordinates>
172.77887568,-42.9800749382973,0.0 172.82887568,-42.992654254476996,0.0 172.87887568,-42.994894623011206,0.0 172.92887568,-42.989393079804486,0.0 172.97887568,-42.976925130407906,0.0 172.98934608570752,-42.9733045,0.0 173.02887568,-42.961134846643056,0.0 173.07887568,-42.94060636450261,0.0 173.11302370586293,-42.9233045,0.0 173.12887568,-42.91574456406066,0.0 173.17887568,-42.88921863769511,0.0 173.20540018670934,-42.8733045,0.0 173.22887568,-42.86001943648329,0.0 173.27887568,-42.82862155724264,0.0 173.28700662674632,-42.8233045,0.0 173.32887568,-42.79756793497093,0.0 173.36422241762244,-42.7733045,0.0 173.37887568,-42.76381858001967,0.0 173.42887568,-42.72910740805694,0.0 173.43697094405042,-42.7233045,0.0 173.47887568,-42.69469973031744,0.0 173.50809321500472,-42.6733045,0.0 173.52887568,-42.65884377072315,0.0 173.57808960371287,-42.6233045,0.0 173.57887568,-42.6227810778258,0.0 173.62887568,-42.5925660136519,0.0 173.66345884393445,-42.5733045,0.0 173.67887568,-42.56707449717092,0.0 173.72887568,-42.55559283606389,0.0 173.77887568,-42.56044718933245,0.0 173.82887568,-42.54569712560155,0.0 173.85780346749752,-42.5233045,0.0 173.87887568,-42.49666686787593,0.0 173.91017920523163,-42.4733045,0.0 173.92887568,-42.461200662373734,0.0 173.97887568,-42.45660954920712,0.0 174.02887568,-42.45511437697032,0.0 174.07694023276395,-42.4233045,0.0 174.07887568,-42.42108533821755,0.0 174.111585883743,-42.3733045,0.0 174.09486881516065,-42.3233045,0.0 174.07887568,-42.27699560955866,0.0 174.07744856077838,-42.2733045,0.0 174.07887568,-42.26799267849698,0.0 174.09860896176937,-42.2233045,0.0 174.12887568,-42.187215155333554,0.0 174.14166240559194,-42.1733045,0.0 174.17887568,-42.1384065980847,0.0 174.1950215747688,-42.1233045,0.0 174.22887568,-42.09434986897861,0.0 174.25273840463785,-42.0733045,0.0 174.27887568,-42.05216106669729,0.0 174.31260116208279,-42.0233045,0.0 174.32887568,-42.01071392852253,0.0 174.3728384614524,-41.9733045,0.0 174.37887568,-41.96865238045643,0.0 174.42887568,-41.92468241121866,0.0 174.43031978755852,-41.9233045,0.0 174.47887568,-41.876719790731215,0.0 174.48207004591146,-41.8733045,0.0 174.52464680470118,-41.8233045,0.0 174.52887568,-41.815728812945885,0.0 174.55573900029265,-41.7733045,0.0 174.5745770161664,-41.7233045,0.0 174.57887568,-41.6985369945524,0.0 174.5842133885516,-41.6733045,0.0 174.57887568,-41.62978892392134,0.0 174.5781966023186,-41.6233045,0.0 174.5495051745248,-41.5733045,0.0 174.52887568,-41.55562430881326,0.0 174.47887568,-41.529480397760175,0.0 174.45194341379485,-41.5233045,0.0 174.42887568,-41.51762000213435,0.0 174.37887568,-41.51458782960953,0.0 174.32887568,-41.518851862089754,0.0 174.30661472101872,-41.5233045,0.0 174.27887568,-41.527181213157355,0.0 174.22887568,-41.537680326521716,0.0 174.17887568,-41.55408057985812,0.0 174.13989207839938,-41.5733045,0.0 174.12887568,-41.57770877145153,0.0 174.07887568,-41.60599319307117,0.0 174.0539101054838,-41.6233045,0.0 174.02887568,-41.64238807065299,0.0 173.98937771584193,-41.6733045,0.0 173.97887568,-41.68210191471017,0.0 173.92887568,-41.72161202778773,0.0 173.92661833753436,-41.7233045,0.0 173.87887568,-41.75716686030743,0.0 173.8560939338593,-41.7733045,0.0 173.82887568,-41.79026429255819,0.0 173.77887568,-41.820055906315616,0.0 173.77300471790306,-41.8233045,0.0 173.72887568,-41.83872100612899,0.0 173.67887568,-41.85741248227917,0.0 173.65040530911685,-41.8733045,0.0 173.62887568,-41.881382589468245,0.0 173.57887568,-41.92012935844035,0.0 173.5751413033085,-41.9233045,0.0 173.53050467857943,-41.9733045,0.0 173.52887568,-41.975560702675146,0.0 173.48020402398078,-42.0233045,0.0 173.47887568,-42.02436764569537,0.0 173.42887568,-42.06403628847481,0.0 173.41778459618763,-42.0733045,0.0 173.37887568,-42.1054211065213,0.0 173.3579588443273,-42.1233045,0.0 173.32887568,-42.14922813221113,0.0 173.2992041592735,-42.1733045,0.0 173.27887568,-42.188377170821695,0.0 173.22887568,-42.22180165511444,0.0 173.22638552220857,-42.2233045,0.0 173.17887568,-42.24433673312774,0.0 173.12887568,-42.2654335011671,0.0 173.1120909750466,-42.2733045,0.0 173.07887568,-42.280465343705266,0.0 173.02887568,-42.30552289519545,0.0 173.00430677003152,-42.3233045,0.0 172.97887568,-42.34404280123978,0.0 172.94740944285766,-42.3733045,0.0 172.92887568,-42.39677849673441,0.0 172.90715484539996,-42.4233045,0.0 172.87918620746217,-42.4733045,0.0 172.87887568,-42.47388515853824,0.0 172.84239563104913,-42.5233045,0.0 172.82887568,-42.52652504597597,0.0 172.7832007867441,-42.5733045,0.0 172.77887568,-42.62291946276427,0.0 172.77872901796303,-42.6233045,0.0 172.749808507357,-42.6733045,0.0 172.72887568,-42.715873722849246,0.0 172.72454763828804,-42.7233045,0.0 172.69914780576542,-42.7733045,0.0 172.6842638013656,-42.8233045,0.0 172.6827517218252,-42.8733045,0.0 172.70160294894185,-42.9233045,0.0 172.72887568,-42.95089200744809,0.0 172.76484131246622,-42.9733045,0.0 172.77887568,-42.9800749382973,0.0 
			</coordinates>
		</LineString>
	</Placemark>
	<Placemark>
		<name>0.6 events</name>
		<styleUrl>#sn_noicon</styleUrl>
		<Point>
			<altitudeMode>clampToSeaFloor</altitudeMode>
			<gx:altitudeMode>clampToSeaFloor</gx:altitudeMode>
			<coordinates>172.87887568,-42.85853636256906,0.0</coordinates>
		</Point>
	</Placemark>
	<Placemark>
		<name>0.6 events</name>
		<styleUrl>#sn_noicon</styleUrl>
		<Point>
			<altitudeMode>clampToSeaFloor</altitudeMode>
			<gx:altitudeMode>clampToSeaFloor</gx:altitudeMode>
			<coordinates>173.74760007011525,-42.4733045,0.0</coordinates>
		</Point>
	</Placemark>
	<Placemark>
		<name>0.6 events</name>
		<styleUrl>#sn_noicon</styleUrl>
		<Point>
			<altitudeMode>clampToSeaFloor</altitudeMode>
			<gx:altitudeMode>clampToSeaFloor</gx:altitudeMode>
			<coordinates>174.32887568,-41.60456342324558,0.0</coordinates>
		</Point>
	</Placemark>
	<Placemark>
		<name>0.62</name>
		<styleUrl>#linestyle</styleUrl>
		<Style>
 			<LineStyle>
				<color>#ffffe300</color>
 			</LineStyle>
 		</Style>
		<LineString>
			<tessellate>1</tessellate>
			<altitudeMode>clampToSeaFloor</altitudeMode>
			<gx:altitudeMode>clampToSeaFloor</gx:altitudeMode>
			<coordinates>
172.87887568,-42.85853636256906,0.0 172.92887568,-42.8638461789152,0.0 172.97887568,-42.85074131119587,0.0 173.02887568,-42.830862642503696,0.0 173.04364527785083,-42.8233045,0.0 173.07887568,-42.80480685634899,0.0 173.12887568,-42.776817920260015,0.0 173.1345816806873,-42.7733045,0.0 173.17887568,-42.74714336482363,0.0 173.2165573312819,-42.7233045,0.0 173.22887568,-42.71603182707077,0.0 173.27887568,-42.68423996041705,0.0 173.29459537229366,-42.6733045,0.0 173.32887568,-42.650419220438465,0.0 173.36538904971815,-42.6233045,0.0 173.37887568,-42.612860132956826,0.0 173.42887568,-42.57350927192161,0.0 173.42913977986052,-42.5733045,0.0 173.47887568,-42.534710206113665,0.0 173.49424460879163,-42.5233045,0.0 173.52887568,-42.4989472631112,0.0 173.57115572209713,-42.4733045,0.0 173.57887568,-42.47004022145047,0.0 173.62887568,-42.45170369244281,0.0 173.67887568,-42.44901151940831,0.0 173.72887568,-42.46951654308785,0.0 173.74760007011525,-42.4733045,0.0 173.77887568,-42.48401427091246,0.0 173.79121192653486,-42.4733045,0.0 173.82887568,-42.448845195230014,0.0 173.85140079598392,-42.4233045,0.0 173.87887568,-42.38520755458351,0.0 173.9103713667296,-42.3733045,0.0 173.92887568,-42.36222357193417,0.0 173.93879917145324,-42.3733045,0.0 173.97887568,-42.39145147612374,0.0 174.02887568,-42.409859785835785,0.0 174.0641154802268,-42.3733045,0.0 174.02887568,-42.33475357049607,0.0 173.97887568,-42.34103568559327,0.0 173.9595163024688,-42.3233045,0.0 173.96792154894413,-42.2733045,0.0 173.92887568,-42.23998842102314,0.0 173.92442307567353,-42.2233045,0.0 173.92887568,-42.212411144377,0.0 173.94952006487898,-42.1733045,0.0 173.97887568,-42.138492986687986,0.0 173.99316603430728,-42.1233045,0.0 174.02887568,-42.08872018784018,0.0 174.04576407919777,-42.0733045,0.0 174.07887568,-42.04451168952025,0.0 174.1039653966381,-42.0233045,0.0 174.12887568,-42.00301457699345,0.0 174.16732250514917,-41.9733045,0.0 174.17887568,-41.965618313477655,0.0 174.22887568,-41.93434919552732,0.0 174.2451557143927,-41.9233045,0.0 174.27887568,-41.90876821539675,0.0 174.32887568,-41.87449544242563,0.0 174.33035834562406,-41.8733045,0.0 174.37887568,-41.83822268675938,0.0 174.39856350762454,-41.8233045,0.0 174.42887568,-41.80823991196118,0.0 174.4582589808022,-41.7733045,0.0 174.4506248926126,-41.7233045,0.0 174.45028618823355,-41.6733045,0.0 174.42887568,-41.64044640844854,0.0 174.40765916548392,-41.6233045,0.0 174.37887568,-41.61203423633356,0.0 174.32887568,-41.60456342324558,0.0 174.27887568,-41.60503577589229,0.0 174.22887568,-41.611471979640896,0.0 174.20129606325065,-41.6233045,0.0 174.17887568,-41.629292784208246,0.0 174.12887568,-41.67131994146414,0.0 174.12661633047887,-41.6733045,0.0 174.08623558431734,-41.7233045,0.0 174.07887568,-41.73985008961604,0.0 174.05063183026368,-41.7733045,0.0 174.02887568,-41.80067344639107,0.0 174.00252190913608,-41.8233045,0.0 173.97887568,-41.83809338960234,0.0 173.92887568,-41.856835053156225,0.0 173.90834993672752,-41.8733045,0.0 173.87887568,-41.90541107912064,0.0 173.83703052852542,-41.9233045,0.0 173.82887568,-41.92571040389639,0.0 173.77887568,-41.92708200647046,0.0 173.75973069087775,-41.9233045,0.0 173.72887568,-41.917556131192946,0.0 173.69805497775525,-41.9233045,0.0 173.67887568,-41.92550758797253,0.0 173.6304048420485,-41.9733045,0.0 173.62887568,-41.99292616168111,0.0 173.62285301158113,-42.0233045,0.0 173.5920922804768,-42.0733045,0.0 173.57887568,-42.076447195400455,0.0 173.52887568,-42.102599518390114,0.0 173.50110764850436,-42.1233045,0.0 173.47887568,-42.147292820871186,0.0 173.45553669244774,-42.1733045,0.0 173.43121890616885,-42.2233045,0.0 173.42887568,-42.22713049290679,0.0 173.38627833366388,-42.2733045,0.0 173.37887568,-42.28000650855371,0.0 173.32887568,-42.314021134316405,0.0 173.31097153094325,-42.3233045,0.0 173.27887568,-42.335441456932024,0.0 173.22887568,-42.345567213074936,0.0 173.17887568,-42.34957947361613,0.0 173.12887568,-42.35108285968074,0.0 173.07887568,-42.35810341578428,0.0 173.06166543250077,-42.3733045,0.0 173.02887568,-42.413927794140854,0.0 173.0204554464645,-42.4233045,0.0 172.9926395409366,-42.4733045,0.0 172.9798694352444,-42.5233045,0.0 172.97887568,-42.52532411173429,0.0 172.94565984266433,-42.5733045,0.0 172.92887568,-42.58423932520528,0.0 172.8938717089498,-42.6233045,0.0 172.87887568,-42.63875986615872,0.0 172.84584506714882,-42.6733045,0.0 172.87887568,-42.72193659749006,0.0 172.88223106864763,-42.7233045,0.0 172.87887568,-42.73185306691235,0.0 172.864446547421,-42.7733045,0.0 172.85255198828335,-42.8233045,0.0 172.87887568,-42.85853636256906,0.0 
			</coordinates>
		</LineString>
	</Placemark>
	<Placemark>
		<name>0.9 events</name>
		<styleUrl>#sn_noicon</styleUrl>
		<Point>
			<altitudeMode>clampToSeaFloor</altitudeMode>
			<gx:altitudeMode>clampToSeaFloor</gx:altitudeMode>
			<coordinates>172.97887568,-42.62756897791688,0.0</coordinates>
		</Point>
	</Placemark>
	<Placemark>
		<name>0.9 events</name>
		<styleUrl>#sn_noicon</styleUrl>
		<Point>
			<altitudeMode>clampToSeaFloor</altitudeMode>
			<gx:altitudeMode>clampToSeaFloor</gx:altitudeMode>
			<coordinates>173.32887568,-42.530976546910864,0.0</coordinates>
		</Point>
	</Placemark>
	<Placemark>
		<name>0.9 events</name>
		<styleUrl>#sn_noicon</styleUrl>
		<Point>
			<altitudeMode>clampToSeaFloor</altitudeMode>
			<gx:altitudeMode>clampToSeaFloor</gx:altitudeMode>
			<coordinates>173.87887568,-42.124927248591206,0.0</coordinates>
		</Point>
	</Placemark>
	<Placemark>
		<name>0.93</name>
		<styleUrl>#linestyle</styleUrl>
		<Style>
 			<LineStyle>
				<color>#ffaaff00</color>
 			</LineStyle>
 		</Style>
		<LineString>
			<tessellate>1</tessellate>
			<altitudeMode>clampToSeaFloor</altitudeMode>
			<gx:altitudeMode>clampToSeaFloor</gx:altitudeMode>
			<coordinates>
172.97887568,-42.62756897791688,0.0 173.02887568,-42.64786724265961,0.0 173.07887568,-42.63736568176727,0.0 173.12887568,-42.642825367499555,0.0 173.17887568,-42.63181580744515,0.0 173.1994518179975,-42.6233045,0.0 173.22887568,-42.61717423334635,0.0 173.27887568,-42.591908140139005,0.0 173.30153372189045,-42.5733045,0.0 173.32887568,-42.530976546910864,0.0 173.33709029689055,-42.5233045,0.0 173.37811114327727,-42.4733045,0.0 173.37887568,-42.47263687956916,0.0 173.42887568,-42.4269252788659,0.0 173.43376270633445,-42.4233045,0.0 173.47887568,-42.38105765305108,0.0 173.52887568,-42.378184719059234,0.0 173.57887568,-42.38064419314822,0.0 173.60354442111415,-42.3733045,0.0 173.62887568,-42.370313952295,0.0 173.67887568,-42.36900991818287,0.0 173.72270614535915,-42.3733045,0.0 173.72887568,-42.37891281983062,0.0 173.73256041839758,-42.3733045,0.0 173.77887568,-42.356385375781976,0.0 173.82887568,-42.33562607558297,0.0 173.87887568,-42.332345617417744,0.0 173.88946719840175,-42.3233045,0.0 173.88113600630945,-42.2733045,0.0 173.87887568,-42.26981906320458,0.0 173.82887568,-42.22954610721166,0.0 173.82187178472117,-42.2233045,0.0 173.82887568,-42.195916815362615,0.0 173.83622814340964,-42.1733045,0.0 173.87887568,-42.124927248591206,0.0 173.88014188424452,-42.1233045,0.0 173.87908483085917,-42.0733045,0.0 173.87887568,-42.07228160638968,0.0 173.82887568,-42.03015871580912,0.0 173.82694434380795,-42.0233045,0.0 173.77887568,-41.98806427400485,0.0 173.76699581062778,-41.9733045,0.0 173.72887568,-41.94967299412354,0.0 173.67887568,-41.9614315678568,0.0 173.66683534213067,-41.9733045,0.0 173.6636658557365,-42.0233045,0.0 173.67887568,-42.053596673934244,0.0 173.7075319752103,-42.0733045,0.0 173.67887568,-42.10848086163153,0.0 173.62887568,-42.11341025283049,0.0 173.57887568,-42.109352863674154,0.0 173.55983499767854,-42.1233045,0.0 173.52887568,-42.165131955092995,0.0 173.5210900179973,-42.1733045,0.0 173.50283558618105,-42.2233045,0.0 173.49325883071788,-42.2733045,0.0 173.47887568,-42.283743612824125,0.0 173.44247444624088,-42.3233045,0.0 173.42887568,-42.3646223669145,0.0 173.37887568,-42.363847538612056,0.0 173.36379782829584,-42.3733045,0.0 173.32887568,-42.388011712144674,0.0 173.27887568,-42.418117810091104,0.0 173.22887568,-42.410741189795154,0.0 173.17887568,-42.39893406814632,0.0 173.12887568,-42.39901790852704,0.0 173.08676004577353,-42.4233045,0.0 173.07887568,-42.43033426254398,0.0 173.04834560981504,-42.4733045,0.0 173.0381007399227,-42.5233045,0.0 173.02887568,-42.54790702490163,0.0 173.0156839452491,-42.5733045,0.0 172.97887568,-42.619769361702794,0.0 172.9723997875526,-42.6233045,0.0 172.97887568,-42.62756897791688,0.0 
			</coordinates>
		</LineString>
	</Placemark>
	<Placemark>
		<name>0.93</name>
		<styleUrl>#linestyle</styleUrl>
		<Style>
 			<LineStyle>
				<color>#ffaaff00</color>
 			</LineStyle>
 		</Style>
		<LineString>
			<tessellate>1</tessellate>
			<altitudeMode>clampToSeaFloor</altitudeMode>
			<gx:altitudeMode>clampToSeaFloor</gx:altitudeMode>
			<coordinates>
173.77887568,-42.44851987779118,0.0 173.80839023607857,-42.4233045,0.0 173.77887568,-42.38296343760304,0.0 173.73542675293334,-42.4233045,0.0 173.77887568,-42.44851987779118,0.0 
			</coordinates>
		</LineString>
	</Placemark>
	<Placemark>
		<name>0.93</name>
		<styleUrl>#linestyle</styleUrl>
		<Style>
 			<LineStyle>
				<color>#ffaaff00</color>
 			</LineStyle>
 		</Style>
		<LineString>
			<tessellate>1</tessellate>
			<altitudeMode>clampToSeaFloor</altitudeMode>
			<gx:altitudeMode>clampToSeaFloor</gx:altitudeMode>
			<coordinates>
174.02887568,-42.38238095991415,0.0 174.03762551266655,-42.3733045,0.0 174.02887568,-42.36373253364013,0.0 174.0121764349653,-42.3733045,0.0 174.02887568,-42.38238095991415,0.0 
			</coordinates>
		</LineString>
	</Placemark>
	<Placemark>
		<name>0.93</name>
		<styleUrl>#linestyle</styleUrl>
		<Style>
 			<LineStyle>
				<color>#ffaaff00</color>
 			</LineStyle>
 		</Style>
		<LineString>
			<tessellate>1</tessellate>
			<altitudeMode>clampToSeaFloor</altitudeMode>
			<gx:altitudeMode>clampToSeaFloor</gx:altitudeMode>
			<coordinates>
173.87887568,-42.01611434335653,0.0 173.91405518391073,-41.9733045,0.0 173.87887568,-41.958224648131186,0.0 173.85462402325422,-41.9733045,0.0 173.87887568,-42.01611434335653,0.0 
			</coordinates>
		</LineString>
	</Placemark>
	<Placemark>
		<name>0.93</name>
		<styleUrl>#linestyle</styleUrl>
		<Style>
 			<LineStyle>
				<color>#ffaaff00</color>
 			</LineStyle>
 		</Style>
		<LineString>
			<tessellate>1</tessellate>
			<altitudeMode>clampToSeaFloor</altitudeMode>
			<gx:altitudeMode>clampToSeaFloor</gx:altitudeMode>
			<coordinates>
173.97887568,-41.98281646829978,0.0 173.9900849106617,-41.9733045,0.0 173.97887568,-41.96412908836445,0.0 173.96189925635613,-41.9733045,0.0 173.97887568,-41.98281646829978,0.0 
			</coordinates>
		</LineString>
	</Placemark>
	<Placemark>
		<name>0.9 events</name>
		<styleUrl>#sn_noicon</styleUrl>
		<Point>
			<altitudeMode>clampToSeaFloor</altitudeMode>
			<gx:altitudeMode>clampToSeaFloor</gx:altitudeMode>
			<coordinates>174.22887568,-41.870894147257374,0.0</coordinates>
		</Point>
	</Placemark>
	<Placemark>
		<name>0.9 events</name>
		<styleUrl>#sn_noicon</styleUrl>
		<Point>
			<altitudeMode>clampToSeaFloor</altitudeMode>
			<gx:altitudeMode>clampToSeaFloor</gx:altitudeMode>
			<coordinates>174.37887568,-41.68560423019422,0.0</coordinates>
		</Point>
	</Placemark>
	<Placemark>
		<name>0.93</name>
		<styleUrl>#linestyle</styleUrl>
		<Style>
 			<LineStyle>
				<color>#ffaaff00</color>
 			</LineStyle>
 		</Style>
		<LineString>
			<tessellate>1</tessellate>
			<altitudeMode>clampToSeaFloor</altitudeMode>
			<gx:altitudeMode>clampToSeaFloor</gx:altitudeMode>
			<coordinates>
174.12887568,-41.835284242229804,0.0 174.17887568,-41.87065891983473,0.0 174.22887568,-41.870894147257374,0.0 174.27887568,-41.85988269743755,0.0 174.32546642346438,-41.8233045,0.0 174.32887568,-41.81905132112318,0.0 174.3728467158528,-41.7733045,0.0 174.37887568,-41.75233640857991,0.0 174.38961536019966,-41.7233045,0.0 174.37887568,-41.68560423019422,0.0 174.37619770195974,-41.6733045,0.0 174.32887568,-41.641820070305215,0.0 174.27887568,-41.634379282180504,0.0 174.22887568,-41.63635315501877,0.0 174.17887568,-41.663401955934795,0.0 174.16740463901667,-41.6733045,0.0 174.13823637575447,-41.7233045,0.0 174.12887568,-41.766233686131194,0.0 174.12585216004257,-41.7733045,0.0 174.12361600216602,-41.8233045,0.0 174.12887568,-41.835284242229804,0.0 
			</coordinates>
		</LineString>
	</Placemark>
	<Placemark>
		<name>1.2 events</name>
		<styleUrl>#sn_noicon</styleUrl>
		<Point>
			<altitudeMode>clampToSeaFloor</altitudeMode>
			<gx:altitudeMode>clampToSeaFloor</gx:altitudeMode>
			<coordinates>173.07887568,-42.58115289763962,0.0</coordinates>
		</Point>
	</Placemark>
	<Placemark>
		<name>1.2 events</name>
		<styleUrl>#sn_noicon</styleUrl>
		<Point>
			<altitudeMode>clampToSeaFloor</altitudeMode>
			<gx:altitudeMode>clampToSeaFloor</gx:altitudeMode>
			<coordinates>173.1342582158874,-42.5733045,0.0</coordinates>
		</Point>
	</Placemark>
	<Placemark>
		<name>1.2 events</name>
		<styleUrl>#sn_noicon</styleUrl>
		<Point>
			<altitudeMode>clampToSeaFloor</altitudeMode>
			<gx:altitudeMode>clampToSeaFloor</gx:altitudeMode>
			<coordinates>173.17887568,-42.44493455328764,0.0</coordinates>
		</Point>
	</Placemark>
	<Placemark>
		<name>1.25</name>
		<styleUrl>#linestyle</styleUrl>
		<Style>
 			<LineStyle>
				<color>#ff39ff00</color>
 			</LineStyle>
 		</Style>
		<LineString>
			<tessellate>1</tessellate>
			<altitudeMode>clampToSeaFloor</altitudeMode>
			<gx:altitudeMode>clampToSeaFloor</gx:altitudeMode>
			<coordinates>
173.07887568,-42.58115289763962,0.0 173.12887568,-42.57482377416763,0.0 173.1342582158874,-42.5733045,0.0 173.17887568,-42.55873560781211,0.0 173.21407566246748,-42.5233045,0.0 173.21468911500358,-42.4733045,0.0 173.17887568,-42.44493455328764,0.0 173.12887568,-42.44033843582268,0.0 173.09315944782193,-42.4733045,0.0 173.08218637708967,-42.5233045,0.0 173.07887568,-42.533724494212045,0.0 173.0698556312745,-42.5733045,0.0 173.07887568,-42.58115289763962,0.0 
			</coordinates>
		</LineString>
	</Placemark>
	<Placemark>
		<name>1.2 events</name>
		<styleUrl>#sn_noicon</styleUrl>
		<Point>
			<altitudeMode>clampToSeaFloor</altitudeMode>
			<gx:altitudeMode>clampToSeaFloor</gx:altitudeMode>
			<coordinates>173.62887568,-42.333167398105026,0.0</coordinates>
		</Point>
	</Placemark>
	<Placemark>
		<name>1.2 events</name>
		<styleUrl>#sn_noicon</styleUrl>
		<Point>
			<altitudeMode>clampToSeaFloor</altitudeMode>
			<gx:altitudeMode>clampToSeaFloor</gx:altitudeMode>
			<coordinates>173.77887568,-42.25075188614272,0.0</coordinates>
		</Point>
	</Placemark>
	<Placemark>
		<name>1.2 events</name>
		<styleUrl>#sn_noicon</styleUrl>
		<Point>
			<altitudeMode>clampToSeaFloor</altitudeMode>
			<gx:altitudeMode>clampToSeaFloor</gx:altitudeMode>
			<coordinates>173.57887568,-42.14491589394207,0.0</coordinates>
		</Point>
	</Placemark>
	<Placemark>
		<name>1.25</name>
		<styleUrl>#linestyle</styleUrl>
		<Style>
 			<LineStyle>
				<color>#ff39ff00</color>
 			</LineStyle>
 		</Style>
		<LineString>
			<tessellate>1</tessellate>
			<altitudeMode>clampToSeaFloor</altitudeMode>
			<gx:altitudeMode>clampToSeaFloor</gx:altitudeMode>
			<coordinates>
173.62887568,-42.333167398105026,0.0 173.67887568,-42.33362834580476,0.0 173.72887568,-42.34905952583001,0.0 173.76101785243443,-42.3233045,0.0 173.77887568,-42.29308152726404,0.0 173.80368033555723,-42.2733045,0.0 173.77887568,-42.25075188614272,0.0 173.76049577602527,-42.2233045,0.0 173.72887568,-42.18580544950587,0.0 173.70202168177246,-42.1733045,0.0 173.67887568,-42.16307544599981,0.0 173.62887568,-42.14818716751875,0.0 173.57887568,-42.14491589394207,0.0 173.5555504810551,-42.1733045,0.0 173.54395921366662,-42.2233045,0.0 173.55079050996224,-42.2733045,0.0 173.57887568,-42.30857621034755,0.0 173.60441997009806,-42.3233045,0.0 173.62887568,-42.333167398105026,0.0 
			</coordinates>
		</LineString>
	</Placemark>
	<Placemark>
		<name>1.25</name>
		<styleUrl>#linestyle</styleUrl>
		<Style>
 			<LineStyle>
				<color>#ff39ff00</color>
 			</LineStyle>
 		</Style>
		<LineString>
			<tessellate>1</tessellate>
			<altitudeMode>clampToSeaFloor</altitudeMode>
			<gx:altitudeMode>clampToSeaFloor</gx:altitudeMode>
			<coordinates>
173.72887568,-42.03836486753841,0.0 173.75208874081025,-42.0233045,0.0 173.72887568,-41.99116677902889,0.0 173.71042839382838,-42.0233045,0.0 173.72887568,-42.03836486753841,0.0 
			</coordinates>
		</LineString>
	</Placemark>
	<Placemark>
		<name>1.2 events</name>
		<styleUrl>#sn_noicon</styleUrl>
		<Point>
			<altitudeMode>clampToSeaFloor</altitudeMode>
			<gx:altitudeMode>clampToSeaFloor</gx:altitudeMode>
			<coordinates>174.17887568,-41.83471540156407,0.0</coordinates>
		</Point>
	</Placemark>
	<Placemark>
		<name>1.2 events</name>
		<styleUrl>#sn_noicon</styleUrl>
		<Point>
			<altitudeMode>clampToSeaFloor</altitudeMode>
			<gx:altitudeMode>clampToSeaFloor</gx:altitudeMode>
			<coordinates>174.3328955018199,-41.7733045,0.0</coordinates>
		</Point>
	</Placemark>
	<Placemark>
		<name>1.2 events</name>
		<styleUrl>#sn_noicon</styleUrl>
		<Point>
			<altitudeMode>clampToSeaFloor</altitudeMode>
			<gx:altitudeMode>clampToSeaFloor</gx:altitudeMode>
			<coordinates>174.22887568,-41.65299603131089,0.0</coordinates>
		</Point>
	</Placemark>
	<Placemark>
		<name>1.25</name>
		<styleUrl>#linestyle</styleUrl>
		<Style>
 			<LineStyle>
				<color>#ff39ff00</color>
 			</LineStyle>
 		</Style>
		<LineString>
			<tessellate>1</tessellate>
			<altitudeMode>clampToSeaFloor</altitudeMode>
			<gx:altitudeMode>clampToSeaFloor</gx:altitudeMode>
			<coordinates>
174.17887568,-41.83471540156407,0.0 174.22887568,-41.853930315261486,0.0 174.27887568,-41.833725398366504,0.0 174.29214908974882,-41.8233045,0.0 174.32887568,-41.777486663694255,0.0 174.3328955018199,-41.7733045,0.0 174.35970431557448,-41.7233045,0.0 174.3369127271904,-41.6733045,0.0 174.32887568,-41.66795726763883,0.0 174.27887568,-41.65082411653886,0.0 174.22887568,-41.65299603131089,0.0 174.19726185444617,-41.6733045,0.0 174.17887568,-41.709201195795316,0.0 174.17001503900934,-41.7233045,0.0 174.14946248349503,-41.7733045,0.0 174.16629158070472,-41.8233045,0.0 174.17887568,-41.83471540156407,0.0 
			</coordinates>
		</LineString>
	</Placemark>
	<Placemark>
		<name>1.5 events</name>
		<styleUrl>#sn_noicon</styleUrl>
		<Point>
			<altitudeMode>clampToSeaFloor</altitudeMode>
			<gx:altitudeMode>clampToSeaFloor</gx:altitudeMode>
			<coordinates>173.72887568,-42.324393121193786,0.0</coordinates>
		</Point>
	</Placemark>
	<Placemark>
		<name>1.56</name>
		<styleUrl>#linestyle</styleUrl>
		<Style>
 			<LineStyle>
				<color>#ff00ff39</color>
 			</LineStyle>
 		</Style>
		<LineString>
			<tessellate>1</tessellate>
			<altitudeMode>clampToSeaFloor</altitudeMode>
			<gx:altitudeMode>clampToSeaFloor</gx:altitudeMode>
			<coordinates>
173.72887568,-42.324393121193786,0.0 173.7302342750314,-42.3233045,0.0 173.72887568,-42.31517453865742,0.0 173.7259426110117,-42.3233045,0.0 173.72887568,-42.324393121193786,0.0 
			</coordinates>
		</LineString>
	</Placemark>
	<Placemark>
		<name>1.5 events</name>
		<styleUrl>#sn_noicon</styleUrl>
		<Point>
			<altitudeMode>clampToSeaFloor</altitudeMode>
			<gx:altitudeMode>clampToSeaFloor</gx:altitudeMode>
			<coordinates>173.72231329729777,-42.2233045,0.0</coordinates>
		</Point>
	</Placemark>
	<Placemark>
		<name>1.5 events</name>
		<styleUrl>#sn_noicon</styleUrl>
		<Point>
			<altitudeMode>clampToSeaFloor</altitudeMode>
			<gx:altitudeMode>clampToSeaFloor</gx:altitudeMode>
			<coordinates>173.57463879158053,-42.2233045,0.0</coordinates>
		</Point>
	</Placemark>
	<Placemark>
		<name>1.56</name>
		<styleUrl>#linestyle</styleUrl>
		<Style>
 			<LineStyle>
				<color>#ff00ff39</color>
 			</LineStyle>
 		</Style>
		<LineString>
			<tessellate>1</tessellate>
			<altitudeMode>clampToSeaFloor</altitudeMode>
			<gx:altitudeMode>clampToSeaFloor</gx:altitudeMode>
			<coordinates>
173.62887568,-42.3093941382142,0.0 173.67887568,-42.30886265743941,0.0 173.72310984195346,-42.2733045,0.0 173.72231329729777,-42.2233045,0.0 173.67887568,-42.191418736659145,0.0 173.62887568,-42.179069876785064,0.0 173.57887568,-42.20520265124681,0.0 173.57463879158053,-42.2233045,0.0 173.57887568,-42.237873999073294,0.0 173.58636731461937,-42.2733045,0.0 173.62887568,-42.3093941382142,0.0 
			</coordinates>
		</LineString>
	</Placemark>
	<Placemark>
		<name>1.5 events</name>
		<styleUrl>#sn_noicon</styleUrl>
		<Point>
			<altitudeMode>clampToSeaFloor</altitudeMode>
			<gx:altitudeMode>clampToSeaFloor</gx:altitudeMode>
			<coordinates>174.31418329362216,-41.7733045,0.0</coordinates>
		</Point>
	</Placemark>
	<Placemark>
		<name>1.5 events</name>
		<styleUrl>#sn_noicon</styleUrl>
		<Point>
			<altitudeMode>clampToSeaFloor</altitudeMode>
			<gx:altitudeMode>clampToSeaFloor</gx:altitudeMode>
			<coordinates>174.27887568,-41.66726895089721,0.0</coordinates>
		</Point>
	</Placemark>
	<Placemark>
		<name>1.56</name>
		<styleUrl>#linestyle</styleUrl>
		<Style>
 			<LineStyle>
				<color>#ff00ff39</color>
 			</LineStyle>
 		</Style>
		<LineString>
			<tessellate>1</tessellate>
			<altitudeMode>clampToSeaFloor</altitudeMode>
			<gx:altitudeMode>clampToSeaFloor</gx:altitudeMode>
			<coordinates>
174.22887568,-41.8369664832656,0.0 174.25749611254395,-41.8233045,0.0 174.27887568,-41.81241739558585,0.0 174.31418329362216,-41.7733045,0.0 174.32887568,-41.7349167869195,0.0 174.33546916835894,-41.7233045,0.0 174.32887568,-41.71056125863487,0.0 174.29466228430795,-41.6733045,0.0 174.27887568,-41.66726895089721,0.0 174.22887568,-41.669638907603016,0.0 174.2231695186757,-41.6733045,0.0 174.20363956837878,-41.7233045,0.0 174.17887568,-41.75667377998381,0.0 174.17109901528113,-41.7733045,0.0 174.17887568,-41.790552019287745,0.0 174.20181190317257,-41.8233045,0.0 174.22887568,-41.8369664832656,0.0 
			</coordinates>
		</LineString>
	</Placemark>
	<Placemark>
		<name>1.8 events</name>
		<styleUrl>#sn_noicon</styleUrl>
		<Point>
			<altitudeMode>clampToSeaFloor</altitudeMode>
			<gx:altitudeMode>clampToSeaFloor</gx:altitudeMode>
			<coordinates>173.62887568,-42.29045525384073,0.0</coordinates>
		</Point>
	</Placemark>
	<Placemark>
		<name>1.8 events</name>
		<styleUrl>#sn_noicon</styleUrl>
		<Point>
			<altitudeMode>clampToSeaFloor</altitudeMode>
			<gx:altitudeMode>clampToSeaFloor</gx:altitudeMode>
			<coordinates>173.69774240295544,-42.2733045,0.0</coordinates>
		</Point>
	</Placemark>
	<Placemark>
		<name>1.87</name>
		<styleUrl>#linestyle</styleUrl>
		<Style>
 			<LineStyle>
				<color>#ff00ffaa</color>
 			</LineStyle>
 		</Style>
		<LineString>
			<tessellate>1</tessellate>
			<altitudeMode>clampToSeaFloor</altitudeMode>
			<gx:altitudeMode>clampToSeaFloor</gx:altitudeMode>
			<coordinates>
173.62887568,-42.29045525384073,0.0 173.67887568,-42.28847073974748,0.0 173.69774240295544,-42.2733045,0.0 173.6903329986402,-42.2233045,0.0 173.67887568,-42.21489415492564,0.0 173.62887568,-42.21231771646602,0.0 173.6150185445655,-42.2233045,0.0 173.608674576667,-42.2733045,0.0 173.62887568,-42.29045525384073,0.0 
			</coordinates>
		</LineString>
	</Placemark>
	<Placemark>
		<name>1.8 events</name>
		<styleUrl>#sn_noicon</styleUrl>
		<Point>
			<altitudeMode>clampToSeaFloor</altitudeMode>
			<gx:altitudeMode>clampToSeaFloor</gx:altitudeMode>
			<coordinates>174.27887568,-41.79432067502531,0.0</coordinates>
		</Point>
	</Placemark>
	<Placemark>
		<name>1.8 events</name>
		<styleUrl>#sn_noicon</styleUrl>
		<Point>
			<altitudeMode>clampToSeaFloor</altitudeMode>
			<gx:altitudeMode>clampToSeaFloor</gx:altitudeMode>
			<coordinates>174.23293483852905,-41.7233045,0.0</coordinates>
		</Point>
	</Placemark>
	<Placemark>
		<name>1.87</name>
		<styleUrl>#linestyle</styleUrl>
		<Style>
 			<LineStyle>
				<color>#ff00ffaa</color>
 			</LineStyle>
 		</Style>
		<LineString>
			<tessellate>1</tessellate>
			<altitudeMode>clampToSeaFloor</altitudeMode>
			<gx:altitudeMode>clampToSeaFloor</gx:altitudeMode>
			<coordinates>
174.22887568,-41.816939331958075,0.0 174.27887568,-41.79432067502531,0.0 174.29784719761574,-41.7733045,0.0 174.31911249618352,-41.7233045,0.0 174.27887568,-41.682016027672574,0.0 174.23293483852905,-41.7233045,0.0 174.22887568,-41.731591188153146,0.0 174.19509375153112,-41.7733045,0.0 174.22887568,-41.816939331958075,0.0 
			</coordinates>
		</LineString>
	</Placemark>
	<Placemark>
		<name>2.1 events</name>
		<styleUrl>#sn_noicon</styleUrl>
		<Point>
			<altitudeMode>clampToSeaFloor</altitudeMode>
			<gx:altitudeMode>clampToSeaFloor</gx:altitudeMode>
			<coordinates>174.22887568,-41.784237155053916,0.0</coordinates>
		</Point>
	</Placemark>
	<Placemark>
		<name>2.1 events</name>
		<styleUrl>#sn_noicon</styleUrl>
		<Point>
			<altitudeMode>clampToSeaFloor</altitudeMode>
			<gx:altitudeMode>clampToSeaFloor</gx:altitudeMode>
			<coordinates>174.27887568,-41.6957787045583,0.0</coordinates>
		</Point>
	</Placemark>
	<Placemark>
		<name>2.18</name>
		<styleUrl>#linestyle</styleUrl>
		<Style>
 			<LineStyle>
				<color>#ff00e3ff</color>
 			</LineStyle>
 		</Style>
		<LineString>
			<tessellate>1</tessellate>
			<altitudeMode>clampToSeaFloor</altitudeMode>
			<gx:altitudeMode>clampToSeaFloor</gx:altitudeMode>
			<coordinates>
174.22887568,-41.784237155053916,0.0 174.27887568,-41.77622395446478,0.0 174.2815111016093,-41.7733045,0.0 174.30570036759585,-41.7233045,0.0 174.27887568,-41.6957787045583,0.0 174.2482482885402,-41.7233045,0.0 174.22887568,-41.76285327951596,0.0 174.22041165815247,-41.7733045,0.0 174.22887568,-41.784237155053916,0.0 
			</coordinates>
		</LineString>
	</Placemark>
	<Placemark>
		<name>2.4 events</name>
		<styleUrl>#sn_noicon</styleUrl>
		<Point>
			<altitudeMode>clampToSeaFloor</altitudeMode>
			<gx:altitudeMode>clampToSeaFloor</gx:altitudeMode>
			<coordinates>174.27887568,-41.75049839420328,0.0</coordinates>
		</Point>
	</Placemark>
	<Placemark>
		<name>2.49</name>
		<styleUrl>#linestyle</styleUrl>
		<Style>
 			<LineStyle>
				<color>#ff0071ff</color>
 			</LineStyle>
 		</Style>
		<LineString>
			<tessellate>1</tessellate>
			<altitudeMode>clampToSeaFloor</altitudeMode>
			<gx:altitudeMode>clampToSeaFloor</gx:altitudeMode>
			<coordinates>
174.27887568,-41.75049839420328,0.0 174.29228823900817,-41.7233045,0.0 174.27887568,-41.709541381444026,0.0 174.26356173855135,-41.7233045,0.0 174.27887568,-41.75049839420328,0.0 
			</coordinates>
		</LineString>
	</Placemark>
	<Placemark>
		<name>2.8 events</name>
		<styleUrl>#sn_noicon</styleUrl>
		<Point>
			<altitudeMode>clampToSeaFloor</altitudeMode>
			<gx:altitudeMode>clampToSeaFloor</gx:altitudeMode>
			<coordinates>174.27887568,-41.72330537267533,0.0</coordinates>
		</Point>
	</Placemark>
	<Placemark>
		<name>2.80</name>
		<styleUrl>#linestyle</styleUrl>
		<Style>
 			<LineStyle>
				<color>#ff000000</color>
 			</LineStyle>
 		</Style>
		<LineString>
			<tessellate>1</tessellate>
			<altitudeMode>clampToSeaFloor</altitudeMode>
			<gx:altitudeMode>clampToSeaFloor</gx:altitudeMode>
			<coordinates>
174.27887568,-41.72330537267533,0.0 174.2788761104205,-41.7233045,0.0 
			</coordinates>
		</LineString>
	</Placemark>
</Document>
</kml>
