<?xml version="1.0" encoding="UTF-8"?>
<kml xmlns="http://www.opengis.net/kml/2.2"
 xmlns:gx="http://www.google.com/kml/ext/2.2"
 xmlns:kml="http://www.opengis.net/kml/2.2"
 xmlns:atom="http://www.w3.org/2005/Atom">
<Document>
	<name>2016p858000.kml</name>
	<Style id="sn_noicon">
		<IconStyle>
			<Icon>
			</Icon>
		</IconStyle>
		<LabelStyle>
			<scale>0.8</scale>
		</LabelStyle>
	</Style>
	<Style id="linestyle">
			<LineStyle>
				<width>2</width>
			</LineStyle>
	</Style>
	<Placemark>
		<name>0.0 events</name>
		<styleUrl>#sn_noicon</styleUrl>
		<Point>
			<altitudeMode>clampToSeaFloor</altitudeMode>
			<gx:altitudeMode>clampToSeaFloor</gx:altitudeMode>
			<coordinates>172.68348482,-43.01380401431045,0.0</coordinates>
		</Point>
	</Placemark>
	<Placemark>
		<name>0.0 events</name>
		<styleUrl>#sn_noicon</styleUrl>
		<Point>
			<altitudeMode>clampToSeaFloor</altitudeMode>
			<gx:altitudeMode>clampToSeaFloor</gx:altitudeMode>
			<coordinates>174.13348482,-42.17887819710531,0.0</coordinates>
		</Point>
	</Placemark>
	<Placemark>
		<name>0.0 events</name>
		<styleUrl>#sn_noicon</styleUrl>
		<Point>
			<altitudeMode>clampToSeaFloor</altitudeMode>
			<gx:altitudeMode>clampToSeaFloor</gx:altitudeMode>
			<coordinates>173.83348482,-41.75650060183506,0.0</coordinates>
		</Point>
	</Placemark>
	<Placemark>
		<name>0.05</name>
		<styleUrl>#linestyle</styleUrl>
		<Style>
 			<LineStyle>
				<color>#ffff7100</color>
 			</LineStyle>
 		</Style>
		<LineString>
			<tessellate>1</tessellate>
			<altitudeMode>clampToSeaFloor</altitudeMode>
			<gx:altitudeMode>clampToSeaFloor</gx:altitudeMode>
			<coordinates>
172.68348482,-43.01380401431045,0.0 172.73348482,-43.03330272699635,0.0 172.78348482,-43.040520641028436,0.0 172.83348482,-43.039875300966116,0.0 172.88348482,-43.032925296825766,0.0 172.93348482,-43.01979174828693,0.0 172.9797187845833,-43.00173894,0.0 172.98348482,-43.000419623825465,0.0 173.03348482,-42.98005240424845,0.0 173.08348482,-42.95337394442745,0.0 173.08639615081205,-42.95173894,0.0 173.13348482,-42.926942500883534,0.0 173.17400241386213,-42.90173894,0.0 173.18348482,-42.89618405595582,0.0 173.23348482,-42.86549098391657,0.0 173.2541314024532,-42.85173894,0.0 173.28348482,-42.8334615935271,0.0 173.32926765801665,-42.80173894,0.0 173.33348482,-42.79901227910265,0.0 173.38348482,-42.76579315645416,0.0 173.40301511543112,-42.75173894,0.0 173.43348482,-42.731027813034395,0.0 173.47301427286007,-42.70173894,0.0 173.48348482,-42.69434594768282,0.0 173.53348482,-42.65790494058454,0.0 173.5419193055189,-42.65173894,0.0 173.58348482,-42.6236477864789,0.0 173.61594141904578,-42.60173894,0.0 173.63348482,-42.59168837714986,0.0 173.68348482,-42.56854906561848,0.0 173.73348482,-42.55514711483403,0.0 173.78348482,-42.55509383032664,0.0 173.79115132367295,-42.55173894,0.0 173.83348482,-42.538837877828705,0.0 173.8775418111973,-42.50173894,0.0 173.88348482,-42.49473268674299,0.0 173.93348482,-42.46031022215028,0.0 173.98057731573496,-42.45173894,0.0 173.98348482,-42.451602905557,0.0 174.03348482,-42.44945839631307,0.0 174.08348482,-42.424720917618835,0.0 174.1058582710476,-42.40173894,0.0 174.1121235742907,-42.35173894,0.0 174.08348482,-42.303292396738875,0.0 174.08199218380057,-42.30173894,0.0 174.0778060449915,-42.25173894,0.0 174.08348482,-42.24130852883026,0.0 174.11098546386373,-42.20173894,0.0 174.13348482,-42.17887819710531,0.0 174.1609089136488,-42.15173894,0.0 174.18348482,-42.13187338077935,0.0 174.21709842966717,-42.10173894,0.0 174.23348482,-42.0883231034832,0.0 174.27638631625607,-42.05173894,0.0 174.28348482,-42.04628347071156,0.0 174.33348482,-42.00589801956935,0.0 174.33839227453825,-42.00173894,0.0 174.38348482,-41.96715562741741,0.0 174.40136283589163,-41.95173894,0.0 174.43348482,-41.925919779753826,0.0 174.45988834193753,-41.90173894,0.0 174.48348482,-41.88063597951762,0.0 174.51186273454573,-41.85173894,0.0 174.53348482,-41.8259873879108,0.0 174.55364025055385,-41.80173894,0.0 174.58348482,-41.75540021334189,0.0 174.58602559079318,-41.75173894,0.0 174.61548276079122,-41.70173894,0.0 174.63348482,-41.65234753617914,0.0 174.63373185432897,-41.65173894,0.0 174.6426419583995,-41.60173894,0.0 174.63348482,-41.55280585992958,0.0 174.63331443686425,-41.55173894,0.0 174.60002780658718,-41.50173894,0.0 174.58348482,-41.48835312729602,0.0 174.53348482,-41.46282514924648,0.0 174.48348482,-41.45254654477689,0.0 174.45848247205933,-41.45173894,0.0 174.43348482,-41.45064115990165,0.0 174.42434571392985,-41.45173894,0.0 174.38348482,-41.455422546246844,0.0 174.33348482,-41.4652759297348,0.0 174.28348482,-41.48077819485309,0.0 174.23530412650234,-41.50173894,0.0 174.23348482,-41.50242557116896,0.0 174.18348482,-41.52370840549341,0.0 174.13397024826423,-41.55173894,0.0 174.13348482,-41.551986714724094,0.0 174.08348482,-41.57956080402968,0.0 174.05026910556478,-41.60173894,0.0 174.03348482,-41.612582616355716,0.0 173.98348482,-41.648479645139425,0.0 173.97899921231706,-41.65173894,0.0 173.93348482,-41.684135169068064,0.0 173.90991524306273,-41.70173894,0.0 173.88348482,-41.720549992392705,0.0 173.84072415272706,-41.75173894,0.0 173.83348482,-41.75650060183506,0.0 173.78348482,-41.78761339478994,0.0 173.76070687206766,-41.80173894,0.0 173.73348482,-41.81396012226527,0.0 173.68348482,-41.836810289032066,0.0 173.6573472384039,-41.85173894,0.0 173.63348482,-41.86060307330592,0.0 173.58348482,-41.89404770123433,0.0 173.57378276855027,-41.90173894,0.0 173.53348482,-41.94034456873817,0.0 173.52107222837833,-41.95173894,0.0 173.48348482,-41.9899470266488,0.0 173.47026564779412,-42.00173894,0.0 173.43348482,-42.03204564872814,0.0 173.41001674720198,-42.05173894,0.0 173.38348482,-42.07291510441543,0.0 173.34926548427566,-42.10173894,0.0 173.33348482,-42.11530866100189,0.0 173.2891068550709,-42.15173894,0.0 173.28348482,-42.156083180676774,0.0 173.23348482,-42.19040116861424,0.0 173.2160558038072,-42.20173894,0.0 173.18348482,-42.21821394548292,0.0 173.13348482,-42.24268250325652,0.0 173.11597725237925,-42.25173894,0.0 173.08348482,-42.26177118675704,0.0 173.03348482,-42.28553445834709,0.0 173.0093978734168,-42.30173894,0.0 172.98348482,-42.31863779636353,0.0 172.94454645927965,-42.35173894,0.0 172.93348482,-42.36339245362749,0.0 172.89841258081714,-42.40173894,0.0 172.88348482,-42.42494817310768,0.0 172.86357156371565,-42.45173894,0.0 172.83348482,-42.498550666689056,0.0 172.83109092304056,-42.50173894,0.0 172.78348482,-42.550728491572166,0.0 172.78265895572912,-42.55173894,0.0 172.75398285087144,-42.60173894,0.0 172.73348482,-42.640021218853214,0.0 172.7252865723246,-42.65173894,0.0 172.69032877612221,-42.70173894,0.0 172.68348482,-42.71190240408881,0.0 172.65586222895564,-42.75173894,0.0 172.63348482,-42.79349571477529,0.0 172.62892143644183,-42.80173894,0.0 172.60971870036212,-42.85173894,0.0 172.60506863336903,-42.90173894,0.0 172.6192824597372,-42.95173894,0.0 172.63348482,-42.970087411090205,0.0 172.66503041762374,-43.00173894,0.0 172.68348482,-43.01380401431045,0.0 
			</coordinates>
		</LineString>
	</Placemark>
	<Placemark>
		<name>0.1 events</name>
		<styleUrl>#sn_noicon</styleUrl>
		<Point>
			<altitudeMode>clampToSeaFloor</altitudeMode>
			<gx:altitudeMode>clampToSeaFloor</gx:altitudeMode>
			<coordinates>172.78348482,-42.927396484857674,0.0</coordinates>
		</Point>
	</Placemark>
	<Placemark>
		<name>0.1 events</name>
		<styleUrl>#sn_noicon</styleUrl>
		<Point>
			<altitudeMode>clampToSeaFloor</altitudeMode>
			<gx:altitudeMode>clampToSeaFloor</gx:altitudeMode>
			<coordinates>173.3426122521776,-42.65173894,0.0</coordinates>
		</Point>
	</Placemark>
	<Placemark>
		<name>0.1 events</name>
		<styleUrl>#sn_noicon</styleUrl>
		<Point>
			<altitudeMode>clampToSeaFloor</altitudeMode>
			<gx:altitudeMode>clampToSeaFloor</gx:altitudeMode>
			<coordinates>174.38348482,-41.84301136076774,0.0</coordinates>
		</Point>
	</Placemark>
	<Placemark>
		<name>0.10</name>
		<styleUrl>#linestyle</styleUrl>
		<Style>
 			<LineStyle>
				<color>#ffffe300</color>
 			</LineStyle>
 		</Style>
		<LineString>
			<tessellate>1</tessellate>
			<altitudeMode>clampToSeaFloor</altitudeMode>
			<gx:altitudeMode>clampToSeaFloor</gx:altitudeMode>
			<coordinates>
172.78348482,-42.927396484857674,0.0 172.83348482,-42.93492233996172,0.0 172.88348482,-42.92605561503479,0.0 172.93348482,-42.90811215416743,0.0 172.94662649155197,-42.90173894,0.0 172.98348482,-42.883364042923795,0.0 173.03348482,-42.85507203186794,0.0 173.0388718702596,-42.85173894,0.0 173.08348482,-42.82470542093147,0.0 173.11869315176375,-42.80173894,0.0 173.13348482,-42.792478364714555,0.0 173.18348482,-42.76006263638872,0.0 173.1956364243695,-42.75173894,0.0 173.23348482,-42.727750713208195,0.0 173.27090409324066,-42.70173894,0.0 173.28348482,-42.693689838173796,0.0 173.33348482,-42.6585836699341,0.0 173.3426122521776,-42.65173894,0.0 173.38348482,-42.62160764917465,0.0 173.40871930546464,-42.60173894,0.0 173.43348482,-42.581958485954345,0.0 173.47129472470567,-42.55173894,0.0 173.48348482,-42.54204340539195,0.0 173.53348482,-42.50472980251833,0.0 173.53795489400025,-42.50173894,0.0 173.58348482,-42.4748444853467,0.0 173.63348482,-42.45457522987837,0.0 173.68348482,-42.457600438661835,0.0 173.73348482,-42.48115611563634,0.0 173.78348482,-42.496600625404554,0.0 173.83348482,-42.45540476044529,0.0 173.83682493637102,-42.45173894,0.0 173.85687253738513,-42.40173894,0.0 173.88348482,-42.38706451483897,0.0 173.93348482,-42.37074427713536,0.0 173.97256625683858,-42.40173894,0.0 173.98348482,-42.40772205022158,0.0 174.03348482,-42.42030289975716,0.0 174.05642126433702,-42.40173894,0.0 174.06013329278187,-42.35173894,0.0 174.03348482,-42.324846302541715,0.0 173.98348482,-42.31159969542613,0.0 173.93348482,-42.32206564819771,0.0 173.88869067920984,-42.30173894,0.0 173.89138480415448,-42.25173894,0.0 173.9257546559236,-42.20173894,0.0 173.93348482,-42.193002731114944,0.0 173.97197101747489,-42.15173894,0.0 173.98348482,-42.13991434004643,0.0 174.02372871244202,-42.10173894,0.0 174.03348482,-42.092940392385664,0.0 174.0806782624388,-42.05173894,0.0 174.08348482,-42.049390986500285,0.0 174.13348482,-42.00882739337887,0.0 174.1422321477858,-42.00173894,0.0 174.18348482,-41.97188992635891,0.0 174.21130214315426,-41.95173894,0.0 174.23348482,-41.94000780805418,0.0 174.28348482,-41.91038905331291,0.0 174.29558567577538,-41.90173894,0.0 174.33348482,-41.88124239962264,0.0 174.37068249420912,-41.85173894,0.0 174.38348482,-41.84301136076774,0.0 174.43348482,-41.82149934890595,0.0 174.453779883226,-41.80173894,0.0 174.4650074764728,-41.75173894,0.0 174.48186831925142,-41.70173894,0.0 174.48348482,-41.69689328295427,0.0 174.5028146586619,-41.65173894,0.0 174.50714800052737,-41.60173894,0.0 174.48348482,-41.56867941089873,0.0 174.43999132582553,-41.55173894,0.0 174.43348482,-41.550472253487065,0.0 174.4203828709304,-41.55173894,0.0 174.38348482,-41.555135806259806,0.0 174.33348482,-41.56698415486898,0.0 174.28348482,-41.583919377249295,0.0 174.24597954989278,-41.60173894,0.0 174.23348482,-41.605573351201414,0.0 174.18348482,-41.63014001683104,0.0 174.15136693133508,-41.65173894,0.0 174.13348482,-41.66222708491064,0.0 174.08525840957964,-41.70173894,0.0 174.08348482,-41.70381395553812,0.0 174.03348482,-41.75116743359277,0.0 174.0328138882481,-41.75173894,0.0 173.98348482,-41.794704623529235,0.0 173.974545842725,-41.80173894,0.0 173.93348482,-41.823413614262535,0.0 173.89704368553265,-41.85173894,0.0 173.88348482,-41.86512759543276,0.0 173.83348482,-41.89284328725088,0.0 173.80474684707897,-41.90173894,0.0 173.78348482,-41.90553599278374,0.0 173.73348482,-41.9054046475995,0.0 173.68348482,-41.91007104162541,0.0 173.63348482,-41.943659639209685,0.0 173.62495791081415,-41.95173894,0.0 173.60354528388586,-42.00173894,0.0 173.58348482,-42.05022551982397,0.0 173.58223024511454,-42.05173894,0.0 173.53348482,-42.08082858251824,0.0 173.50697655033628,-42.10173894,0.0 173.48348482,-42.11472456315246,0.0 173.43934615335525,-42.15173894,0.0 173.43348482,-42.168058044514524,0.0 173.4124024183617,-42.20173894,0.0 173.38348482,-42.235253173784095,0.0 173.3648944030583,-42.25173894,0.0 173.33348482,-42.275598034775776,0.0 173.29078893551846,-42.30173894,0.0 173.28348482,-42.30512066912121,0.0 173.23348482,-42.32107366824304,0.0 173.18348482,-42.33047277918179,0.0 173.13348482,-42.33266773230285,0.0 173.08348482,-42.32332648735555,0.0 173.0484570757745,-42.35173894,0.0 173.03348482,-42.385115590832655,0.0 173.01746283372208,-42.40173894,0.0 172.98375742584125,-42.45173894,0.0 172.98348482,-42.452596285072765,0.0 172.9610405520395,-42.50173894,0.0 172.93794228396428,-42.55173894,0.0 172.93348482,-42.55468950961318,0.0 172.8890596962804,-42.60173894,0.0 172.88348482,-42.609828180524175,0.0 172.84154506877832,-42.65173894,0.0 172.83348482,-42.68990047345776,0.0 172.82993016668613,-42.70173894,0.0 172.80959784159754,-42.75173894,0.0 172.78348482,-42.789201814260714,0.0 172.77466891442995,-42.80173894,0.0 172.7504359608873,-42.85173894,0.0 172.75167648400213,-42.90173894,0.0 172.78348482,-42.927396484857674,0.0 
			</coordinates>
		</LineString>
	</Placemark>
	<Placemark>
		<name>0.1 events</name>
		<styleUrl>#sn_noicon</styleUrl>
		<Point>
			<altitudeMode>clampToSeaFloor</altitudeMode>
			<gx:altitudeMode>clampToSeaFloor</gx:altitudeMode>
			<coordinates>173.03348482,-42.73000045697594,0.0</coordinates>
		</Point>
	</Placemark>
	<Placemark>
		<name>0.1 events</name>
		<styleUrl>#sn_noicon</styleUrl>
		<Point>
			<altitudeMode>clampToSeaFloor</altitudeMode>
			<gx:altitudeMode>clampToSeaFloor</gx:altitudeMode>
			<coordinates>173.29524481708845,-42.60173894,0.0</coordinates>
		</Point>
	</Placemark>
	<Placemark>
		<name>0.1 events</name>
		<styleUrl>#sn_noicon</styleUrl>
		<Point>
			<altitudeMode>clampToSeaFloor</altitudeMode>
			<gx:altitudeMode>clampToSeaFloor</gx:altitudeMode>
			<coordinates>174.13348482,-41.898523120955474,0.0</coordinates>
		</Point>
	</Placemark>
	<Placemark>
		<name>0.15</name>
		<styleUrl>#linestyle</styleUrl>
		<Style>
 			<LineStyle>
				<color>#ffaaff00</color>
 			</LineStyle>
 		</Style>
		<LineString>
			<tessellate>1</tessellate>
			<altitudeMode>clampToSeaFloor</altitudeMode>
			<gx:altitudeMode>clampToSeaFloor</gx:altitudeMode>
			<coordinates>
173.03348482,-42.73000045697594,0.0 173.08348482,-42.71403337001151,0.0 173.10916664693696,-42.70173894,0.0 173.13348482,-42.69179300448391,0.0 173.18348482,-42.66679456264499,0.0 173.20916980077843,-42.65173894,0.0 173.23348482,-42.641004938552996,0.0 173.28348482,-42.61062795886575,0.0 173.29524481708845,-42.60173894,0.0 173.33348482,-42.56661723620217,0.0 173.35106468988474,-42.55173894,0.0 173.38348482,-42.51952174844797,0.0 173.4040206608559,-42.50173894,0.0 173.43348482,-42.474245101050904,0.0 173.4618556238626,-42.45173894,0.0 173.48348482,-42.43390718130783,0.0 173.53348482,-42.40452730249813,0.0 173.53937803800255,-42.40173894,0.0 173.58348482,-42.387227018852414,0.0 173.63348482,-42.379434745777644,0.0 173.68348482,-42.38023554112222,0.0 173.72779789642468,-42.40173894,0.0 173.73348482,-42.40842830872063,0.0 173.75964518876884,-42.45173894,0.0 173.78348482,-42.46206683802952,0.0 173.7954479056781,-42.45173894,0.0 173.79925689618045,-42.40173894,0.0 173.78348482,-42.36917579272972,0.0 173.7765471947777,-42.35173894,0.0 173.78348482,-42.33030963470433,0.0 173.7964874424171,-42.30173894,0.0 173.8136307330183,-42.25173894,0.0 173.82569419544663,-42.20173894,0.0 173.83348482,-42.196838267742955,0.0 173.87702886205847,-42.15173894,0.0 173.88348482,-42.139131728587756,0.0 173.91404391822036,-42.10173894,0.0 173.93348482,-42.06117233138409,0.0 173.94246043380627,-42.05173894,0.0 173.98348482,-42.01479713809624,0.0 173.99912835673925,-42.00173894,0.0 174.03348482,-41.970881438031384,0.0 174.05535212430325,-41.95173894,0.0 174.08348482,-41.91789760247344,0.0 174.12079100520643,-41.90173894,0.0 174.13348482,-41.898523120955474,0.0 174.18348482,-41.890761846024695,0.0 174.23348482,-41.883734492273675,0.0 174.28348482,-41.861554516475074,0.0 174.29725282025373,-41.85173894,0.0 174.33348482,-41.826555371165675,0.0 174.36553540529292,-41.80173894,0.0 174.38348482,-41.77060881887584,0.0 174.39619260654771,-41.75173894,0.0 174.41093556547446,-41.70173894,0.0 174.39595739118383,-41.65173894,0.0 174.38348482,-41.64108959283827,0.0 174.33348482,-41.622295849312756,0.0 174.28348482,-41.63374677318872,0.0 174.2431413181657,-41.65173894,0.0 174.23348482,-41.654111165792074,0.0 174.18348482,-41.68232446508661,0.0 174.15676797725052,-41.70173894,0.0 174.13348482,-41.7237457420505,0.0 174.1080902118991,-41.75173894,0.0 174.08773420984826,-41.80173894,0.0 174.08348482,-41.819275663733016,0.0 174.06163795974587,-41.85173894,0.0 174.03348482,-41.88562606370139,0.0 174.00104630167453,-41.90173894,0.0 173.98348482,-41.90374412140253,0.0 173.93348482,-41.932293958790304,0.0 173.88348482,-41.944854783078256,0.0 173.86769256863536,-41.95173894,0.0 173.83348482,-41.968819913993805,0.0 173.78348482,-41.96018066649515,0.0 173.7676903897323,-41.95173894,0.0 173.73348482,-41.937103388193286,0.0 173.68348482,-41.93923617167338,0.0 173.6670538704752,-41.95173894,0.0 173.65070173399982,-42.00173894,0.0 173.65621222479774,-42.05173894,0.0 173.63348482,-42.09110367274398,0.0 173.60967618455757,-42.10173894,0.0 173.58348482,-42.10379830883526,0.0 173.53348482,-42.131891195718275,0.0 173.50331408280795,-42.15173894,0.0 173.4883598454121,-42.20173894,0.0 173.48348482,-42.21956597887311,0.0 173.46619439138456,-42.25173894,0.0 173.43348482,-42.29670386354185,0.0 173.42842528060535,-42.30173894,0.0 173.38348482,-42.336525289748586,0.0 173.35812973699427,-42.35173894,0.0 173.33348482,-42.35890655671986,0.0 173.28348482,-42.38102274965737,0.0 173.23348482,-42.385184548093854,0.0 173.18348482,-42.38185625384842,0.0 173.13348482,-42.38250998696115,0.0 173.0920035515606,-42.40173894,0.0 173.08348482,-42.40549074661833,0.0 173.0393530205484,-42.45173894,0.0 173.03348482,-42.47137958837787,0.0 173.021953509423,-42.50173894,0.0 173.00007041838376,-42.55173894,0.0 172.98348482,-42.57426441992537,0.0 172.94206469796947,-42.60173894,0.0 172.94522318653895,-42.65173894,0.0 172.98348482,-42.69712645478588,0.0 172.9896408535876,-42.70173894,0.0 173.03348482,-42.73000045697594,0.0 
			</coordinates>
		</LineString>
	</Placemark>
	<Placemark>
		<name>0.2 events</name>
		<styleUrl>#sn_noicon</styleUrl>
		<Point>
			<altitudeMode>clampToSeaFloor</altitudeMode>
			<gx:altitudeMode>clampToSeaFloor</gx:altitudeMode>
			<coordinates>173.03348482,-42.623927205036644,0.0</coordinates>
		</Point>
	</Placemark>
	<Placemark>
		<name>0.2 events</name>
		<styleUrl>#sn_noicon</styleUrl>
		<Point>
			<altitudeMode>clampToSeaFloor</altitudeMode>
			<gx:altitudeMode>clampToSeaFloor</gx:altitudeMode>
			<coordinates>173.23348482,-42.573351766277085,0.0</coordinates>
		</Point>
	</Placemark>
	<Placemark>
		<name>0.2 events</name>
		<styleUrl>#sn_noicon</styleUrl>
		<Point>
			<altitudeMode>clampToSeaFloor</altitudeMode>
			<gx:altitudeMode>clampToSeaFloor</gx:altitudeMode>
			<coordinates>173.13348482,-42.41529117417529,0.0</coordinates>
		</Point>
	</Placemark>
	<Placemark>
		<name>0.21</name>
		<styleUrl>#linestyle</styleUrl>
		<Style>
 			<LineStyle>
				<color>#ff39ff00</color>
 			</LineStyle>
 		</Style>
		<LineString>
			<tessellate>1</tessellate>
			<altitudeMode>clampToSeaFloor</altitudeMode>
			<gx:altitudeMode>clampToSeaFloor</gx:altitudeMode>
			<coordinates>
173.03348482,-42.623927205036644,0.0 173.0823442259712,-42.60173894,0.0 173.08348482,-42.601244407156145,0.0 173.13348482,-42.60125220610892,0.0 173.18348482,-42.59549100332201,0.0 173.23348482,-42.573351766277085,0.0 173.25978035893797,-42.55173894,0.0 173.27821460350071,-42.50173894,0.0 173.2630815713511,-42.45173894,0.0 173.23348482,-42.440475189164374,0.0 173.18348482,-42.41883514022063,0.0 173.13348482,-42.41529117417529,0.0 173.08348482,-42.44891452303856,0.0 173.0807896530368,-42.45173894,0.0 173.05805078005474,-42.50173894,0.0 173.03819367396432,-42.55173894,0.0 173.03348482,-42.5615125300923,0.0 173.00645665739245,-42.60173894,0.0 173.03348482,-42.623927205036644,0.0 
			</coordinates>
		</LineString>
	</Placemark>
	<Placemark>
		<name>0.21</name>
		<styleUrl>#linestyle</styleUrl>
		<Style>
 			<LineStyle>
				<color>#ff39ff00</color>
 			</LineStyle>
 		</Style>
		<LineString>
			<tessellate>1</tessellate>
			<altitudeMode>clampToSeaFloor</altitudeMode>
			<gx:altitudeMode>clampToSeaFloor</gx:altitudeMode>
			<coordinates>
173.33348482,-42.41298850514343,0.0 173.38348482,-42.414542382833574,0.0 173.3973938267371,-42.40173894,0.0 173.38348482,-42.393239809544674,0.0 173.33348482,-42.399677833957064,0.0 173.3300416859641,-42.40173894,0.0 173.33348482,-42.41298850514343,0.0 
			</coordinates>
		</LineString>
	</Placemark>
	<Placemark>
		<name>0.2 events</name>
		<styleUrl>#sn_noicon</styleUrl>
		<Point>
			<altitudeMode>clampToSeaFloor</altitudeMode>
			<gx:altitudeMode>clampToSeaFloor</gx:altitudeMode>
			<coordinates>173.73627651287612,-42.35173894,0.0</coordinates>
		</Point>
	</Placemark>
	<Placemark>
		<name>0.2 events</name>
		<styleUrl>#sn_noicon</styleUrl>
		<Point>
			<altitudeMode>clampToSeaFloor</altitudeMode>
			<gx:altitudeMode>clampToSeaFloor</gx:altitudeMode>
			<coordinates>173.63348482,-42.12983355933428,0.0</coordinates>
		</Point>
	</Placemark>
	<Placemark>
		<name>0.21</name>
		<styleUrl>#linestyle</styleUrl>
		<Style>
 			<LineStyle>
				<color>#ff39ff00</color>
 			</LineStyle>
 		</Style>
		<LineString>
			<tessellate>1</tessellate>
			<altitudeMode>clampToSeaFloor</altitudeMode>
			<gx:altitudeMode>clampToSeaFloor</gx:altitudeMode>
			<coordinates>
173.73348482,-42.355141688511964,0.0 173.73627651287612,-42.35173894,0.0 173.7532870753804,-42.30173894,0.0 173.76930549642063,-42.25173894,0.0 173.76052651018693,-42.20173894,0.0 173.73348482,-42.1590291611287,0.0 173.71857157289216,-42.15173894,0.0 173.68348482,-42.13951126418248,0.0 173.63348482,-42.12983355933428,0.0 173.58348482,-42.119163785722705,0.0 173.54333555335657,-42.15173894,0.0 173.53348482,-42.19190900461409,0.0 173.52838960516263,-42.20173894,0.0 173.52381472440973,-42.25173894,0.0 173.53348482,-42.29583144979119,0.0 173.53522395349611,-42.30173894,0.0 173.58348482,-42.33162582238458,0.0 173.63348482,-42.340233993081675,0.0 173.68348482,-42.33858864437191,0.0 173.7271355157636,-42.35173894,0.0 173.73348482,-42.355141688511964,0.0 
			</coordinates>
		</LineString>
	</Placemark>
	<Placemark>
		<name>0.21</name>
		<styleUrl>#linestyle</styleUrl>
		<Style>
 			<LineStyle>
				<color>#ff39ff00</color>
 			</LineStyle>
 		</Style>
		<LineString>
			<tessellate>1</tessellate>
			<altitudeMode>clampToSeaFloor</altitudeMode>
			<gx:altitudeMode>clampToSeaFloor</gx:altitudeMode>
			<coordinates>
173.83348482,-42.14431129063456,0.0 173.84800817383444,-42.10173894,0.0 173.83348482,-42.08536927784689,0.0 173.81288950182304,-42.10173894,0.0 173.83348482,-42.14431129063456,0.0 
			</coordinates>
		</LineString>
	</Placemark>
	<Placemark>
		<name>0.2 events</name>
		<styleUrl>#sn_noicon</styleUrl>
		<Point>
			<altitudeMode>clampToSeaFloor</altitudeMode>
			<gx:altitudeMode>clampToSeaFloor</gx:altitudeMode>
			<coordinates>173.73348482,-42.08080487516537,0.0</coordinates>
		</Point>
	</Placemark>
	<Placemark>
		<name>0.2 events</name>
		<styleUrl>#sn_noicon</styleUrl>
		<Point>
			<altitudeMode>clampToSeaFloor</altitudeMode>
			<gx:altitudeMode>clampToSeaFloor</gx:altitudeMode>
			<coordinates>173.78348482,-41.99977718909174,0.0</coordinates>
		</Point>
	</Placemark>
	<Placemark>
		<name>0.21</name>
		<styleUrl>#linestyle</styleUrl>
		<Style>
 			<LineStyle>
				<color>#ff39ff00</color>
 			</LineStyle>
 		</Style>
		<LineString>
			<tessellate>1</tessellate>
			<altitudeMode>clampToSeaFloor</altitudeMode>
			<gx:altitudeMode>clampToSeaFloor</gx:altitudeMode>
			<coordinates>
173.73348482,-42.08080487516537,0.0 173.77022121949776,-42.05173894,0.0 173.78348482,-42.01111332873654,0.0 173.78747975125788,-42.00173894,0.0 173.78348482,-41.99977718909174,0.0 173.73348482,-41.97720088663842,0.0 173.68348482,-41.99999829183856,0.0 173.68282291799426,-42.00173894,0.0 173.68348482,-42.00388777510304,0.0 173.7052623232501,-42.05173894,0.0 173.73348482,-42.08080487516537,0.0 
			</coordinates>
		</LineString>
	</Placemark>
	<Placemark>
		<name>0.21</name>
		<styleUrl>#linestyle</styleUrl>
		<Style>
 			<LineStyle>
				<color>#ff39ff00</color>
 			</LineStyle>
 		</Style>
		<LineString>
			<tessellate>1</tessellate>
			<altitudeMode>clampToSeaFloor</altitudeMode>
			<gx:altitudeMode>clampToSeaFloor</gx:altitudeMode>
			<coordinates>
173.98348482,-41.952176799834426,0.0 173.98394104492806,-41.95173894,0.0 173.98348482,-41.95136065628609,0.0 173.98300019303144,-41.95173894,0.0 173.98348482,-41.952176799834426,0.0 
			</coordinates>
		</LineString>
	</Placemark>
	<Placemark>
		<name>0.2 events</name>
		<styleUrl>#sn_noicon</styleUrl>
		<Point>
			<altitudeMode>clampToSeaFloor</altitudeMode>
			<gx:altitudeMode>clampToSeaFloor</gx:altitudeMode>
			<coordinates>174.28348482,-41.8389522580838,0.0</coordinates>
		</Point>
	</Placemark>
	<Placemark>
		<name>0.2 events</name>
		<styleUrl>#sn_noicon</styleUrl>
		<Point>
			<altitudeMode>clampToSeaFloor</altitudeMode>
			<gx:altitudeMode>clampToSeaFloor</gx:altitudeMode>
			<coordinates>174.33348482,-41.65612000281256,0.0</coordinates>
		</Point>
	</Placemark>
	<Placemark>
		<name>0.21</name>
		<styleUrl>#linestyle</styleUrl>
		<Style>
 			<LineStyle>
				<color>#ff39ff00</color>
 			</LineStyle>
 		</Style>
		<LineString>
			<tessellate>1</tessellate>
			<altitudeMode>clampToSeaFloor</altitudeMode>
			<gx:altitudeMode>clampToSeaFloor</gx:altitudeMode>
			<coordinates>
174.18348482,-41.847875236923784,0.0 174.23348482,-41.851219203356266,0.0 174.28348482,-41.8389522580838,0.0 174.32558399781857,-41.80173894,0.0 174.33348482,-41.78575033610288,0.0 174.35993945669665,-41.75173894,0.0 174.37485734784718,-41.70173894,0.0 174.33348482,-41.65612000281256,0.0 174.28348482,-41.657853976883416,0.0 174.23348482,-41.67681013183861,0.0 174.20014701121607,-41.70173894,0.0 174.18348482,-41.71504074862709,0.0 174.14589455393505,-41.75173894,0.0 174.13951985243781,-41.80173894,0.0 174.18348482,-41.847875236923784,0.0 
			</coordinates>
		</LineString>
	</Placemark>
	<Placemark>
		<name>0.2 events</name>
		<styleUrl>#sn_noicon</styleUrl>
		<Point>
			<altitudeMode>clampToSeaFloor</altitudeMode>
			<gx:altitudeMode>clampToSeaFloor</gx:altitudeMode>
			<coordinates>173.08348482,-42.56351142667932,0.0</coordinates>
		</Point>
	</Placemark>
	<Placemark>
		<name>0.2 events</name>
		<styleUrl>#sn_noicon</styleUrl>
		<Point>
			<altitudeMode>clampToSeaFloor</altitudeMode>
			<gx:altitudeMode>clampToSeaFloor</gx:altitudeMode>
			<coordinates>173.13348482,-42.554468953208556,0.0</coordinates>
		</Point>
	</Placemark>
	<Placemark>
		<name>0.2 events</name>
		<styleUrl>#sn_noicon</styleUrl>
		<Point>
			<altitudeMode>clampToSeaFloor</altitudeMode>
			<gx:altitudeMode>clampToSeaFloor</gx:altitudeMode>
			<coordinates>173.18549860681827,-42.45173894,0.0</coordinates>
		</Point>
	</Placemark>
	<Placemark>
		<name>0.2 events</name>
		<styleUrl>#sn_noicon</styleUrl>
		<Point>
			<altitudeMode>clampToSeaFloor</altitudeMode>
			<gx:altitudeMode>clampToSeaFloor</gx:altitudeMode>
			<coordinates>173.0938224119603,-42.50173894,0.0</coordinates>
		</Point>
	</Placemark>
	<Placemark>
		<name>0.26</name>
		<styleUrl>#linestyle</styleUrl>
		<Style>
 			<LineStyle>
				<color>#ff00ff39</color>
 			</LineStyle>
 		</Style>
		<LineString>
			<tessellate>1</tessellate>
			<altitudeMode>clampToSeaFloor</altitudeMode>
			<gx:altitudeMode>clampToSeaFloor</gx:altitudeMode>
			<coordinates>
173.08348482,-42.56351142667932,0.0 173.13348482,-42.554468953208556,0.0 173.18348482,-42.56249409593552,0.0 173.19953805734622,-42.55173894,0.0 173.19098023267128,-42.50173894,0.0 173.18549860681827,-42.45173894,0.0 173.18348482,-42.450674069819875,0.0 173.13348482,-42.43868601169726,0.0 173.11479832067843,-42.45173894,0.0 173.0938224119603,-42.50173894,0.0 173.08348482,-42.520743987704655,0.0 173.07271450625436,-42.55173894,0.0 173.08348482,-42.56351142667932,0.0 
			</coordinates>
		</LineString>
	</Placemark>
	<Placemark>
		<name>0.2 events</name>
		<styleUrl>#sn_noicon</styleUrl>
		<Point>
			<altitudeMode>clampToSeaFloor</altitudeMode>
			<gx:altitudeMode>clampToSeaFloor</gx:altitudeMode>
			<coordinates>173.68348482,-42.31099609499509,0.0</coordinates>
		</Point>
	</Placemark>
	<Placemark>
		<name>0.2 events</name>
		<styleUrl>#sn_noicon</styleUrl>
		<Point>
			<altitudeMode>clampToSeaFloor</altitudeMode>
			<gx:altitudeMode>clampToSeaFloor</gx:altitudeMode>
			<coordinates>173.63348482,-42.159789461995096,0.0</coordinates>
		</Point>
	</Placemark>
	<Placemark>
		<name>0.26</name>
		<styleUrl>#linestyle</styleUrl>
		<Style>
 			<LineStyle>
				<color>#ff00ff39</color>
 			</LineStyle>
 		</Style>
		<LineString>
			<tessellate>1</tessellate>
			<altitudeMode>clampToSeaFloor</altitudeMode>
			<gx:altitudeMode>clampToSeaFloor</gx:altitudeMode>
			<coordinates>
173.63348482,-42.31719614110149,0.0 173.68348482,-42.31099609499509,0.0 173.70368660363596,-42.30173894,0.0 173.73266299466022,-42.25173894,0.0 173.713254621702,-42.20173894,0.0 173.68348482,-42.17801994882729,0.0 173.63348482,-42.159789461995096,0.0 173.62250141746176,-42.15173894,0.0 173.58348482,-42.13452926261016,0.0 173.56227368710742,-42.15173894,0.0 173.5554574652245,-42.20173894,0.0 173.5598567311374,-42.25173894,0.0 173.58348482,-42.286999147501525,0.0 173.59909196197958,-42.30173894,0.0 173.63348482,-42.31719614110149,0.0 
			</coordinates>
		</LineString>
	</Placemark>
	<Placemark>
		<name>0.2 events</name>
		<styleUrl>#sn_noicon</styleUrl>
		<Point>
			<altitudeMode>clampToSeaFloor</altitudeMode>
			<gx:altitudeMode>clampToSeaFloor</gx:altitudeMode>
			<coordinates>174.23348482,-41.84132353679601,0.0</coordinates>
		</Point>
	</Placemark>
	<Placemark>
		<name>0.2 events</name>
		<styleUrl>#sn_noicon</styleUrl>
		<Point>
			<altitudeMode>clampToSeaFloor</altitudeMode>
			<gx:altitudeMode>clampToSeaFloor</gx:altitudeMode>
			<coordinates>174.3556218191361,-41.70173894,0.0</coordinates>
		</Point>
	</Placemark>
	<Placemark>
		<name>0.26</name>
		<styleUrl>#linestyle</styleUrl>
		<Style>
 			<LineStyle>
				<color>#ff00ff39</color>
 			</LineStyle>
 		</Style>
		<LineString>
			<tessellate>1</tessellate>
			<altitudeMode>clampToSeaFloor</altitudeMode>
			<gx:altitudeMode>clampToSeaFloor</gx:altitudeMode>
			<coordinates>
174.18348482,-41.82367336909043,0.0 174.23348482,-41.84132353679601,0.0 174.28348482,-41.82252345058151,0.0 174.30699819778783,-41.80173894,0.0 174.332258217699,-41.75173894,0.0 174.33348482,-41.74789972695195,0.0 174.3556218191361,-41.70173894,0.0 174.33348482,-41.67732983507805,0.0 174.28348482,-41.66870817768043,0.0 174.23348482,-41.699509097885134,0.0 174.23050280619643,-41.70173894,0.0 174.18348482,-41.7392744745708,0.0 174.17071736323135,-41.75173894,0.0 174.16258269894226,-41.80173894,0.0 174.18348482,-41.82367336909043,0.0 
			</coordinates>
		</LineString>
	</Placemark>
	<Placemark>
		<name>0.3 events</name>
		<styleUrl>#sn_noicon</styleUrl>
		<Point>
			<altitudeMode>clampToSeaFloor</altitudeMode>
			<gx:altitudeMode>clampToSeaFloor</gx:altitudeMode>
			<coordinates>173.63348482,-42.29314499624718,0.0</coordinates>
		</Point>
	</Placemark>
	<Placemark>
		<name>0.3 events</name>
		<styleUrl>#sn_noicon</styleUrl>
		<Point>
			<altitudeMode>clampToSeaFloor</altitudeMode>
			<gx:altitudeMode>clampToSeaFloor</gx:altitudeMode>
			<coordinates>173.71041912992425,-42.25173894,0.0</coordinates>
		</Point>
	</Placemark>
	<Placemark>
		<name>0.3 events</name>
		<styleUrl>#sn_noicon</styleUrl>
		<Point>
			<altitudeMode>clampToSeaFloor</altitudeMode>
			<gx:altitudeMode>clampToSeaFloor</gx:altitudeMode>
			<coordinates>173.58766586459546,-42.15173894,0.0</coordinates>
		</Point>
	</Placemark>
	<Placemark>
		<name>0.31</name>
		<styleUrl>#linestyle</styleUrl>
		<Style>
 			<LineStyle>
				<color>#ff00ffaa</color>
 			</LineStyle>
 		</Style>
		<LineString>
			<tessellate>1</tessellate>
			<altitudeMode>clampToSeaFloor</altitudeMode>
			<gx:altitudeMode>clampToSeaFloor</gx:altitudeMode>
			<coordinates>
173.63348482,-42.29314499624718,0.0 173.68348482,-42.28402229503796,0.0 173.71041912992425,-42.25173894,0.0 173.68348482,-42.21122293092315,0.0 173.66818627648183,-42.20173894,0.0 173.63348482,-42.185322932482464,0.0 173.58766586459546,-42.15173894,0.0 173.58348482,-42.149894739497604,0.0 173.58121182085824,-42.15173894,0.0 173.58063482796405,-42.20173894,0.0 173.58348482,-42.21644548819773,0.0 173.5907989842702,-42.25173894,0.0 173.63348482,-42.29314499624718,0.0 
			</coordinates>
		</LineString>
	</Placemark>
	<Placemark>
		<name>0.3 events</name>
		<styleUrl>#sn_noicon</styleUrl>
		<Point>
			<altitudeMode>clampToSeaFloor</altitudeMode>
			<gx:altitudeMode>clampToSeaFloor</gx:altitudeMode>
			<coordinates>174.23348482,-41.83142787023575,0.0</coordinates>
		</Point>
	</Placemark>
	<Placemark>
		<name>0.3 events</name>
		<styleUrl>#sn_noicon</styleUrl>
		<Point>
			<altitudeMode>clampToSeaFloor</altitudeMode>
			<gx:altitudeMode>clampToSeaFloor</gx:altitudeMode>
			<coordinates>174.33348482,-41.707789180021834,0.0</coordinates>
		</Point>
	</Placemark>
	<Placemark>
		<name>0.3 events</name>
		<styleUrl>#sn_noicon</styleUrl>
		<Point>
			<altitudeMode>clampToSeaFloor</altitudeMode>
			<gx:altitudeMode>clampToSeaFloor</gx:altitudeMode>
			<coordinates>174.24879545424074,-41.70173894,0.0</coordinates>
		</Point>
	</Placemark>
	<Placemark>
		<name>0.31</name>
		<styleUrl>#linestyle</styleUrl>
		<Style>
 			<LineStyle>
				<color>#ff00ffaa</color>
 			</LineStyle>
 		</Style>
		<LineString>
			<tessellate>1</tessellate>
			<altitudeMode>clampToSeaFloor</altitudeMode>
			<gx:altitudeMode>clampToSeaFloor</gx:altitudeMode>
			<coordinates>
174.23348482,-41.83142787023575,0.0 174.28348482,-41.80609464307921,0.0 174.28841239775707,-41.80173894,0.0 174.319443172391,-41.75173894,0.0 174.33348482,-41.707789180021834,0.0 174.336386290425,-41.70173894,0.0 174.33348482,-41.69853966734354,0.0 174.28348482,-41.67956237847744,0.0 174.24879545424074,-41.70173894,0.0 174.23348482,-41.72428384270327,0.0 174.19881660359835,-41.75173894,0.0 174.1849989135223,-41.80173894,0.0 174.23348482,-41.83142787023575,0.0 
			</coordinates>
		</LineString>
	</Placemark>
	<Placemark>
		<name>0.3 events</name>
		<styleUrl>#sn_noicon</styleUrl>
		<Point>
			<altitudeMode>clampToSeaFloor</altitudeMode>
			<gx:altitudeMode>clampToSeaFloor</gx:altitudeMode>
			<coordinates>173.63348482,-42.26702771327616,0.0</coordinates>
		</Point>
	</Placemark>
	<Placemark>
		<name>0.36</name>
		<styleUrl>#linestyle</styleUrl>
		<Style>
 			<LineStyle>
				<color>#ff00e3ff</color>
 			</LineStyle>
 		</Style>
		<LineString>
			<tessellate>1</tessellate>
			<altitudeMode>clampToSeaFloor</altitudeMode>
			<gx:altitudeMode>clampToSeaFloor</gx:altitudeMode>
			<coordinates>
173.63348482,-42.26702771327616,0.0 173.68348482,-42.25736088864936,0.0 173.68817526518828,-42.25173894,0.0 173.68348482,-42.244683325047994,0.0 173.63348482,-42.22068275976197,0.0 173.6177235009147,-42.25173894,0.0 173.63348482,-42.26702771327616,0.0 
			</coordinates>
		</LineString>
	</Placemark>
	<Placemark>
		<name>0.3 events</name>
		<styleUrl>#sn_noicon</styleUrl>
		<Point>
			<altitudeMode>clampToSeaFloor</altitudeMode>
			<gx:altitudeMode>clampToSeaFloor</gx:altitudeMode>
			<coordinates>174.27005053338152,-41.80173894,0.0</coordinates>
		</Point>
	</Placemark>
	<Placemark>
		<name>0.3 events</name>
		<styleUrl>#sn_noicon</styleUrl>
		<Point>
			<altitudeMode>clampToSeaFloor</altitudeMode>
			<gx:altitudeMode>clampToSeaFloor</gx:altitudeMode>
			<coordinates>174.28348482,-41.690416579274455,0.0</coordinates>
		</Point>
	</Placemark>
	<Placemark>
		<name>0.36</name>
		<styleUrl>#linestyle</styleUrl>
		<Style>
 			<LineStyle>
				<color>#ff00e3ff</color>
 			</LineStyle>
 		</Style>
		<LineString>
			<tessellate>1</tessellate>
			<altitudeMode>clampToSeaFloor</altitudeMode>
			<gx:altitudeMode>clampToSeaFloor</gx:altitudeMode>
			<coordinates>
174.23348482,-41.82153220367549,0.0 174.27005053338152,-41.80173894,0.0 174.28348482,-41.7872775963164,0.0 174.30662812708297,-41.75173894,0.0 174.31104746301742,-41.70173894,0.0 174.28348482,-41.690416579274455,0.0 174.26577398092033,-41.70173894,0.0 174.23348482,-41.74928471634556,0.0 174.23038581234286,-41.75173894,0.0 174.2011598313986,-41.80173894,0.0 174.23348482,-41.82153220367549,0.0 
			</coordinates>
		</LineString>
	</Placemark>
	<Placemark>
		<name>0.4 events</name>
		<styleUrl>#sn_noicon</styleUrl>
		<Point>
			<altitudeMode>clampToSeaFloor</altitudeMode>
			<gx:altitudeMode>clampToSeaFloor</gx:altitudeMode>
			<coordinates>174.23348482,-41.81163653711523,0.0</coordinates>
		</Point>
	</Placemark>
	<Placemark>
		<name>0.41</name>
		<styleUrl>#linestyle</styleUrl>
		<Style>
 			<LineStyle>
				<color>#ff0071ff</color>
 			</LineStyle>
 		</Style>
		<LineString>
			<tessellate>1</tessellate>
			<altitudeMode>clampToSeaFloor</altitudeMode>
			<gx:altitudeMode>clampToSeaFloor</gx:altitudeMode>
			<coordinates>
174.23348482,-41.81163653711523,0.0 174.25176945992675,-41.80173894,0.0 174.23348482,-41.77544610249704,0.0 174.2173207492749,-41.80173894,0.0 174.23348482,-41.81163653711523,0.0 
			</coordinates>
		</LineString>
	</Placemark>
	<Placemark>
		<name>0.41</name>
		<styleUrl>#linestyle</styleUrl>
		<Style>
 			<LineStyle>
				<color>#ff0071ff</color>
 			</LineStyle>
 		</Style>
		<LineString>
			<tessellate>1</tessellate>
			<altitudeMode>clampToSeaFloor</altitudeMode>
			<gx:altitudeMode>clampToSeaFloor</gx:altitudeMode>
			<coordinates>
174.28348482,-41.76759892683118,0.0 174.29381308177497,-41.75173894,0.0 174.2846244873625,-41.70173894,0.0 174.28348482,-41.70127078007147,0.0 174.2827525075999,-41.70173894,0.0 174.25988848747647,-41.75173894,0.0 174.28348482,-41.76759892683118,0.0 
			</coordinates>
		</LineString>
	</Placemark>
	<Placemark>
		<name>0.4 events</name>
		<styleUrl>#sn_noicon</styleUrl>
		<Point>
			<altitudeMode>clampToSeaFloor</altitudeMode>
			<gx:altitudeMode>clampToSeaFloor</gx:altitudeMode>
			<coordinates>174.23348482,-41.801740870554966,0.0</coordinates>
		</Point>
	</Placemark>
	<Placemark>
		<name>0.46</name>
		<styleUrl>#linestyle</styleUrl>
		<Style>
 			<LineStyle>
				<color>#ff000000</color>
 			</LineStyle>
 		</Style>
		<LineString>
			<tessellate>1</tessellate>
			<altitudeMode>clampToSeaFloor</altitudeMode>
			<gx:altitudeMode>clampToSeaFloor</gx:altitudeMode>
			<coordinates>
174.23348482,-41.801740870554966,0.0 174.23348838647195,-41.80173894,0.0 174.23348482,-41.80173381150593,0.0 174.2334816671512,-41.80173894,0.0 174.23348482,-41.801740870554966,0.0 
			</coordinates>
		</LineString>
	</Placemark>
</Document>
</kml>
