<?xml version="1.0" encoding="UTF-8"?>
<kml xmlns="http://www.opengis.net/kml/2.2"
 xmlns:gx="http://www.google.com/kml/ext/2.2"
 xmlns:kml="http://www.opengis.net/kml/2.2"
 xmlns:atom="http://www.w3.org/2005/Atom">
<Document>
	<name>2016p858000.kml</name>
	<Style id="sn_noicon">
		<IconStyle>
			<Icon>
			</Icon>
		</IconStyle>
		<LabelStyle>
			<scale>0.8</scale>
		</LabelStyle>
	</Style>
	<Style id="linestyle">
			<LineStyle>
				<width>2</width>
			</LineStyle>
	</Style>
	<Placemark>
		<name>0.1 events</name>
		<styleUrl>#sn_noicon</styleUrl>
		<Point>
			<altitudeMode>clampToSeaFloor</altitudeMode>
			<gx:altitudeMode>clampToSeaFloor</gx:altitudeMode>
			<coordinates>172.62076112,-43.07014283112919,0.0</coordinates>
		</Point>
	</Placemark>
	<Placemark>
		<name>0.1 events</name>
		<styleUrl>#sn_noicon</styleUrl>
		<Point>
			<altitudeMode>clampToSeaFloor</altitudeMode>
			<gx:altitudeMode>clampToSeaFloor</gx:altitudeMode>
			<coordinates>173.430222090384,-42.69548357,0.0</coordinates>
		</Point>
	</Placemark>
	<Placemark>
		<name>0.1 events</name>
		<styleUrl>#sn_noicon</styleUrl>
		<Point>
			<altitudeMode>clampToSeaFloor</altitudeMode>
			<gx:altitudeMode>clampToSeaFloor</gx:altitudeMode>
			<coordinates>174.68996773165935,-41.49548357,0.0</coordinates>
		</Point>
	</Placemark>
	<Placemark>
		<name>0.11</name>
		<styleUrl>#linestyle</styleUrl>
		<Style>
 			<LineStyle>
				<color>#ffff7100</color>
 			</LineStyle>
 		</Style>
		<LineString>
			<tessellate>1</tessellate>
			<altitudeMode>clampToSeaFloor</altitudeMode>
			<gx:altitudeMode>clampToSeaFloor</gx:altitudeMode>
			<coordinates>
172.62076112,-43.07014283112919,0.0 172.67076112,-43.08078522213262,0.0 172.72076112,-43.082496572992454,0.0 172.77076112,-43.07756564337002,0.0 172.82076112,-43.066329482306735,0.0 172.87076112,-43.04827597645313,0.0 172.8772509600704,-43.04548357,0.0 172.92076112,-43.02883002517034,0.0 172.97076112,-43.00352417318856,0.0 172.9850259421485,-42.99548357,0.0 173.02076112,-42.976619632402105,0.0 173.06988881247818,-42.94548357,0.0 173.07076112,-42.944959436042005,0.0 173.12076112,-42.91447555567089,0.0 173.14841558442336,-42.89548357,0.0 173.17076112,-42.880976370347256,0.0 173.22025491184547,-42.84548357,0.0 173.22076112,-42.84514110993384,0.0 173.27076112,-42.811310847415996,0.0 173.29228953309408,-42.79548357,0.0 173.32076112,-42.7757722088823,0.0 173.36127432868213,-42.74548357,0.0 173.37076112,-42.738809365914314,0.0 173.42076112,-42.70249495155093,0.0 173.430222090384,-42.69548357,0.0 173.47076112,-42.667505388630794,0.0 173.50107646803147,-42.64548357,0.0 173.52076112,-42.632407401117995,0.0 173.57076112,-42.59881558481756,0.0 173.57609777258278,-42.59548357,0.0 173.62076112,-42.57250297291642,0.0 173.67076112,-42.55191951820684,0.0 173.703952544213,-42.54548357,0.0 173.72076112,-42.54389830129416,0.0 173.7341075906959,-42.54548357,0.0 173.77076112,-42.55103014055091,0.0 173.79938441007695,-42.54548357,0.0 173.82076112,-42.54262026020546,0.0 173.87059506717847,-42.49548357,0.0 173.87076112,-42.49525996414072,0.0 173.91848519052,-42.44548357,0.0 173.92076112,-42.442830223766244,0.0 173.97076112,-42.42377479601143,0.0 174.02076112,-42.42420914622119,0.0 174.0626135395871,-42.39548357,0.0 174.07076112,-42.37703699060223,0.0 174.0862855580644,-42.34548357,0.0 174.07076112,-42.31425361041368,0.0 174.05878335898404,-42.29548357,0.0 174.0595669977415,-42.24548357,0.0 174.07076112,-42.22776737026294,0.0 174.09678695223948,-42.19548357,0.0 174.12076112,-42.17274930711224,0.0 174.14991732271585,-42.14548357,0.0 174.17076112,-42.127999623266334,0.0 174.20842059444743,-42.09548357,0.0 174.22076112,-42.085788437273564,0.0 174.269586826616,-42.04548357,0.0 174.27076112,-42.04461701339701,0.0 174.32076112,-42.00702118312996,0.0 174.33488582855458,-41.99548357,0.0 174.37076112,-41.969281257231536,0.0 174.3994772914166,-41.94548357,0.0 174.42076112,-41.929265375371436,0.0 174.4596035872242,-41.89548357,0.0 174.47076112,-41.886522855662996,0.0 174.51426240119406,-41.84548357,0.0 174.52076112,-41.838578460366435,0.0 174.5607029165564,-41.79548357,0.0 174.57076112,-41.78270171025891,0.0 174.60221837223133,-41.74548357,0.0 174.62076112,-41.72087613809782,0.0 174.63995763825676,-41.69548357,0.0 174.66953062777642,-41.64548357,0.0 174.67076112,-41.64255262926533,0.0 174.69199686243832,-41.59548357,0.0 174.6998025318116,-41.54548357,0.0 174.68996773165935,-41.49548357,0.0 174.67076112,-41.46758599817379,0.0 174.6524136521851,-41.44548357,0.0 174.62076112,-41.42290691294132,0.0 174.57076112,-41.4040651813641,0.0 174.52076112,-41.397483904178905,0.0 174.47076112,-41.39824777789339,0.0 174.42076112,-41.40483728642202,0.0 174.37076112,-41.41726755628485,0.0 174.32076112,-41.436132178986796,0.0 174.30043362082415,-41.44548357,0.0 174.27076112,-41.45763664361185,0.0 174.22076112,-41.482666438019706,0.0 174.19835542787527,-41.49548357,0.0 174.17076112,-41.50984667361915,0.0 174.12076112,-41.54042653423762,0.0 174.1129213411353,-41.54548357,0.0 174.07076112,-41.570739631361015,0.0 174.03513322961336,-41.59548357,0.0 174.02076112,-41.604968261966704,0.0 173.97076112,-41.64082378162101,0.0 173.9643876514727,-41.64548357,0.0 173.92076112,-41.676018129720205,0.0 173.89455655099056,-41.69548357,0.0 173.87076112,-41.71204839525032,0.0 173.82463853430036,-41.74548357,0.0 173.82076112,-41.747996351680555,0.0 173.77076112,-41.77860481089217,0.0 173.74392646215946,-41.79548357,0.0 173.72076112,-41.80617025382219,0.0 173.67076112,-41.83053518847496,0.0 173.6459444433457,-41.84548357,0.0 173.62076112,-41.856206502207954,0.0 173.57076112,-41.891779778044864,0.0 173.56608847998453,-41.89548357,0.0 173.52076112,-41.936660678066055,0.0 173.51096385090202,-41.94548357,0.0 173.47076112,-41.98466560037549,0.0 173.45867286220079,-41.99548357,0.0 173.42076112,-42.02748041088595,0.0 173.39995713923196,-42.04548357,0.0 173.37076112,-42.06982011842918,0.0 173.3417310341542,-42.09548357,0.0 173.32076112,-42.11453114984852,0.0 173.28659826388812,-42.14548357,0.0 173.27076112,-42.15985435533588,0.0 173.2307453405232,-42.19548357,0.0 173.22076112,-42.203942235086735,0.0 173.1712016568487,-42.24548357,0.0 173.17076112,-42.24580522052968,0.0 173.12076112,-42.27628470960379,0.0 173.090008398271,-42.29548357,0.0 173.07076112,-42.29901841693562,0.0 173.02076112,-42.344337210896704,0.0 173.01951736863342,-42.34548357,0.0 172.97701355394202,-42.39548357,0.0 172.97076112,-42.40118339707136,0.0 172.92076112,-42.44448514555309,0.0 172.91959347211466,-42.44548357,0.0 172.87076112,-42.48294854139098,0.0 172.85533355427563,-42.49548357,0.0 172.82076112,-42.511612908458794,0.0 172.7808095269953,-42.54548357,0.0 172.77076112,-42.55937394140301,0.0 172.73780065020176,-42.59548357,0.0 172.72076112,-42.6164078846634,0.0 172.6928480937996,-42.64548357,0.0 172.67076112,-42.66847677644884,0.0 172.64498028478317,-42.69548357,0.0 172.62076112,-42.721810162122885,0.0 172.59984082068726,-42.74548357,0.0 172.57076112,-42.78286524589566,0.0 172.56123199314135,-42.79548357,0.0 172.53087131618736,-42.84548357,0.0 172.52076112,-42.873960353128524,0.0 172.51231922579538,-42.89548357,0.0 172.5077478897638,-42.94548357,0.0 172.52076112,-42.984631117651126,0.0 172.52402835674613,-42.99548357,0.0 172.57076112,-43.04464090400277,0.0 172.5720519742859,-43.04548357,0.0 172.62076112,-43.07014283112919,0.0 
			</coordinates>
		</LineString>
	</Placemark>
	<Placemark>
		<name>0.2 events</name>
		<styleUrl>#sn_noicon</styleUrl>
		<Point>
			<altitudeMode>clampToSeaFloor</altitudeMode>
			<gx:altitudeMode>clampToSeaFloor</gx:altitudeMode>
			<coordinates>172.67076112,-42.98005652942769,0.0</coordinates>
		</Point>
	</Placemark>
	<Placemark>
		<name>0.2 events</name>
		<styleUrl>#sn_noicon</styleUrl>
		<Point>
			<altitudeMode>clampToSeaFloor</altitudeMode>
			<gx:altitudeMode>clampToSeaFloor</gx:altitudeMode>
			<coordinates>172.8662392637534,-42.94548357,0.0</coordinates>
		</Point>
	</Placemark>
	<Placemark>
		<name>0.2 events</name>
		<styleUrl>#sn_noicon</styleUrl>
		<Point>
			<altitudeMode>clampToSeaFloor</altitudeMode>
			<gx:altitudeMode>clampToSeaFloor</gx:altitudeMode>
			<coordinates>174.07076112,-42.05535806143725,0.0</coordinates>
		</Point>
	</Placemark>
	<Placemark>
		<name>0.23</name>
		<styleUrl>#linestyle</styleUrl>
		<Style>
 			<LineStyle>
				<color>#ffffe300</color>
 			</LineStyle>
 		</Style>
		<LineString>
			<tessellate>1</tessellate>
			<altitudeMode>clampToSeaFloor</altitudeMode>
			<gx:altitudeMode>clampToSeaFloor</gx:altitudeMode>
			<coordinates>
172.67076112,-42.98005652942769,0.0 172.72076112,-42.99044436885268,0.0 172.77076112,-42.98315379354328,0.0 172.82076112,-42.96698889171992,0.0 172.8662392637534,-42.94548357,0.0 172.87076112,-42.943249755205606,0.0 172.92076112,-42.91571523137961,0.0 172.95283517246534,-42.89548357,0.0 172.97076112,-42.88417024311293,0.0 173.02076112,-42.850782795582724,0.0 173.02832071250344,-42.84548357,0.0 173.07076112,-42.81666947526699,0.0 173.10001561955113,-42.79548357,0.0 173.12076112,-42.78098475322872,0.0 173.1689589512565,-42.74548357,0.0 173.17076112,-42.74420576433885,0.0 173.22076112,-42.70848722856632,0.0 173.23790968315657,-42.69548357,0.0 173.27076112,-42.67154301735678,0.0 173.30466891276973,-42.64548357,0.0 173.32076112,-42.6333785179698,0.0 173.36995603869883,-42.59548357,0.0 173.37076112,-42.594876854887524,0.0 173.42076112,-42.55867354323113,0.0 173.43862934662,-42.54548357,0.0 173.47076112,-42.52333923973615,0.0 173.5114476755961,-42.49548357,0.0 173.52076112,-42.489705406354,0.0 173.57076112,-42.46258193681459,0.0 173.612011417102,-42.44548357,0.0 173.62076112,-42.442583356022645,0.0 173.67076112,-42.44166483731946,0.0 173.67485044973526,-42.44548357,0.0 173.72076112,-42.469060380323484,0.0 173.77076112,-42.48673444830307,0.0 173.82076112,-42.46915573896922,0.0 173.8411250498717,-42.44548357,0.0 173.84879854034983,-42.39548357,0.0 173.87076112,-42.37682255784505,0.0 173.92076112,-42.37467893894664,0.0 173.9579076329404,-42.34548357,0.0 173.92076112,-42.30778181722144,0.0 173.87076112,-42.29931364412124,0.0 173.86614633761246,-42.29548357,0.0 173.87076112,-42.28088296357646,0.0 173.88413233524088,-42.24548357,0.0 173.91944645270345,-42.19548357,0.0 173.92076112,-42.193964798830194,0.0 173.96713790638603,-42.14548357,0.0 173.97076112,-42.14191628154182,0.0 174.02076112,-42.09642126361361,0.0 174.0218153381905,-42.09548357,0.0 174.07076112,-42.05535806143725,0.0 174.08256995891534,-42.04548357,0.0 174.12076112,-42.015741699213166,0.0 174.14632110293832,-41.99548357,0.0 174.17076112,-41.97818133405934,0.0 174.2168688460916,-41.94548357,0.0 174.22076112,-41.94350263048448,0.0 174.27076112,-41.91691201932794,0.0 174.30152292945215,-41.89548357,0.0 174.32076112,-41.88552644531131,0.0 174.37057659558593,-41.84548357,0.0 174.37076112,-41.84532159180223,0.0 174.42076112,-41.83003312695027,0.0 174.45851391621264,-41.79548357,0.0 174.46663688135376,-41.74548357,0.0 174.47076112,-41.73781296723315,0.0 174.50048718892475,-41.69548357,0.0 174.52076112,-41.66854500995062,0.0 174.538688120288,-41.64548357,0.0 174.56784673909203,-41.59548357,0.0 174.57076112,-41.58096710190724,0.0 174.57797817790228,-41.54548357,0.0 174.57076112,-41.53085606532979,0.0 174.5351500484657,-41.49548357,0.0 174.52076112,-41.48990939899653,0.0 174.47076112,-41.48830683734042,0.0 174.438915047984,-41.49548357,0.0 174.42076112,-41.49967078976841,0.0 174.37076112,-41.51795782395431,0.0 174.32076112,-41.54187882517516,0.0 174.3141935290334,-41.54548357,0.0 174.27076112,-41.56662559828831,0.0 174.22166126619814,-41.59548357,0.0 174.22076112,-41.59588635509482,0.0 174.17076112,-41.62349050674285,0.0 174.13919099762288,-41.64548357,0.0 174.12076112,-41.65690697975162,0.0 174.07199539397854,-41.69548357,0.0 174.07076112,-41.696652617392374,0.0 174.02076112,-41.73866800373206,0.0 174.0123760199427,-41.74548357,0.0 173.97076112,-41.778882780260446,0.0 173.9492238938439,-41.79548357,0.0 173.92076112,-41.81326231766787,0.0 173.87737394639944,-41.84548357,0.0 173.87076112,-41.85070826451832,0.0 173.82076112,-41.87767436282818,0.0 173.77076112,-41.893155140927746,0.0 173.75771161512102,-41.89548357,0.0 173.72076112,-41.89763491133443,0.0 173.67076112,-41.90623371327483,0.0 173.62132445767242,-41.94548357,0.0 173.62076112,-41.94701481244408,0.0 173.59172107774953,-41.99548357,0.0 173.57076112,-42.038799310121284,0.0 173.56493233871336,-42.04548357,0.0 173.52076112,-42.07698627197293,0.0 173.49792757286647,-42.09548357,0.0 173.47076112,-42.10570791496705,0.0 173.42764185390632,-42.14548357,0.0 173.42076112,-42.165832011312375,0.0 173.39678837890347,-42.19548357,0.0 173.37076112,-42.22608727144682,0.0 173.3512073269515,-42.24548357,0.0 173.32076112,-42.27440597468917,0.0 173.2970047365989,-42.29548357,0.0 173.27076112,-42.31704978000456,0.0 173.2350050064434,-42.34548357,0.0 173.22076112,-42.355829234152786,0.0 173.17076112,-42.386210934091366,0.0 173.15456193848146,-42.39548357,0.0 173.12076112,-42.405747295422344,0.0 173.07646938845772,-42.44548357,0.0 173.07076112,-42.450449301802344,0.0 173.02076112,-42.49304851199264,0.0 173.01789170016102,-42.49548357,0.0 172.97076112,-42.532402671002224,0.0 172.9543331202597,-42.54548357,0.0 172.92076112,-42.563259617711914,0.0 172.87851178533919,-42.59548357,0.0 172.87076112,-42.601972356513606,0.0 172.8272418928711,-42.64548357,0.0 172.82076112,-42.65843549677331,0.0 172.79396222048504,-42.69548357,0.0 172.77076112,-42.72719063439979,0.0 172.7534340247669,-42.74548357,0.0 172.72076112,-42.779058347818435,0.0 172.705164736825,-42.79548357,0.0 172.67076112,-42.836819014629235,0.0 172.6638717463114,-42.84548357,0.0 172.63682649065535,-42.89548357,0.0 172.63461122085138,-42.94548357,0.0 172.67076112,-42.98005652942769,0.0 
			</coordinates>
		</LineString>
	</Placemark>
	<Placemark>
		<name>0.23</name>
		<styleUrl>#linestyle</styleUrl>
		<Style>
 			<LineStyle>
				<color>#ffffe300</color>
 			</LineStyle>
 		</Style>
		<LineString>
			<tessellate>1</tessellate>
			<altitudeMode>clampToSeaFloor</altitudeMode>
			<gx:altitudeMode>clampToSeaFloor</gx:altitudeMode>
			<coordinates>
174.02076112,-42.35441288229837,0.0 174.02704984197925,-42.34548357,0.0 174.02076112,-42.338221438250976,0.0 174.00683170768977,-42.34548357,0.0 174.02076112,-42.35441288229837,0.0 
			</coordinates>
		</LineString>
	</Placemark>
	<Placemark>
		<name>0.23</name>
		<styleUrl>#linestyle</styleUrl>
		<Style>
 			<LineStyle>
				<color>#ffffe300</color>
 			</LineStyle>
 		</Style>
		<LineString>
			<tessellate>1</tessellate>
			<altitudeMode>clampToSeaFloor</altitudeMode>
			<gx:altitudeMode>clampToSeaFloor</gx:altitudeMode>
			<coordinates>
173.97076112,-42.301660044776526,0.0 173.97368085827458,-42.29548357,0.0 173.97076112,-42.291644081174006,0.0 173.96425811806728,-42.29548357,0.0 173.97076112,-42.301660044776526,0.0 
			</coordinates>
		</LineString>
	</Placemark>
	<Placemark>
		<name>0.3 events</name>
		<styleUrl>#sn_noicon</styleUrl>
		<Point>
			<altitudeMode>clampToSeaFloor</altitudeMode>
			<gx:altitudeMode>clampToSeaFloor</gx:altitudeMode>
			<coordinates>172.82076112,-42.85169166503482,0.0</coordinates>
		</Point>
	</Placemark>
	<Placemark>
		<name>0.3 events</name>
		<styleUrl>#sn_noicon</styleUrl>
		<Point>
			<altitudeMode>clampToSeaFloor</altitudeMode>
			<gx:altitudeMode>clampToSeaFloor</gx:altitudeMode>
			<coordinates>172.97076112,-42.78365870870412,0.0</coordinates>
		</Point>
	</Placemark>
	<Placemark>
		<name>0.3 events</name>
		<styleUrl>#sn_noicon</styleUrl>
		<Point>
			<altitudeMode>clampToSeaFloor</altitudeMode>
			<gx:altitudeMode>clampToSeaFloor</gx:altitudeMode>
			<coordinates>174.17076112,-41.896313766889755,0.0</coordinates>
		</Point>
	</Placemark>
	<Placemark>
		<name>0.34</name>
		<styleUrl>#linestyle</styleUrl>
		<Style>
 			<LineStyle>
				<color>#ffaaff00</color>
 			</LineStyle>
 		</Style>
		<LineString>
			<tessellate>1</tessellate>
			<altitudeMode>clampToSeaFloor</altitudeMode>
			<gx:altitudeMode>clampToSeaFloor</gx:altitudeMode>
			<coordinates>
172.82076112,-42.85169166503482,0.0 172.85587702174436,-42.84548357,0.0 172.87076112,-42.84102624321206,0.0 172.92076112,-42.81284821195862,0.0 172.9522821864386,-42.79548357,0.0 172.97076112,-42.78365870870412,0.0 173.02076112,-42.75299203811734,0.0 173.0320244929832,-42.74548357,0.0 173.07076112,-42.71892707411897,0.0 173.10638067712267,-42.69548357,0.0 173.12076112,-42.6863036018235,0.0 173.17076112,-42.652505237777284,0.0 173.18039289111428,-42.64548357,0.0 173.22076112,-42.61580036413966,0.0 173.247152930655,-42.59548357,0.0 173.27076112,-42.573469678624015,0.0 173.30666508103945,-42.54548357,0.0 173.32076112,-42.53310686267999,0.0 173.37076112,-42.49776515715952,0.0 173.37393450047466,-42.49548357,0.0 173.42076112,-42.461730552720525,0.0 173.44541454591524,-42.44548357,0.0 173.47076112,-42.4290579786751,0.0 173.52076112,-42.40359149068194,0.0 173.53867353309727,-42.39548357,0.0 173.57076112,-42.3852876442097,0.0 173.62076112,-42.37622814425625,0.0 173.67076112,-42.369355239387765,0.0 173.72076112,-42.37273396425899,0.0 173.74855247327753,-42.34548357,0.0 173.77076112,-42.327637755168915,0.0 173.79408397516494,-42.29548357,0.0 173.81061548611925,-42.24548357,0.0 173.82076112,-42.211450419760105,0.0 173.82948063730254,-42.19548357,0.0 173.87076112,-42.15213506849574,0.0 173.87675445155034,-42.14548357,0.0 173.90849771960168,-42.09548357,0.0 173.92076112,-42.08141040260017,0.0 173.96020623085207,-42.04548357,0.0 173.97076112,-42.03711953302747,0.0 174.02076112,-41.99993823367758,0.0 174.0262613604426,-41.99548357,0.0 174.07076112,-41.955553424161536,0.0 174.08406369646625,-41.94548357,0.0 174.12076112,-41.91950395745901,0.0 174.17076112,-41.896313766889755,0.0 174.17248394270845,-41.89548357,0.0 174.22076112,-41.8871733820627,0.0 174.27076112,-41.87067940481872,0.0 174.30549635097583,-41.84548357,0.0 174.32076112,-41.8316838173841,0.0 174.3600827667784,-41.79548357,0.0 174.37076112,-41.76842996249255,0.0 174.38634894248239,-41.74548357,0.0 174.40880995750032,-41.69548357,0.0 174.42076112,-41.65795258149921,0.0 174.42756883068017,-41.64548357,0.0 174.42076112,-41.61446708473064,0.0 174.37076112,-41.60203539598922,0.0 174.32076112,-41.61035112566515,0.0 174.27076112,-41.62766226778282,0.0 174.23824996855296,-41.64548357,0.0 174.22076112,-41.65188148202224,0.0 174.17076112,-41.682110607543535,0.0 174.152573430119,-41.69548357,0.0 174.12076112,-41.72228149587346,0.0 174.09671226821357,-41.74548357,0.0 174.07076112,-41.78688816132523,0.0 174.0618967130701,-41.79548357,0.0 174.02076112,-41.837507349693844,0.0 174.00743612107254,-41.84548357,0.0 173.97076112,-41.86828790317363,0.0 173.93412950422876,-41.89548357,0.0 173.92076112,-41.906304643054234,0.0 173.87076112,-41.93980882917034,0.0 173.85119401505034,-41.94548357,0.0 173.82076112,-41.95196456027194,0.0 173.7923397930797,-41.94548357,0.0 173.77076112,-41.941779347456524,0.0 173.72076112,-41.9250699736368,0.0 173.67076112,-41.93896173639753,0.0 173.6625466266881,-41.94548357,0.0 173.63902892042773,-41.99548357,0.0 173.63765961528532,-42.04548357,0.0 173.62076112,-42.074971232937045,0.0 173.59338252144585,-42.09548357,0.0 173.57076112,-42.09970877309434,0.0 173.52076112,-42.133336422366376,0.0 173.4722527209675,-42.14548357,0.0 173.47315649119827,-42.19548357,0.0 173.47076112,-42.20194088777981,0.0 173.44353459264764,-42.24548357,0.0 173.42076112,-42.27838016780171,0.0 173.40529176447666,-42.29548357,0.0 173.37076112,-42.33418830389008,0.0 173.35803915033836,-42.34548357,0.0 173.32076112,-42.36554780618795,0.0 173.284923040967,-42.39548357,0.0 173.27076112,-42.416007116173816,0.0 173.2233128951318,-42.44548357,0.0 173.22076112,-42.44714879282537,0.0 173.21793774114684,-42.44548357,0.0 173.17076112,-42.43513655440223,0.0 173.149373188694,-42.44548357,0.0 173.12076112,-42.457509369332996,0.0 173.07919553303753,-42.49548357,0.0 173.07076112,-42.50223161285342,0.0 173.0230907778876,-42.54548357,0.0 173.02076112,-42.547153226723616,0.0 172.97076112,-42.57674272841315,0.0 172.94443928806075,-42.59548357,0.0 172.92076112,-42.631141301539124,0.0 172.90300995496938,-42.64548357,0.0 172.87076112,-42.69242726244414,0.0 172.86927860413093,-42.69548357,0.0 172.87076112,-42.71819671769706,0.0 172.87619330137312,-42.74548357,0.0 172.87076112,-42.753562964752845,0.0 172.83849873898586,-42.79548357,0.0 172.82076112,-42.83069510001658,0.0 172.81186943593994,-42.84548357,0.0 172.82076112,-42.85169166503482,0.0 
			</coordinates>
		</LineString>
	</Placemark>
	<Placemark>
		<name>0.34</name>
		<styleUrl>#linestyle</styleUrl>
		<Style>
 			<LineStyle>
				<color>#ffaaff00</color>
 			</LineStyle>
 		</Style>
		<LineString>
			<tessellate>1</tessellate>
			<altitudeMode>clampToSeaFloor</altitudeMode>
			<gx:altitudeMode>clampToSeaFloor</gx:altitudeMode>
			<coordinates>
173.77076112,-42.455244806743195,0.0 173.7879766219672,-42.44548357,0.0 173.7756523336615,-42.39548357,0.0 173.77076112,-42.38597174349436,0.0 173.76158151050902,-42.39548357,0.0 173.75267667943956,-42.44548357,0.0 173.77076112,-42.455244806743195,0.0 
			</coordinates>
		</LineString>
	</Placemark>
	<Placemark>
		<name>0.4 events</name>
		<styleUrl>#sn_noicon</styleUrl>
		<Point>
			<altitudeMode>clampToSeaFloor</altitudeMode>
			<gx:altitudeMode>clampToSeaFloor</gx:altitudeMode>
			<coordinates>173.02076112,-42.62946761751066,0.0</coordinates>
		</Point>
	</Placemark>
	<Placemark>
		<name>0.4 events</name>
		<styleUrl>#sn_noicon</styleUrl>
		<Point>
			<altitudeMode>clampToSeaFloor</altitudeMode>
			<gx:altitudeMode>clampToSeaFloor</gx:altitudeMode>
			<coordinates>173.17076112,-42.572063949444235,0.0</coordinates>
		</Point>
	</Placemark>
	<Placemark>
		<name>0.4 events</name>
		<styleUrl>#sn_noicon</styleUrl>
		<Point>
			<altitudeMode>clampToSeaFloor</altitudeMode>
			<gx:altitudeMode>clampToSeaFloor</gx:altitudeMode>
			<coordinates>173.12037178608935,-42.49548357,0.0</coordinates>
		</Point>
	</Placemark>
	<Placemark>
		<name>0.46</name>
		<styleUrl>#linestyle</styleUrl>
		<Style>
 			<LineStyle>
				<color>#ff39ff00</color>
 			</LineStyle>
 		</Style>
		<LineString>
			<tessellate>1</tessellate>
			<altitudeMode>clampToSeaFloor</altitudeMode>
			<gx:altitudeMode>clampToSeaFloor</gx:altitudeMode>
			<coordinates>
173.02076112,-42.62946761751066,0.0 173.07076112,-42.6019627913919,0.0 173.12076112,-42.59552080874043,0.0 173.12081934880976,-42.59548357,0.0 173.17076112,-42.572063949444235,0.0 173.19804525380536,-42.54548357,0.0 173.17076112,-42.522815840692715,0.0 173.12164350372234,-42.49548357,0.0 173.12076112,-42.49512787565932,0.0 173.12037178608935,-42.49548357,0.0 173.07076112,-42.53517511691228,0.0 173.05939961134789,-42.54548357,0.0 173.02076112,-42.573175626079625,0.0 172.98889242684268,-42.59548357,0.0 173.02076112,-42.62946761751066,0.0 
			</coordinates>
		</LineString>
	</Placemark>
	<Placemark>
		<name>0.46</name>
		<styleUrl>#linestyle</styleUrl>
		<Style>
 			<LineStyle>
				<color>#ff39ff00</color>
 			</LineStyle>
 		</Style>
		<LineString>
			<tessellate>1</tessellate>
			<altitudeMode>clampToSeaFloor</altitudeMode>
			<gx:altitudeMode>clampToSeaFloor</gx:altitudeMode>
			<coordinates>
173.47076112,-42.34613924953241,0.0 173.47291574075393,-42.34548357,0.0 173.47076112,-42.34351099931405,0.0 173.4699188280207,-42.34548357,0.0 173.47076112,-42.34613924953241,0.0 
			</coordinates>
		</LineString>
	</Placemark>
	<Placemark>
		<name>0.4 events</name>
		<styleUrl>#sn_noicon</styleUrl>
		<Point>
			<altitudeMode>clampToSeaFloor</altitudeMode>
			<gx:altitudeMode>clampToSeaFloor</gx:altitudeMode>
			<coordinates>173.72076112,-42.3204388086828,0.0</coordinates>
		</Point>
	</Placemark>
	<Placemark>
		<name>0.4 events</name>
		<styleUrl>#sn_noicon</styleUrl>
		<Point>
			<altitudeMode>clampToSeaFloor</altitudeMode>
			<gx:altitudeMode>clampToSeaFloor</gx:altitudeMode>
			<coordinates>173.67076112,-42.113701026413516,0.0</coordinates>
		</Point>
	</Placemark>
	<Placemark>
		<name>0.46</name>
		<styleUrl>#linestyle</styleUrl>
		<Style>
 			<LineStyle>
				<color>#ff39ff00</color>
 			</LineStyle>
 		</Style>
		<LineString>
			<tessellate>1</tessellate>
			<altitudeMode>clampToSeaFloor</altitudeMode>
			<gx:altitudeMode>clampToSeaFloor</gx:altitudeMode>
			<coordinates>
173.52076112,-42.323760661169196,0.0 173.57076112,-42.333757839554984,0.0 173.62076112,-42.3387534059786,0.0 173.67076112,-42.335617182431676,0.0 173.72076112,-42.3204388086828,0.0 173.7490204560951,-42.29548357,0.0 173.7686533121408,-42.24548357,0.0 173.76672159732547,-42.19548357,0.0 173.77031743799947,-42.14548357,0.0 173.72076112,-42.09970673738698,0.0 173.67076112,-42.113701026413516,0.0 173.62076112,-42.11646412159218,0.0 173.57076112,-42.11982257348312,0.0 173.53923958295482,-42.14548357,0.0 173.52076112,-42.18882116495384,0.0 173.5158521762912,-42.19548357,0.0 173.5017950024287,-42.24548357,0.0 173.49362124767876,-42.29548357,0.0 173.52076112,-42.323760661169196,0.0 
			</coordinates>
		</LineString>
	</Placemark>
	<Placemark>
		<name>0.46</name>
		<styleUrl>#linestyle</styleUrl>
		<Style>
 			<LineStyle>
				<color>#ff39ff00</color>
 			</LineStyle>
 		</Style>
		<LineString>
			<tessellate>1</tessellate>
			<altitudeMode>clampToSeaFloor</altitudeMode>
			<gx:altitudeMode>clampToSeaFloor</gx:altitudeMode>
			<coordinates>
173.82076112,-42.161757137871916,0.0 173.83667130511557,-42.14548357,0.0 173.82076112,-42.11245587698392,0.0 173.77108349054905,-42.14548357,0.0 173.82076112,-42.161757137871916,0.0 
			</coordinates>
		</LineString>
	</Placemark>
	<Placemark>
		<name>0.4 events</name>
		<styleUrl>#sn_noicon</styleUrl>
		<Point>
			<altitudeMode>clampToSeaFloor</altitudeMode>
			<gx:altitudeMode>clampToSeaFloor</gx:altitudeMode>
			<coordinates>173.7947874806279,-41.99548357,0.0</coordinates>
		</Point>
	</Placemark>
	<Placemark>
		<name>0.46</name>
		<styleUrl>#linestyle</styleUrl>
		<Style>
 			<LineStyle>
				<color>#ff39ff00</color>
 			</LineStyle>
 		</Style>
		<LineString>
			<tessellate>1</tessellate>
			<altitudeMode>clampToSeaFloor</altitudeMode>
			<gx:altitudeMode>clampToSeaFloor</gx:altitudeMode>
			<coordinates>
173.72076112,-42.09450200735898,0.0 173.77076112,-42.094391389805814,0.0 173.8120736415779,-42.04548357,0.0 173.7947874806279,-41.99548357,0.0 173.77076112,-41.9835668621862,0.0 173.72076112,-41.95383478142883,0.0 173.6713166766096,-41.99548357,0.0 173.6790292211989,-42.04548357,0.0 173.72076112,-42.09450200735898,0.0 
			</coordinates>
		</LineString>
	</Placemark>
	<Placemark>
		<name>0.4 events</name>
		<styleUrl>#sn_noicon</styleUrl>
		<Point>
			<altitudeMode>clampToSeaFloor</altitudeMode>
			<gx:altitudeMode>clampToSeaFloor</gx:altitudeMode>
			<coordinates>174.31873640425312,-41.79548357,0.0</coordinates>
		</Point>
	</Placemark>
	<Placemark>
		<name>0.4 events</name>
		<styleUrl>#sn_noicon</styleUrl>
		<Point>
			<altitudeMode>clampToSeaFloor</altitudeMode>
			<gx:altitudeMode>clampToSeaFloor</gx:altitudeMode>
			<coordinates>174.27076112,-41.65508231578894,0.0</coordinates>
		</Point>
	</Placemark>
	<Placemark>
		<name>0.46</name>
		<styleUrl>#linestyle</styleUrl>
		<Style>
 			<LineStyle>
				<color>#ff39ff00</color>
 			</LineStyle>
 		</Style>
		<LineString>
			<tessellate>1</tessellate>
			<altitudeMode>clampToSeaFloor</altitudeMode>
			<gx:altitudeMode>clampToSeaFloor</gx:altitudeMode>
			<coordinates>
174.17076112,-41.85188021926526,0.0 174.22076112,-41.86076489768364,0.0 174.2554232447008,-41.84548357,0.0 174.27076112,-41.84195604544838,0.0 174.31873640425312,-41.79548357,0.0 174.32076112,-41.78674283659453,0.0 174.34354931428695,-41.74548357,0.0 174.35511294036715,-41.69548357,0.0 174.32076112,-41.656566877636564,0.0 174.27076112,-41.65508231578894,0.0 174.22076112,-41.68534722612463,0.0 174.20615393313258,-41.69548357,0.0 174.17076112,-41.71417252833796,0.0 174.13710344975004,-41.74548357,0.0 174.12571713181484,-41.79548357,0.0 174.15466397075008,-41.84548357,0.0 174.17076112,-41.85188021926526,0.0 
			</coordinates>
		</LineString>
	</Placemark>
	<Placemark>
		<name>0.5 events</name>
		<styleUrl>#sn_noicon</styleUrl>
		<Point>
			<altitudeMode>clampToSeaFloor</altitudeMode>
			<gx:altitudeMode>clampToSeaFloor</gx:altitudeMode>
			<coordinates>173.62076112,-42.31887783128174,0.0</coordinates>
		</Point>
	</Placemark>
	<Placemark>
		<name>0.5 events</name>
		<styleUrl>#sn_noicon</styleUrl>
		<Point>
			<altitudeMode>clampToSeaFloor</altitudeMode>
			<gx:altitudeMode>clampToSeaFloor</gx:altitudeMode>
			<coordinates>173.67076112,-42.317075684016324,0.0</coordinates>
		</Point>
	</Placemark>
	<Placemark>
		<name>0.5 events</name>
		<styleUrl>#sn_noicon</styleUrl>
		<Point>
			<altitudeMode>clampToSeaFloor</altitudeMode>
			<gx:altitudeMode>clampToSeaFloor</gx:altitudeMode>
			<coordinates>173.72076112,-42.1932199159084,0.0</coordinates>
		</Point>
	</Placemark>
	<Placemark>
		<name>0.5 events</name>
		<styleUrl>#sn_noicon</styleUrl>
		<Point>
			<altitudeMode>clampToSeaFloor</altitudeMode>
			<gx:altitudeMode>clampToSeaFloor</gx:altitudeMode>
			<coordinates>173.56394703746292,-42.14548357,0.0</coordinates>
		</Point>
	</Placemark>
	<Placemark>
		<name>0.57</name>
		<styleUrl>#linestyle</styleUrl>
		<Style>
 			<LineStyle>
				<color>#ff00ff39</color>
 			</LineStyle>
 		</Style>
		<LineString>
			<tessellate>1</tessellate>
			<altitudeMode>clampToSeaFloor</altitudeMode>
			<gx:altitudeMode>clampToSeaFloor</gx:altitudeMode>
			<coordinates>
173.62076112,-42.31887783128174,0.0 173.67076112,-42.317075684016324,0.0 173.70923074151224,-42.29548357,0.0 173.72076112,-42.27985205562033,0.0 173.74155613880845,-42.24548357,0.0 173.72221481493605,-42.19548357,0.0 173.72076112,-42.1932199159084,0.0 173.67076112,-42.156886142699975,0.0 173.62449758725154,-42.14548357,0.0 173.62076112,-42.144597264533274,0.0 173.57076112,-42.13993637387189,0.0 173.56394703746292,-42.14548357,0.0 173.54237502957596,-42.19548357,0.0 173.54060471910813,-42.24548357,0.0 173.57076112,-42.29271440687284,0.0 173.57300281102357,-42.29548357,0.0 173.62076112,-42.31887783128174,0.0 
			</coordinates>
		</LineString>
	</Placemark>
	<Placemark>
		<name>0.57</name>
		<styleUrl>#linestyle</styleUrl>
		<Style>
 			<LineStyle>
				<color>#ff00ff39</color>
 			</LineStyle>
 		</Style>
		<LineString>
			<tessellate>1</tessellate>
			<altitudeMode>clampToSeaFloor</altitudeMode>
			<gx:altitudeMode>clampToSeaFloor</gx:altitudeMode>
			<coordinates>
173.72076112,-42.0603142594156,0.0 173.74476040595223,-42.04548357,0.0 173.73475006597522,-41.99548357,0.0 173.72076112,-41.986465575031666,0.0 173.71005517255222,-41.99548357,0.0 173.70813499678619,-42.04548357,0.0 173.72076112,-42.0603142594156,0.0 
			</coordinates>
		</LineString>
	</Placemark>
	<Placemark>
		<name>0.5 events</name>
		<styleUrl>#sn_noicon</styleUrl>
		<Point>
			<altitudeMode>clampToSeaFloor</altitudeMode>
			<gx:altitudeMode>clampToSeaFloor</gx:altitudeMode>
			<coordinates>174.22076112,-41.8407187393121,0.0</coordinates>
		</Point>
	</Placemark>
	<Placemark>
		<name>0.5 events</name>
		<styleUrl>#sn_noicon</styleUrl>
		<Point>
			<altitudeMode>clampToSeaFloor</altitudeMode>
			<gx:altitudeMode>clampToSeaFloor</gx:altitudeMode>
			<coordinates>174.32002056729615,-41.69548357,0.0</coordinates>
		</Point>
	</Placemark>
	<Placemark>
		<name>0.5 events</name>
		<styleUrl>#sn_noicon</styleUrl>
		<Point>
			<altitudeMode>clampToSeaFloor</altitudeMode>
			<gx:altitudeMode>clampToSeaFloor</gx:altitudeMode>
			<coordinates>174.17076112,-41.73963823594372,0.0</coordinates>
		</Point>
	</Placemark>
	<Placemark>
		<name>0.57</name>
		<styleUrl>#linestyle</styleUrl>
		<Style>
 			<LineStyle>
				<color>#ff00ff39</color>
 			</LineStyle>
 		</Style>
		<LineString>
			<tessellate>1</tessellate>
			<altitudeMode>clampToSeaFloor</altitudeMode>
			<gx:altitudeMode>clampToSeaFloor</gx:altitudeMode>
			<coordinates>
174.17076112,-41.81697257590784,0.0 174.22076112,-41.8407187393121,0.0 174.27076112,-41.828179433947355,0.0 174.30451429005694,-41.79548357,0.0 174.31369774972933,-41.74548357,0.0 174.32002056729615,-41.69548357,0.0 174.27076112,-41.66997316604207,0.0 174.23522240698367,-41.69548357,0.0 174.22076112,-41.715652823247176,0.0 174.17076112,-41.73963823594372,0.0 174.16447770316927,-41.74548357,0.0 174.15310979827908,-41.79548357,0.0 174.17076112,-41.81697257590784,0.0 
			</coordinates>
		</LineString>
	</Placemark>
	<Placemark>
		<name>0.6 events</name>
		<styleUrl>#sn_noicon</styleUrl>
		<Point>
			<altitudeMode>clampToSeaFloor</altitudeMode>
			<gx:altitudeMode>clampToSeaFloor</gx:altitudeMode>
			<coordinates>173.62076112,-42.29900225658488,0.0</coordinates>
		</Point>
	</Placemark>
	<Placemark>
		<name>0.6 events</name>
		<styleUrl>#sn_noicon</styleUrl>
		<Point>
			<altitudeMode>clampToSeaFloor</altitudeMode>
			<gx:altitudeMode>clampToSeaFloor</gx:altitudeMode>
			<coordinates>173.7159431965576,-42.24548357,0.0</coordinates>
		</Point>
	</Placemark>
	<Placemark>
		<name>0.6 events</name>
		<styleUrl>#sn_noicon</styleUrl>
		<Point>
			<altitudeMode>clampToSeaFloor</altitudeMode>
			<gx:altitudeMode>clampToSeaFloor</gx:altitudeMode>
			<coordinates>173.57076112,-42.186328523689305,0.0</coordinates>
		</Point>
	</Placemark>
	<Placemark>
		<name>0.69</name>
		<styleUrl>#linestyle</styleUrl>
		<Style>
 			<LineStyle>
				<color>#ff00ffaa</color>
 			</LineStyle>
 		</Style>
		<LineString>
			<tessellate>1</tessellate>
			<altitudeMode>clampToSeaFloor</altitudeMode>
			<gx:altitudeMode>clampToSeaFloor</gx:altitudeMode>
			<coordinates>
173.62076112,-42.29900225658488,0.0 173.67076112,-42.29853418560098,0.0 173.67619625374653,-42.29548357,0.0 173.7159431965576,-42.24548357,0.0 173.68320090168424,-42.19548357,0.0 173.67076112,-42.18611824580525,0.0 173.62076112,-42.167131420787804,0.0 173.57076112,-42.186328523689305,0.0 173.5667968411183,-42.19548357,0.0 173.57076112,-42.23237303093864,0.0 173.57226854189653,-42.24548357,0.0 173.61357788309041,-42.29548357,0.0 173.62076112,-42.29900225658488,0.0 
			</coordinates>
		</LineString>
	</Placemark>
	<Placemark>
		<name>0.6 events</name>
		<styleUrl>#sn_noicon</styleUrl>
		<Point>
			<altitudeMode>clampToSeaFloor</altitudeMode>
			<gx:altitudeMode>clampToSeaFloor</gx:altitudeMode>
			<coordinates>174.27076112,-41.81440282244633,0.0</coordinates>
		</Point>
	</Placemark>
	<Placemark>
		<name>0.6 events</name>
		<styleUrl>#sn_noicon</styleUrl>
		<Point>
			<altitudeMode>clampToSeaFloor</altitudeMode>
			<gx:altitudeMode>clampToSeaFloor</gx:altitudeMode>
			<coordinates>174.27076112,-41.6848640162952,0.0</coordinates>
		</Point>
	</Placemark>
	<Placemark>
		<name>0.69</name>
		<styleUrl>#linestyle</styleUrl>
		<Style>
 			<LineStyle>
				<color>#ff00ffaa</color>
 			</LineStyle>
 		</Style>
		<LineString>
			<tessellate>1</tessellate>
			<altitudeMode>clampToSeaFloor</altitudeMode>
			<gx:altitudeMode>clampToSeaFloor</gx:altitudeMode>
			<coordinates>
174.22076112,-41.82941019390067,0.0 174.27076112,-41.81440282244633,0.0 174.29029217586074,-41.79548357,0.0 174.29216265194157,-41.74548357,0.0 174.2912670024977,-41.69548357,0.0 174.27076112,-41.6848640162952,0.0 174.25596694927268,-41.69548357,0.0 174.22076112,-41.744585374506016,0.0 174.2188244892254,-41.74548357,0.0 174.1760598366627,-41.79548357,0.0 174.22076112,-41.82941019390067,0.0 
			</coordinates>
		</LineString>
	</Placemark>
	<Placemark>
		<name>0.8 events</name>
		<styleUrl>#sn_noicon</styleUrl>
		<Point>
			<altitudeMode>clampToSeaFloor</altitudeMode>
			<gx:altitudeMode>clampToSeaFloor</gx:altitudeMode>
			<coordinates>173.62076112,-42.270973420309346,0.0</coordinates>
		</Point>
	</Placemark>
	<Placemark>
		<name>0.8 events</name>
		<styleUrl>#sn_noicon</styleUrl>
		<Point>
			<altitudeMode>clampToSeaFloor</altitudeMode>
			<gx:altitudeMode>clampToSeaFloor</gx:altitudeMode>
			<coordinates>173.67076112,-42.21374609718838,0.0</coordinates>
		</Point>
	</Placemark>
	<Placemark>
		<name>0.80</name>
		<styleUrl>#linestyle</styleUrl>
		<Style>
 			<LineStyle>
				<color>#ff00e3ff</color>
 			</LineStyle>
 		</Style>
		<LineString>
			<tessellate>1</tessellate>
			<altitudeMode>clampToSeaFloor</altitudeMode>
			<gx:altitudeMode>clampToSeaFloor</gx:altitudeMode>
			<coordinates>
173.62076112,-42.270973420309346,0.0 173.67076112,-42.2747682133102,0.0 173.69522772439242,-42.24548357,0.0 173.67076112,-42.21374609718838,0.0 173.63491832546865,-42.19548357,0.0 173.62076112,-42.18948344902424,0.0 173.6086268421411,-42.19548357,0.0 173.59839799117236,-42.24548357,0.0 173.62076112,-42.270973420309346,0.0 
			</coordinates>
		</LineString>
	</Placemark>
	<Placemark>
		<name>0.80</name>
		<styleUrl>#linestyle</styleUrl>
		<Style>
 			<LineStyle>
				<color>#ff00e3ff</color>
 			</LineStyle>
 		</Style>
		<LineString>
			<tessellate>1</tessellate>
			<altitudeMode>clampToSeaFloor</altitudeMode>
			<gx:altitudeMode>clampToSeaFloor</gx:altitudeMode>
			<coordinates>
174.22076112,-41.81810164848925,0.0 174.27076112,-41.8006262109453,0.0 174.27607006166454,-41.79548357,0.0 174.27076112,-41.746300750883535,0.0 174.22076112,-41.76180121137994,0.0 174.19095983066296,-41.79548357,0.0 174.22076112,-41.81810164848925,0.0 
			</coordinates>
		</LineString>
	</Placemark>
	<Placemark>
		<name>0.9 events</name>
		<styleUrl>#sn_noicon</styleUrl>
		<Point>
			<altitudeMode>clampToSeaFloor</altitudeMode>
			<gx:altitudeMode>clampToSeaFloor</gx:altitudeMode>
			<coordinates>173.67076112,-42.24997338671188,0.0</coordinates>
		</Point>
	</Placemark>
	<Placemark>
		<name>0.92</name>
		<styleUrl>#linestyle</styleUrl>
		<Style>
 			<LineStyle>
				<color>#ff0071ff</color>
 			</LineStyle>
 		</Style>
		<LineString>
			<tessellate>1</tessellate>
			<altitudeMode>clampToSeaFloor</altitudeMode>
			<gx:altitudeMode>clampToSeaFloor</gx:altitudeMode>
			<coordinates>
173.67076112,-42.24997338671188,0.0 173.67451225222726,-42.24548357,0.0 173.67076112,-42.24061769424685,0.0 173.64292165838756,-42.24548357,0.0 173.67076112,-42.24997338671188,0.0 
			</coordinates>
		</LineString>
	</Placemark>
	<Placemark>
		<name>0.92</name>
		<styleUrl>#linestyle</styleUrl>
		<Style>
 			<LineStyle>
				<color>#ff0071ff</color>
 			</LineStyle>
 		</Style>
		<LineString>
			<tessellate>1</tessellate>
			<altitudeMode>clampToSeaFloor</altitudeMode>
			<gx:altitudeMode>clampToSeaFloor</gx:altitudeMode>
			<coordinates>
174.22076112,-41.806793103077815,0.0 174.251498998647,-41.79548357,0.0 174.22076112,-41.77864165528415,0.0 174.2058598246632,-41.79548357,0.0 174.22076112,-41.806793103077815,0.0 
			</coordinates>
		</LineString>
	</Placemark>
	<Placemark>
		<name>1.0 events</name>
		<styleUrl>#sn_noicon</styleUrl>
		<Point>
			<altitudeMode>clampToSeaFloor</altitudeMode>
			<gx:altitudeMode>clampToSeaFloor</gx:altitudeMode>
			<coordinates>174.22076112,-41.79548455766639,0.0</coordinates>
		</Point>
	</Placemark>
	<Placemark>
		<name>1.03</name>
		<styleUrl>#linestyle</styleUrl>
		<Style>
 			<LineStyle>
				<color>#ff000000</color>
 			</LineStyle>
 		</Style>
		<LineString>
			<tessellate>1</tessellate>
			<altitudeMode>clampToSeaFloor</altitudeMode>
			<gx:altitudeMode>clampToSeaFloor</gx:altitudeMode>
			<coordinates>
174.22076112,-41.79548455766639,0.0 174.22076380435215,-41.79548357,0.0 174.22076112,-41.79548209918835,0.0 174.22075981866345,-41.79548357,0.0 174.22076112,-41.79548455766639,0.0 
			</coordinates>
		</LineString>
	</Placemark>
</Document>
</kml>
