<?xml version="1.0" encoding="UTF-8"?>
<kml xmlns="http://www.opengis.net/kml/2.2"
 xmlns:gx="http://www.google.com/kml/ext/2.2"
 xmlns:kml="http://www.opengis.net/kml/2.2"
 xmlns:atom="http://www.w3.org/2005/Atom">
<Document>
	<name>2016p858000.kml</name>
	<Style id="sn_noicon">
		<IconStyle>
			<Icon>
			</Icon>
		</IconStyle>
		<LabelStyle>
			<scale>0.8</scale>
		</LabelStyle>
	</Style>
	<Style id="linestyle">
			<LineStyle>
				<width>2</width>
			</LineStyle>
	</Style>
	<Placemark>
		<name>0.8 events</name>
		<styleUrl>#sn_noicon</styleUrl>
		<Point>
			<altitudeMode>clampToSeaFloor</altitudeMode>
			<gx:altitudeMode>clampToSeaFloor</gx:altitudeMode>
			<coordinates>172.78003541,-42.98121977251339,0.0</coordinates>
		</Point>
	</Placemark>
	<Placemark>
		<name>0.8 events</name>
		<styleUrl>#sn_noicon</styleUrl>
		<Point>
			<altitudeMode>clampToSeaFloor</altitudeMode>
			<gx:altitudeMode>clampToSeaFloor</gx:altitudeMode>
			<coordinates>173.18003541,-42.881836910075044,0.0</coordinates>
		</Point>
	</Placemark>
	<Placemark>
		<name>0.8 events</name>
		<styleUrl>#sn_noicon</styleUrl>
		<Point>
			<altitudeMode>clampToSeaFloor</altitudeMode>
			<gx:altitudeMode>clampToSeaFloor</gx:altitudeMode>
			<coordinates>174.43003541,-41.918604592824686,0.0</coordinates>
		</Point>
	</Placemark>
	<Placemark>
		<name>0.86</name>
		<styleUrl>#linestyle</styleUrl>
		<Style>
 			<LineStyle>
				<color>#ffff7100</color>
 			</LineStyle>
 		</Style>
		<LineString>
			<tessellate>1</tessellate>
			<altitudeMode>clampToSeaFloor</altitudeMode>
			<gx:altitudeMode>clampToSeaFloor</gx:altitudeMode>
			<coordinates>
172.78003541,-42.98121977251339,0.0 172.83003541,-42.99203234345136,0.0 172.88003541,-42.99295357153455,0.0 172.93003541,-42.98632445612328,0.0 172.98003541,-42.972762887524226,0.0 172.98979549477025,-42.96921224,0.0 173.03003541,-42.956057085068615,0.0 173.08003541,-42.93454351387705,0.0 173.10964139373107,-42.91921224,0.0 173.13003541,-42.9092604229556,0.0 173.18003541,-42.881836910075044,0.0 173.20087396655327,-42.86921224,0.0 173.23003541,-42.85257366899011,0.0 173.28003541,-42.82031103365219,0.0 173.28170880464768,-42.81921224,0.0 173.33003541,-42.78943311535316,0.0 173.35943148651018,-42.76921224,0.0 173.38003541,-42.75586227109355,0.0 173.43003541,-42.72028232351777,0.0 173.43152733323564,-42.71921224,0.0 173.48003541,-42.6861031376318,0.0 173.50312683417613,-42.66921224,0.0 173.53003541,-42.650537804178974,0.0 173.5736373556395,-42.61921224,0.0 173.58003541,-42.614991899779646,0.0 173.63003541,-42.58484306458542,0.0 173.65906277801648,-42.56921224,0.0 173.68003541,-42.561180760268456,0.0 173.73003541,-42.551322252711856,0.0 173.78003541,-42.557524535321186,0.0 173.83003541,-42.54153843670329,0.0 173.85864026156108,-42.51921224,0.0 173.88003541,-42.49217922808144,0.0 173.91121169255686,-42.46921224,0.0 173.93003541,-42.45754101511092,0.0 173.98003541,-42.4546047044002,0.0 174.03003541,-42.45354108428713,0.0 174.0797034248816,-42.41921224,0.0 174.08003541,-42.41867589170459,0.0 174.11002137908775,-42.36921224,0.0 174.0885085207239,-42.31921224,0.0 174.08003541,-42.28941648472353,0.0 174.0738824298018,-42.26921224,0.0 174.08003541,-42.24890970019045,0.0 174.09432271570373,-42.21921224,0.0 174.13003541,-42.17727044847746,0.0 174.13752083979395,-42.16921224,0.0 174.18003541,-42.1296280188385,0.0 174.1912369200142,-42.11921224,0.0 174.23003541,-42.08628218110679,0.0 174.24951643518315,-42.06921224,0.0 174.28003541,-42.04477594174075,0.0 174.3101508056176,-42.01921224,0.0 174.33003541,-42.00403164373368,0.0 174.37129791365592,-41.96921224,0.0 174.38003541,-41.96256320352383,0.0 174.429303958949,-41.91921224,0.0 174.43003541,-41.918604592824686,0.0 174.48003541,-41.87082112432147,0.0 174.4815482467295,-41.86921224,0.0 174.52473373478665,-41.81921224,0.0 174.53003541,-41.80954829089795,0.0 174.55563079760844,-41.76921224,0.0 174.57506900017412,-41.71921224,0.0 174.58003541,-41.692181174160346,0.0 174.5851350924454,-41.66921224,0.0 174.58003541,-41.624916056702695,0.0 174.5794715384809,-41.61921224,0.0 174.55048883833103,-41.56921224,0.0 174.53003541,-41.55195652845278,0.0 174.48003541,-41.526474336982616,0.0 174.44591982020822,-41.51921224,0.0 174.43003541,-41.51554087393097,0.0 174.38003541,-41.513180887782106,0.0 174.33003541,-41.51815886113971,0.0 174.32496250811943,-41.51921224,0.0 174.28003541,-41.52577842505399,0.0 174.23003541,-41.536726908305354,0.0 174.18003541,-41.55371613167923,0.0 174.14843252542101,-41.56921224,0.0 174.13003541,-41.576405246378215,0.0 174.08003541,-41.605812282989554,0.0 174.06074895769208,-41.61921224,0.0 174.03003541,-41.64277392193724,0.0 173.99652281594314,-41.66921224,0.0 173.98003541,-41.68324338936216,0.0 173.93530074250933,-41.71921224,0.0 173.93003541,-41.723374855854566,0.0 173.88003541,-41.75997600453595,0.0 173.86710967611128,-41.76921224,0.0 173.83003541,-41.79261168617496,0.0 173.78670569616497,-41.81921224,0.0 173.78003541,-41.822235973459186,0.0 173.73003541,-41.840597172265404,0.0 173.68003541,-41.86060250879202,0.0 173.6645547237416,-41.86921224,0.0 173.63003541,-41.88186727699616,0.0 173.58249909883332,-41.91921224,0.0 173.58003541,-41.922275248968276,0.0 173.53606172086833,-41.96921224,0.0 173.53003541,-41.977680648462716,0.0 173.48801406679044,-42.01921224,0.0 173.48003541,-42.02573401817994,0.0 173.43003541,-42.06720067626658,0.0 173.4276227123687,-42.06921224,0.0 173.38003541,-42.108027036128874,0.0 173.36688958789762,-42.11921224,0.0 173.33003541,-42.15184138421965,0.0 173.3086757067216,-42.16921224,0.0 173.28003541,-42.190649730478135,0.0 173.23808818087696,-42.21921224,0.0 173.23003541,-42.22355784107773,0.0 173.18003541,-42.246583127649245,0.0 173.13003541,-42.26889202098517,0.0 173.129367128904,-42.26921224,0.0 173.08003541,-42.28080622447083,0.0 173.03003541,-42.307623393689134,0.0 173.01377370815598,-42.31921224,0.0 172.98003541,-42.34553714727949,0.0 172.95409097402703,-42.36921224,0.0 172.93003541,-42.39851502179336,0.0 172.91268429574595,-42.41921224,0.0 172.88331809257505,-42.46921224,0.0 172.88003541,-42.47543518696391,0.0 172.84862726198963,-42.51921224,0.0 172.83003541,-42.524158709678716,0.0 172.7855871472932,-42.56921224,0.0 172.7814378060519,-42.61921224,0.0 172.78003541,-42.622131394066244,0.0 172.7524809621219,-42.66921224,0.0 172.73003541,-42.71344485177024,0.0 172.7265633611134,-42.71921224,0.0 172.69973206096174,-42.76921224,0.0 172.6832262373386,-42.81921224,0.0 172.68003541,-42.86541182428228,0.0 172.67972431416376,-42.86921224,0.0 172.68003541,-42.87015610019062,0.0 172.6958824533461,-42.91921224,0.0 172.73003541,-42.954278906095084,0.0 172.7542743694663,-42.96921224,0.0 172.78003541,-42.98121977251339,0.0 
			</coordinates>
		</LineString>
	</Placemark>
	<Placemark>
		<name>1.7 events</name>
		<styleUrl>#sn_noicon</styleUrl>
		<Point>
			<altitudeMode>clampToSeaFloor</altitudeMode>
			<gx:altitudeMode>clampToSeaFloor</gx:altitudeMode>
			<coordinates>172.88003541,-42.85552926966621,0.0</coordinates>
		</Point>
	</Placemark>
	<Placemark>
		<name>1.7 events</name>
		<styleUrl>#sn_noicon</styleUrl>
		<Point>
			<altitudeMode>clampToSeaFloor</altitudeMode>
			<gx:altitudeMode>clampToSeaFloor</gx:altitudeMode>
			<coordinates>173.23003541,-42.70862726687455,0.0</coordinates>
		</Point>
	</Placemark>
	<Placemark>
		<name>1.7 events</name>
		<styleUrl>#sn_noicon</styleUrl>
		<Point>
			<altitudeMode>clampToSeaFloor</altitudeMode>
			<gx:altitudeMode>clampToSeaFloor</gx:altitudeMode>
			<coordinates>174.13003541,-41.99549993474593,0.0</coordinates>
		</Point>
	</Placemark>
	<Placemark>
		<name>1.73</name>
		<styleUrl>#linestyle</styleUrl>
		<Style>
 			<LineStyle>
				<color>#ffffe300</color>
 			</LineStyle>
 		</Style>
		<LineString>
			<tessellate>1</tessellate>
			<altitudeMode>clampToSeaFloor</altitudeMode>
			<gx:altitudeMode>clampToSeaFloor</gx:altitudeMode>
			<coordinates>
172.88003541,-42.85552926966621,0.0 172.93003541,-42.858670199825994,0.0 172.98003541,-42.844495258046535,0.0 173.03003541,-42.82393665879607,0.0 173.03905537663064,-42.81921224,0.0 173.08003541,-42.79730002739678,0.0 173.12977475529632,-42.76921224,0.0 173.13003541,-42.76906759619578,0.0 173.18003541,-42.739502835832496,0.0 173.21204799959338,-42.71921224,0.0 173.23003541,-42.70862726687455,0.0 173.28003541,-42.67662432304112,0.0 173.29066989397666,-42.66921224,0.0 173.33003541,-42.642854188114036,0.0 173.36173891411914,-42.61921224,0.0 173.38003541,-42.604910609788526,0.0 173.42523955281837,-42.56921224,0.0 173.43003541,-42.565187439510126,0.0 173.48003541,-42.526288236641875,0.0 173.4896381979894,-42.51921224,0.0 173.53003541,-42.49123525765937,0.0 173.56738105085898,-42.46921224,0.0 173.58003541,-42.464592049817945,0.0 173.63003541,-42.4464352708751,0.0 173.68003541,-42.44454041457981,0.0 173.73003541,-42.467951588388146,0.0 173.73488138743747,-42.46921224,0.0 173.78003541,-42.486951756209216,0.0 173.7984331260397,-42.46921224,0.0 173.83003541,-42.442896966521154,0.0 173.84998719687763,-42.41921224,0.0 173.88003541,-42.38631623439375,0.0 173.92489684077447,-42.36921224,0.0 173.93003541,-42.36394695652918,0.0 173.93390270356082,-42.36921224,0.0 173.98003541,-42.388502927027844,0.0 174.03003541,-42.40720604114014,0.0 174.06309018911213,-42.36921224,0.0 174.03003541,-42.333929829124735,0.0 173.98003541,-42.33953202805902,0.0 173.95552950810932,-42.31921224,0.0 173.94105461978347,-42.26921224,0.0 173.93003541,-42.248858223143145,0.0 173.9218081931597,-42.21921224,0.0 173.93003541,-42.19956245370103,0.0 173.94632899101728,-42.16921224,0.0 173.98003541,-42.129290547058496,0.0 173.98956246362042,-42.11921224,0.0 174.03003541,-42.08024909470545,0.0 174.0421941714991,-42.06921224,0.0 174.08003541,-42.03651818627151,0.0 174.10065359252715,-42.01921224,0.0 174.13003541,-41.99549993474593,0.0 174.16455675925937,-41.96921224,0.0 174.18003541,-41.959237235696946,0.0 174.23003541,-41.929132596852504,0.0 174.24498633865946,-41.91921224,0.0 174.28003541,-41.90486741365094,0.0 174.33003541,-41.87074943086781,0.0 174.33195677962644,-41.86921224,0.0 174.38003541,-41.83475256661769,0.0 174.40180858597154,-41.81921224,0.0 174.43003541,-41.801892392890046,0.0 174.45498120891926,-41.76921224,0.0 174.4496991334645,-41.71921224,0.0 174.44911831568982,-41.66921224,0.0 174.43003541,-41.640606989273984,0.0 174.40053951787198,-41.61921224,0.0 174.38003541,-41.611847553007934,0.0 174.33003541,-41.604604865157405,0.0 174.28003541,-41.604777403235815,0.0 174.23003541,-41.61102841430409,0.0 174.21026885839026,-41.61921224,0.0 174.18003541,-41.62627788310883,0.0 174.13003541,-41.668214817914546,0.0 174.12889893757296,-41.66921224,0.0 174.08919063012547,-41.71921224,0.0 174.08003541,-41.74018879415126,0.0 174.0561003540038,-41.76921224,0.0 174.03003541,-41.802911095421706,0.0 174.01164864000535,-41.81921224,0.0 173.98003541,-41.839602610445624,0.0 173.93003541,-41.85482464915665,0.0 173.91234727911896,-41.86921224,0.0 173.88003541,-41.90838409578906,0.0 173.85592586368472,-41.91921224,0.0 173.83003541,-41.927087559129006,0.0 173.78003541,-41.928814503848955,0.0 173.73003541,-41.920529212813534,0.0 173.68003541,-41.925703325669105,0.0 173.63287705735308,-41.96921224,0.0 173.63003541,-41.99988515910831,0.0 173.6256981864248,-42.01921224,0.0 173.6014671793142,-42.06921224,0.0 173.58003541,-42.07543199341138,0.0 173.53003541,-42.10402084248249,0.0 173.5100334877239,-42.11921224,0.0 173.48003541,-42.14704343014808,0.0 173.45833744037682,-42.16921224,0.0 173.43585014635224,-42.21921224,0.0 173.43003541,-42.22891861626347,0.0 173.39343372550678,-42.26921224,0.0 173.38003541,-42.28164162624834,0.0 173.33003541,-42.3165248356486,0.0 173.3250323649652,-42.31921224,0.0 173.28003541,-42.33694280173629,0.0 173.23003541,-42.34742336103377,0.0 173.18003541,-42.351607540182854,0.0 173.13003541,-42.352632477516096,0.0 173.08003541,-42.35521846628317,0.0 173.0633677991536,-42.36921224,0.0 173.03003541,-42.41538403264878,0.0 173.02654250844202,-42.41921224,0.0 172.9958062351739,-42.46921224,0.0 172.98262901373886,-42.51921224,0.0 172.98003541,-42.52505491672001,0.0 172.95191439469002,-42.56921224,0.0 172.93003541,-42.58272707462844,0.0 172.89677684998216,-42.61921224,0.0 172.88003541,-42.63654518251762,0.0 172.84768011417452,-42.66921224,0.0 172.88003541,-42.71782897369214,0.0 172.88342059897434,-42.71921224,0.0 172.88003541,-42.72830564508659,0.0 172.86702159533687,-42.76921224,0.0 172.8535351310453,-42.81921224,0.0 172.88003541,-42.85552926966621,0.0 
			</coordinates>
		</LineString>
	</Placemark>
	<Placemark>
		<name>2.5 events</name>
		<styleUrl>#sn_noicon</styleUrl>
		<Point>
			<altitudeMode>clampToSeaFloor</altitudeMode>
			<gx:altitudeMode>clampToSeaFloor</gx:altitudeMode>
			<coordinates>172.98003541,-42.621233304435364,0.0</coordinates>
		</Point>
	</Placemark>
	<Placemark>
		<name>2.5 events</name>
		<styleUrl>#sn_noicon</styleUrl>
		<Point>
			<altitudeMode>clampToSeaFloor</altitudeMode>
			<gx:altitudeMode>clampToSeaFloor</gx:altitudeMode>
			<coordinates>173.19547607696268,-42.61921224,0.0</coordinates>
		</Point>
	</Placemark>
	<Placemark>
		<name>2.5 events</name>
		<styleUrl>#sn_noicon</styleUrl>
		<Point>
			<altitudeMode>clampToSeaFloor</altitudeMode>
			<gx:altitudeMode>clampToSeaFloor</gx:altitudeMode>
			<coordinates>173.33003541,-42.387454725410464,0.0</coordinates>
		</Point>
	</Placemark>
	<Placemark>
		<name>2.59</name>
		<styleUrl>#linestyle</styleUrl>
		<Style>
 			<LineStyle>
				<color>#ffaaff00</color>
 			</LineStyle>
 		</Style>
		<LineString>
			<tessellate>1</tessellate>
			<altitudeMode>clampToSeaFloor</altitudeMode>
			<gx:altitudeMode>clampToSeaFloor</gx:altitudeMode>
			<coordinates>
172.98003541,-42.621233304435364,0.0 173.03003541,-42.64828904208203,0.0 173.08003541,-42.63308677489416,0.0 173.13003541,-42.63702670832826,0.0 173.18003541,-42.62553405213821,0.0 173.19547607696268,-42.61921224,0.0 173.23003541,-42.611908037561705,0.0 173.28003541,-42.584160435178156,0.0 173.29800543548714,-42.56921224,0.0 173.33003541,-42.520102636094535,0.0 173.33098070875002,-42.51921224,0.0 173.36817181218993,-42.46921224,0.0 173.38003541,-42.45997201876132,0.0 173.42641729054318,-42.41921224,0.0 173.38003541,-42.36933556191433,0.0 173.33003541,-42.387454725410464,0.0 173.28085669864578,-42.41921224,0.0 173.28003541,-42.421035989518735,0.0 173.27444949891157,-42.41921224,0.0 173.23003541,-42.41323407877614,0.0 173.18003541,-42.400982882288275,0.0 173.13003541,-42.400908471460745,0.0 173.09697260430812,-42.41921224,0.0 173.08003541,-42.43214224400632,0.0 173.0517813872272,-42.46921224,0.0 173.0407599820464,-42.51921224,0.0 173.03003541,-42.54814033085187,0.0 173.01951533270372,-42.56921224,0.0 172.98003541,-42.617713423102686,0.0 172.97716834692997,-42.61921224,0.0 172.98003541,-42.621233304435364,0.0 
			</coordinates>
		</LineString>
	</Placemark>
	<Placemark>
		<name>2.59</name>
		<styleUrl>#linestyle</styleUrl>
		<Style>
 			<LineStyle>
				<color>#ffaaff00</color>
 			</LineStyle>
 		</Style>
		<LineString>
			<tessellate>1</tessellate>
			<altitudeMode>clampToSeaFloor</altitudeMode>
			<gx:altitudeMode>clampToSeaFloor</gx:altitudeMode>
			<coordinates>
173.78003541,-42.44185437382812,0.0 173.80452632636832,-42.41921224,0.0 173.78003541,-42.383236298771465,0.0 173.73993307918408,-42.41921224,0.0 173.78003541,-42.44185437382812,0.0 
			</coordinates>
		</LineString>
	</Placemark>
	<Placemark>
		<name>2.5 events</name>
		<styleUrl>#sn_noicon</styleUrl>
		<Point>
			<altitudeMode>clampToSeaFloor</altitudeMode>
			<gx:altitudeMode>clampToSeaFloor</gx:altitudeMode>
			<coordinates>173.59906026018572,-42.36921224,0.0</coordinates>
		</Point>
	</Placemark>
	<Placemark>
		<name>2.5 events</name>
		<styleUrl>#sn_noicon</styleUrl>
		<Point>
			<altitudeMode>clampToSeaFloor</altitudeMode>
			<gx:altitudeMode>clampToSeaFloor</gx:altitudeMode>
			<coordinates>173.83003541,-42.18592240746559,0.0</coordinates>
		</Point>
	</Placemark>
	<Placemark>
		<name>2.59</name>
		<styleUrl>#linestyle</styleUrl>
		<Style>
 			<LineStyle>
				<color>#ffaaff00</color>
 			</LineStyle>
 		</Style>
		<LineString>
			<tessellate>1</tessellate>
			<altitudeMode>clampToSeaFloor</altitudeMode>
			<gx:altitudeMode>clampToSeaFloor</gx:altitudeMode>
			<coordinates>
173.48003541,-42.36952646390134,0.0 173.53003541,-42.37085049254243,0.0 173.58003541,-42.37431474934469,0.0 173.59906026018572,-42.36921224,0.0 173.63003541,-42.36672759390258,0.0 173.68003541,-42.36582377745582,0.0 173.71264925507396,-42.36921224,0.0 173.73003541,-42.38174649951639,0.0 173.73877514285772,-42.36921224,0.0 173.78003541,-42.35039468942267,0.0 173.83003541,-42.33909817515124,0.0 173.88003541,-42.332400099377374,0.0 173.89313966098135,-42.31921224,0.0 173.88003541,-42.269420510933664,0.0 173.87994029539007,-42.26921224,0.0 173.83003541,-42.22876947791284,0.0 173.81824161447918,-42.21921224,0.0 173.83003541,-42.18592240746559,0.0 173.83678586592472,-42.16921224,0.0 173.87833921994022,-42.11921224,0.0 173.85337930529806,-42.06921224,0.0 173.83003541,-42.04585279367207,0.0 173.82470797647537,-42.01921224,0.0 173.78003541,-41.98750759508104,0.0 173.7604160263819,-41.96921224,0.0 173.73003541,-41.95155074509617,0.0 173.68003541,-41.95998983915735,0.0 173.67003945312823,-41.96921224,0.0 173.66476171766072,-42.01921224,0.0 173.68003541,-42.049463466839505,0.0 173.70646883585454,-42.06921224,0.0 173.68003541,-42.11672234610205,0.0 173.63003541,-42.11801208844879,0.0 173.58003541,-42.114482425924244,0.0 173.57335557945913,-42.11921224,0.0 173.53003541,-42.16467365313052,0.0 173.52526635857714,-42.16921224,0.0 173.50552098214254,-42.21921224,0.0 173.49687645853263,-42.26921224,0.0 173.48003541,-42.28431922787727,0.0 173.4487128706764,-42.31921224,0.0 173.47665154520422,-42.36921224,0.0 173.48003541,-42.36952646390134,0.0 
			</coordinates>
		</LineString>
	</Placemark>
	<Placemark>
		<name>2.59</name>
		<styleUrl>#linestyle</styleUrl>
		<Style>
 			<LineStyle>
				<color>#ffaaff00</color>
 			</LineStyle>
 		</Style>
		<LineString>
			<tessellate>1</tessellate>
			<altitudeMode>clampToSeaFloor</altitudeMode>
			<gx:altitudeMode>clampToSeaFloor</gx:altitudeMode>
			<coordinates>
174.03003541,-42.37572258659117,0.0 174.03569944102762,-42.36921224,0.0 174.03003541,-42.36316649789268,0.0 174.01819374287513,-42.36921224,0.0 174.03003541,-42.37572258659117,0.0 
			</coordinates>
		</LineString>
	</Placemark>
	<Placemark>
		<name>2.59</name>
		<styleUrl>#linestyle</styleUrl>
		<Style>
 			<LineStyle>
				<color>#ffaaff00</color>
 			</LineStyle>
 		</Style>
		<LineString>
			<tessellate>1</tessellate>
			<altitudeMode>clampToSeaFloor</altitudeMode>
			<gx:altitudeMode>clampToSeaFloor</gx:altitudeMode>
			<coordinates>
173.88003541,-42.000124191644275,0.0 173.89905513965044,-41.96921224,0.0 173.88003541,-41.962723855557236,0.0 173.86883392521503,-41.96921224,0.0 173.88003541,-42.000124191644275,0.0 
			</coordinates>
		</LineString>
	</Placemark>
	<Placemark>
		<name>2.59</name>
		<styleUrl>#linestyle</styleUrl>
		<Style>
 			<LineStyle>
				<color>#ffaaff00</color>
 			</LineStyle>
 		</Style>
		<LineString>
			<tessellate>1</tessellate>
			<altitudeMode>clampToSeaFloor</altitudeMode>
			<gx:altitudeMode>clampToSeaFloor</gx:altitudeMode>
			<coordinates>
173.98003541,-41.98360837731569,0.0 173.99638739506037,-41.96921224,0.0 173.98003541,-41.95623929445063,0.0 173.9597934852975,-41.96921224,0.0 173.98003541,-41.98360837731569,0.0 
			</coordinates>
		</LineString>
	</Placemark>
	<Placemark>
		<name>2.5 events</name>
		<styleUrl>#sn_noicon</styleUrl>
		<Point>
			<altitudeMode>clampToSeaFloor</altitudeMode>
			<gx:altitudeMode>clampToSeaFloor</gx:altitudeMode>
			<coordinates>174.28003541,-41.85725779895076,0.0</coordinates>
		</Point>
	</Placemark>
	<Placemark>
		<name>2.5 events</name>
		<styleUrl>#sn_noicon</styleUrl>
		<Point>
			<altitudeMode>clampToSeaFloor</altitudeMode>
			<gx:altitudeMode>clampToSeaFloor</gx:altitudeMode>
			<coordinates>174.37399467882327,-41.66921224,0.0</coordinates>
		</Point>
	</Placemark>
	<Placemark>
		<name>2.59</name>
		<styleUrl>#linestyle</styleUrl>
		<Style>
 			<LineStyle>
				<color>#ffaaff00</color>
 			</LineStyle>
 		</Style>
		<LineString>
			<tessellate>1</tessellate>
			<altitudeMode>clampToSeaFloor</altitudeMode>
			<gx:altitudeMode>clampToSeaFloor</gx:altitudeMode>
			<coordinates>
174.13003541,-41.829215942918076,0.0 174.18003541,-41.8674460456974,0.0 174.23003541,-41.8677372449307,0.0 174.28003541,-41.85725779895076,0.0 174.32747851296656,-41.81921224,0.0 174.33003541,-41.81570002405935,0.0 174.3731274810304,-41.76921224,0.0 174.38003541,-41.744201401951464,0.0 174.3891667278838,-41.71921224,0.0 174.38003541,-41.692062350888506,0.0 174.37399467882327,-41.66921224,0.0 174.33003541,-41.64020974269976,0.0 174.28003541,-41.632593659179776,0.0 174.23003541,-41.6333354573195,0.0 174.18003541,-41.6585510717864,0.0 174.1674990131198,-41.66921224,0.0 174.1406377347202,-41.71921224,0.0 174.13003541,-41.764852983531135,0.0 174.12816317988143,-41.76921224,0.0 174.12567946498783,-41.81921224,0.0 174.13003541,-41.829215942918076,0.0 
			</coordinates>
		</LineString>
	</Placemark>
	<Placemark>
		<name>3.4 events</name>
		<styleUrl>#sn_noicon</styleUrl>
		<Point>
			<altitudeMode>clampToSeaFloor</altitudeMode>
			<gx:altitudeMode>clampToSeaFloor</gx:altitudeMode>
			<coordinates>173.08003541,-42.580769212606,0.0</coordinates>
		</Point>
	</Placemark>
	<Placemark>
		<name>3.4 events</name>
		<styleUrl>#sn_noicon</styleUrl>
		<Point>
			<altitudeMode>clampToSeaFloor</altitudeMode>
			<gx:altitudeMode>clampToSeaFloor</gx:altitudeMode>
			<coordinates>173.18003541,-42.55572449706058,0.0</coordinates>
		</Point>
	</Placemark>
	<Placemark>
		<name>3.4 events</name>
		<styleUrl>#sn_noicon</styleUrl>
		<Point>
			<altitudeMode>clampToSeaFloor</altitudeMode>
			<gx:altitudeMode>clampToSeaFloor</gx:altitudeMode>
			<coordinates>173.13003541,-42.441758387842,0.0</coordinates>
		</Point>
	</Placemark>
	<Placemark>
		<name>3.46</name>
		<styleUrl>#linestyle</styleUrl>
		<Style>
 			<LineStyle>
				<color>#ff39ff00</color>
 			</LineStyle>
 		</Style>
		<LineString>
			<tessellate>1</tessellate>
			<altitudeMode>clampToSeaFloor</altitudeMode>
			<gx:altitudeMode>clampToSeaFloor</gx:altitudeMode>
			<coordinates>
173.08003541,-42.580769212606,0.0 173.13003541,-42.57188602724499,0.0 173.14201062542273,-42.56921224,0.0 173.18003541,-42.55572449706058,0.0 173.21004801139807,-42.51921224,0.0 173.2103672350304,-42.46921224,0.0 173.18003541,-42.44748194506216,0.0 173.13003541,-42.441758387842,0.0 173.09744643739648,-42.46921224,0.0 173.08519566257795,-42.51921224,0.0 173.08003541,-42.529871352382,0.0 173.06746628921962,-42.56921224,0.0 173.08003541,-42.580769212606,0.0 
			</coordinates>
		</LineString>
	</Placemark>
	<Placemark>
		<name>3.4 events</name>
		<styleUrl>#sn_noicon</styleUrl>
		<Point>
			<altitudeMode>clampToSeaFloor</altitudeMode>
			<gx:altitudeMode>clampToSeaFloor</gx:altitudeMode>
			<coordinates>173.78003541,-42.28499766736098,0.0</coordinates>
		</Point>
	</Placemark>
	<Placemark>
		<name>3.4 events</name>
		<styleUrl>#sn_noicon</styleUrl>
		<Point>
			<altitudeMode>clampToSeaFloor</altitudeMode>
			<gx:altitudeMode>clampToSeaFloor</gx:altitudeMode>
			<coordinates>173.68003541,-42.16699618289359,0.0</coordinates>
		</Point>
	</Placemark>
	<Placemark>
		<name>3.46</name>
		<styleUrl>#linestyle</styleUrl>
		<Style>
 			<LineStyle>
				<color>#ff39ff00</color>
 			</LineStyle>
 		</Style>
		<LineString>
			<tessellate>1</tessellate>
			<altitudeMode>clampToSeaFloor</altitudeMode>
			<gx:altitudeMode>clampToSeaFloor</gx:altitudeMode>
			<coordinates>
173.63003541,-42.33370213750049,0.0 173.68003541,-42.33271223514731,0.0 173.73003541,-42.34296337904127,0.0 173.75997457828643,-42.31921224,0.0 173.78003541,-42.28499766736098,0.0 173.79976494019218,-42.26921224,0.0 173.78003541,-42.25287814358274,0.0 173.75651439733318,-42.21921224,0.0 173.73003541,-42.18846426590725,0.0 173.68535179294773,-42.16921224,0.0 173.68003541,-42.16699618289359,0.0 173.63003541,-42.150222201715685,0.0 173.58003541,-42.146581294008186,0.0 173.55799075046593,-42.16921224,0.0 173.54561750761476,-42.21921224,0.0 173.55170211886,-42.26921224,0.0 173.58003541,-42.306516858907344,0.0 173.59759355823795,-42.31921224,0.0 173.63003541,-42.33370213750049,0.0 
			</coordinates>
		</LineString>
	</Placemark>
	<Placemark>
		<name>3.46</name>
		<styleUrl>#linestyle</styleUrl>
		<Style>
 			<LineStyle>
				<color>#ff39ff00</color>
 			</LineStyle>
 		</Style>
		<LineString>
			<tessellate>1</tessellate>
			<altitudeMode>clampToSeaFloor</altitudeMode>
			<gx:altitudeMode>clampToSeaFloor</gx:altitudeMode>
			<coordinates>
173.73003541,-42.02776991115189,0.0 173.74508060979193,-42.01921224,0.0 173.73003541,-42.00590549712615,0.0 173.71944743705248,-42.01921224,0.0 173.73003541,-42.02776991115189,0.0 
			</coordinates>
		</LineString>
	</Placemark>
	<Placemark>
		<name>3.4 events</name>
		<styleUrl>#sn_noicon</styleUrl>
		<Point>
			<altitudeMode>clampToSeaFloor</altitudeMode>
			<gx:altitudeMode>clampToSeaFloor</gx:altitudeMode>
			<coordinates>174.28003541,-41.8326958509826,0.0</coordinates>
		</Point>
	</Placemark>
	<Placemark>
		<name>3.4 events</name>
		<styleUrl>#sn_noicon</styleUrl>
		<Point>
			<altitudeMode>clampToSeaFloor</altitudeMode>
			<gx:altitudeMode>clampToSeaFloor</gx:altitudeMode>
			<coordinates>174.33343856224397,-41.66921224,0.0</coordinates>
		</Point>
	</Placemark>
	<Placemark>
		<name>3.4 events</name>
		<styleUrl>#sn_noicon</styleUrl>
		<Point>
			<altitudeMode>clampToSeaFloor</altitudeMode>
			<gx:altitudeMode>clampToSeaFloor</gx:altitudeMode>
			<coordinates>174.18003541,-41.70793418132916,0.0</coordinates>
		</Point>
	</Placemark>
	<Placemark>
		<name>3.46</name>
		<styleUrl>#linestyle</styleUrl>
		<Style>
 			<LineStyle>
				<color>#ff39ff00</color>
 			</LineStyle>
 		</Style>
		<LineString>
			<tessellate>1</tessellate>
			<altitudeMode>clampToSeaFloor</altitudeMode>
			<gx:altitudeMode>clampToSeaFloor</gx:altitudeMode>
			<coordinates>
174.18003541,-41.83415576369934,0.0 174.23003541,-41.85225758151874,0.0 174.28003541,-41.8326958509826,0.0 174.2968495760118,-41.81921224,0.0 174.33003541,-41.77362737146063,0.0 174.3341280369634,-41.76921224,0.0 174.36063217646566,-41.71921224,0.0 174.33343856224397,-41.66921224,0.0 174.33003541,-41.66696698168678,0.0 174.28003541,-41.650325794840484,0.0 174.23003541,-41.64981793291458,0.0 174.1981703575618,-41.66921224,0.0 174.18003541,-41.70793418132916,0.0 174.17360531000546,-41.71921224,0.0 174.15211931967204,-41.76921224,0.0 174.16400094947156,-41.81921224,0.0 174.18003541,-41.83415576369934,0.0 
			</coordinates>
		</LineString>
	</Placemark>
	<Placemark>
		<name>4.3 events</name>
		<styleUrl>#sn_noicon</styleUrl>
		<Point>
			<altitudeMode>clampToSeaFloor</altitudeMode>
			<gx:altitudeMode>clampToSeaFloor</gx:altitudeMode>
			<coordinates>173.63003541,-42.30794995073603,0.0</coordinates>
		</Point>
	</Placemark>
	<Placemark>
		<name>4.3 events</name>
		<styleUrl>#sn_noicon</styleUrl>
		<Point>
			<altitudeMode>clampToSeaFloor</altitudeMode>
			<gx:altitudeMode>clampToSeaFloor</gx:altitudeMode>
			<coordinates>173.72403096705418,-42.26921224,0.0</coordinates>
		</Point>
	</Placemark>
	<Placemark>
		<name>4.3 events</name>
		<styleUrl>#sn_noicon</styleUrl>
		<Point>
			<altitudeMode>clampToSeaFloor</altitudeMode>
			<gx:altitudeMode>clampToSeaFloor</gx:altitudeMode>
			<coordinates>173.58003541,-42.20264914513521,0.0</coordinates>
		</Point>
	</Placemark>
	<Placemark>
		<name>4.32</name>
		<styleUrl>#linestyle</styleUrl>
		<Style>
 			<LineStyle>
				<color>#ff00ff39</color>
 			</LineStyle>
 		</Style>
		<LineString>
			<tessellate>1</tessellate>
			<altitudeMode>clampToSeaFloor</altitudeMode>
			<gx:altitudeMode>clampToSeaFloor</gx:altitudeMode>
			<coordinates>
173.63003541,-42.30794995073603,0.0 173.68003541,-42.30665246981672,0.0 173.72403096705418,-42.26921224,0.0 173.71676595199648,-42.21921224,0.0 173.68003541,-42.19278906828745,0.0 173.63003541,-42.18181738701042,0.0 173.58003541,-42.20264914513521,0.0 173.57593187365416,-42.21921224,0.0 173.58003541,-42.2346789178114,0.0 173.58680384067335,-42.26921224,0.0 173.63003541,-42.30794995073603,0.0 
			</coordinates>
		</LineString>
	</Placemark>
	<Placemark>
		<name>4.3 events</name>
		<styleUrl>#sn_noicon</styleUrl>
		<Point>
			<altitudeMode>clampToSeaFloor</altitudeMode>
			<gx:altitudeMode>clampToSeaFloor</gx:altitudeMode>
			<coordinates>174.31545405404052,-41.76921224,0.0</coordinates>
		</Point>
	</Placemark>
	<Placemark>
		<name>4.3 events</name>
		<styleUrl>#sn_noicon</styleUrl>
		<Point>
			<altitudeMode>clampToSeaFloor</altitudeMode>
			<gx:altitudeMode>clampToSeaFloor</gx:altitudeMode>
			<coordinates>174.28003541,-41.6680579305012,0.0</coordinates>
		</Point>
	</Placemark>
	<Placemark>
		<name>4.32</name>
		<styleUrl>#linestyle</styleUrl>
		<Style>
 			<LineStyle>
				<color>#ff00ff39</color>
 			</LineStyle>
 		</Style>
		<LineString>
			<tessellate>1</tessellate>
			<altitudeMode>clampToSeaFloor</altitudeMode>
			<gx:altitudeMode>clampToSeaFloor</gx:altitudeMode>
			<coordinates>
174.23003541,-41.83677791810678,0.0 174.26581425958014,-41.81921224,0.0 174.28003541,-41.81062161785438,0.0 174.31545405404052,-41.76921224,0.0 174.33003541,-41.731695459628924,0.0 174.33705665580908,-41.71921224,0.0 174.33003541,-41.706945266701844,0.0 174.28335267672517,-41.66921224,0.0 174.28003541,-41.6680579305012,0.0 174.23003541,-41.66630040850966,0.0 174.22525123994834,-41.66921224,0.0 174.20389210067495,-41.71921224,0.0 174.18003541,-41.75827946913652,0.0 174.1749030697489,-41.76921224,0.0 174.18003541,-41.78371955927928,0.0 174.19638048925916,-41.81921224,0.0 174.23003541,-41.83677791810678,0.0 
			</coordinates>
		</LineString>
	</Placemark>
	<Placemark>
		<name>5.1 events</name>
		<styleUrl>#sn_noicon</styleUrl>
		<Point>
			<altitudeMode>clampToSeaFloor</altitudeMode>
			<gx:altitudeMode>clampToSeaFloor</gx:altitudeMode>
			<coordinates>173.63003541,-42.287883534338796,0.0</coordinates>
		</Point>
	</Placemark>
	<Placemark>
		<name>5.1 events</name>
		<styleUrl>#sn_noicon</styleUrl>
		<Point>
			<altitudeMode>clampToSeaFloor</altitudeMode>
			<gx:altitudeMode>clampToSeaFloor</gx:altitudeMode>
			<coordinates>173.6824221421907,-42.21921224,0.0</coordinates>
		</Point>
	</Placemark>
	<Placemark>
		<name>5.18</name>
		<styleUrl>#linestyle</styleUrl>
		<Style>
 			<LineStyle>
				<color>#ff00ffaa</color>
 			</LineStyle>
 		</Style>
		<LineString>
			<tessellate>1</tessellate>
			<altitudeMode>clampToSeaFloor</altitudeMode>
			<gx:altitudeMode>clampToSeaFloor</gx:altitudeMode>
			<coordinates>
173.63003541,-42.287883534338796,0.0 173.68003541,-42.285446934200856,0.0 173.69911260099127,-42.26921224,0.0 173.6824221421907,-42.21921224,0.0 173.68003541,-42.217495275558996,0.0 173.63003541,-42.213371434634794,0.0 173.6212187023193,-42.21921224,0.0 173.60919810856197,-42.26921224,0.0 173.63003541,-42.287883534338796,0.0 
			</coordinates>
		</LineString>
	</Placemark>
	<Placemark>
		<name>5.1 events</name>
		<styleUrl>#sn_noicon</styleUrl>
		<Point>
			<altitudeMode>clampToSeaFloor</altitudeMode>
			<gx:altitudeMode>clampToSeaFloor</gx:altitudeMode>
			<coordinates>174.23003541,-41.821298254694824,0.0</coordinates>
		</Point>
	</Placemark>
	<Placemark>
		<name>5.1 events</name>
		<styleUrl>#sn_noicon</styleUrl>
		<Point>
			<altitudeMode>clampToSeaFloor</altitudeMode>
			<gx:altitudeMode>clampToSeaFloor</gx:altitudeMode>
			<coordinates>174.32055210089058,-41.71921224,0.0</coordinates>
		</Point>
	</Placemark>
	<Placemark>
		<name>5.18</name>
		<styleUrl>#linestyle</styleUrl>
		<Style>
 			<LineStyle>
				<color>#ff00ffaa</color>
 			</LineStyle>
 		</Style>
		<LineString>
			<tessellate>1</tessellate>
			<altitudeMode>clampToSeaFloor</altitudeMode>
			<gx:altitudeMode>clampToSeaFloor</gx:altitudeMode>
			<coordinates>
174.23003541,-41.821298254694824,0.0 174.23428433255992,-41.81921224,0.0 174.28003541,-41.79157521996725,0.0 174.29916311652897,-41.76921224,0.0 174.32055210089058,-41.71921224,0.0 174.28003541,-41.68109182409297,0.0 174.23192593767837,-41.71921224,0.0 174.23003541,-41.72427646652606,0.0 174.20131013375644,-41.76921224,0.0 174.2260387149227,-41.81921224,0.0 174.23003541,-41.821298254694824,0.0 
			</coordinates>
		</LineString>
	</Placemark>
	<Placemark>
		<name>6.0 events</name>
		<styleUrl>#sn_noicon</styleUrl>
		<Point>
			<altitudeMode>clampToSeaFloor</altitudeMode>
			<gx:altitudeMode>clampToSeaFloor</gx:altitudeMode>
			<coordinates>174.23003541,-41.77173912844091,0.0</coordinates>
		</Point>
	</Placemark>
	<Placemark>
		<name>6.0 events</name>
		<styleUrl>#sn_noicon</styleUrl>
		<Point>
			<altitudeMode>clampToSeaFloor</altitudeMode>
			<gx:altitudeMode>clampToSeaFloor</gx:altitudeMode>
			<coordinates>174.28003541,-41.77252882208011,0.0</coordinates>
		</Point>
	</Placemark>
	<Placemark>
		<name>6.0 events</name>
		<styleUrl>#sn_noicon</styleUrl>
		<Point>
			<altitudeMode>clampToSeaFloor</altitudeMode>
			<gx:altitudeMode>clampToSeaFloor</gx:altitudeMode>
			<coordinates>174.247962366587,-41.71921224,0.0</coordinates>
		</Point>
	</Placemark>
	<Placemark>
		<name>6.05</name>
		<styleUrl>#linestyle</styleUrl>
		<Style>
 			<LineStyle>
				<color>#ff00e3ff</color>
 			</LineStyle>
 		</Style>
		<LineString>
			<tessellate>1</tessellate>
			<altitudeMode>clampToSeaFloor</altitudeMode>
			<gx:altitudeMode>clampToSeaFloor</gx:altitudeMode>
			<coordinates>
174.23003541,-41.77173912844091,0.0 174.28003541,-41.77252882208011,0.0 174.2828721790174,-41.76921224,0.0 174.3070465893619,-41.71921224,0.0 174.28003541,-41.69379858037524,0.0 174.247962366587,-41.71921224,0.0 174.23003541,-41.76723384270788,0.0 174.22877071587453,-41.76921224,0.0 174.23003541,-41.77173912844091,0.0 
			</coordinates>
		</LineString>
	</Placemark>
	<Placemark>
		<name>6.9 events</name>
		<styleUrl>#sn_noicon</styleUrl>
		<Point>
			<altitudeMode>clampToSeaFloor</altitudeMode>
			<gx:altitudeMode>clampToSeaFloor</gx:altitudeMode>
			<coordinates>174.28003541,-41.746596615076726,0.0</coordinates>
		</Point>
	</Placemark>
	<Placemark>
		<name>6.91</name>
		<styleUrl>#linestyle</styleUrl>
		<Style>
 			<LineStyle>
				<color>#ff0071ff</color>
 			</LineStyle>
 		</Style>
		<LineString>
			<tessellate>1</tessellate>
			<altitudeMode>clampToSeaFloor</altitudeMode>
			<gx:altitudeMode>clampToSeaFloor</gx:altitudeMode>
			<coordinates>
174.28003541,-41.746596615076726,0.0 174.29354107783323,-41.71921224,0.0 174.28003541,-41.70650533665751,0.0 174.26399879549558,-41.71921224,0.0 174.28003541,-41.746596615076726,0.0 
			</coordinates>
		</LineString>
	</Placemark>
	<Placemark>
		<name>7.7 events</name>
		<styleUrl>#sn_noicon</styleUrl>
		<Point>
			<altitudeMode>clampToSeaFloor</altitudeMode>
			<gx:altitudeMode>clampToSeaFloor</gx:altitudeMode>
			<coordinates>174.28003541,-41.719212556926315,0.0</coordinates>
		</Point>
	</Placemark>
	<Placemark>
		<name>7.78</name>
		<styleUrl>#linestyle</styleUrl>
		<Style>
 			<LineStyle>
				<color>#ff000000</color>
 			</LineStyle>
 		</Style>
		<LineString>
			<tessellate>1</tessellate>
			<altitudeMode>clampToSeaFloor</altitudeMode>
			<gx:altitudeMode>clampToSeaFloor</gx:altitudeMode>
			<coordinates>
174.28003541,-41.719212556926315,0.0 174.28003556630452,-41.71921224,0.0 
			</coordinates>
		</LineString>
	</Placemark>
</Document>
</kml>
