<?xml version="1.0" encoding="UTF-8"?>
<kml xmlns="http://www.opengis.net/kml/2.2"
 xmlns:gx="http://www.google.com/kml/ext/2.2"
 xmlns:kml="http://www.opengis.net/kml/2.2"
 xmlns:atom="http://www.w3.org/2005/Atom">
<Document>
	<name>2016p858000.kml</name>
	<Style id="sn_noicon">
		<IconStyle>
			<Icon>
			</Icon>
		</IconStyle>
		<LabelStyle>
			<scale>0.8</scale>
		</LabelStyle>
	</Style>
	<Style id="linestyle">
			<LineStyle>
				<width>2</width>
			</LineStyle>
	</Style>
	<Placemark>
		<name>0.1 events</name>
		<styleUrl>#sn_noicon</styleUrl>
		<Point>
			<altitudeMode>clampToSeaFloor</altitudeMode>
			<gx:altitudeMode>clampToSeaFloor</gx:altitudeMode>
			<coordinates>172.75421652,-43.00078803007357,0.0</coordinates>
		</Point>
	</Placemark>
	<Placemark>
		<name>0.1 events</name>
		<styleUrl>#sn_noicon</styleUrl>
		<Point>
			<altitudeMode>clampToSeaFloor</altitudeMode>
			<gx:altitudeMode>clampToSeaFloor</gx:altitudeMode>
			<coordinates>173.20421652,-42.87878924184119,0.0</coordinates>
		</Point>
	</Placemark>
	<Placemark>
		<name>0.1 events</name>
		<styleUrl>#sn_noicon</styleUrl>
		<Point>
			<altitudeMode>clampToSeaFloor</altitudeMode>
			<gx:altitudeMode>clampToSeaFloor</gx:altitudeMode>
			<coordinates>174.4965308159467,-41.88469267,0.0</coordinates>
		</Point>
	</Placemark>
	<Placemark>
		<name>0.19</name>
		<styleUrl>#linestyle</styleUrl>
		<Style>
 			<LineStyle>
				<color>#ffff7100</color>
 			</LineStyle>
 		</Style>
		<LineString>
			<tessellate>1</tessellate>
			<altitudeMode>clampToSeaFloor</altitudeMode>
			<gx:altitudeMode>clampToSeaFloor</gx:altitudeMode>
			<coordinates>
172.75421652,-43.00078803007357,0.0 172.80421652,-43.010609466450035,0.0 172.85421652,-43.01155937557311,0.0 172.90421652,-43.005644806247716,0.0 172.95421652,-42.993359098927,0.0 172.97913699112547,-42.98469267,0.0 173.00421652,-42.977012527827064,0.0 173.05421652,-42.9575340746654,0.0 173.09983948339254,-42.93469267,0.0 173.10421652,-42.93265044327516,0.0 173.15421652,-42.90780544929859,0.0 173.19348481493836,-42.88469267,0.0 173.20421652,-42.87878924184119,0.0 173.25421652,-42.849718865942535,0.0 173.27774859723752,-42.83469267,0.0 173.30421652,-42.81897102110027,0.0 173.35421652,-42.78570919417702,0.0 173.35572539892323,-42.78469267,0.0 173.40421652,-42.75411744042201,0.0 173.4319775050029,-42.73469267,0.0 173.45421652,-42.72000809283539,0.0 173.50329652212525,-42.68469267,0.0 173.50421652,-42.68406501367834,0.0 173.55421652,-42.65063630349611,0.0 173.57716551517794,-42.63469267,0.0 173.60421652,-42.61774431820571,0.0 173.65421652,-42.58761495241751,0.0 173.65984254475245,-42.58469267,0.0 173.70421652,-42.56917882982827,0.0 173.75421652,-42.562978622463355,0.0 173.80421652,-42.56579842899953,0.0 173.8476253473261,-42.53469267,0.0 173.85421652,-42.52649336472824,0.0 173.90421652,-42.484762647847404,0.0 173.9043279564592,-42.48469267,0.0 173.95421652,-42.46473055378782,0.0 174.00421652,-42.462632340562706,0.0 174.05421652,-42.446619657026076,0.0 174.06985686071255,-42.43469267,0.0 174.10421652,-42.39280657567655,0.0 174.11042819391682,-42.38469267,0.0 174.10568055074887,-42.33469267,0.0 174.10421652,-42.327862187497814,0.0 174.0940437245696,-42.28469267,0.0 174.10421652,-42.24846512965326,0.0 174.11029293511734,-42.23469267,0.0 174.15233535961016,-42.18469267,0.0 174.15421652,-42.18290020172926,0.0 174.20421652,-42.13621122431162,0.0 174.20585652667825,-42.13469267,0.0 174.25421652,-42.09395780764836,0.0 174.26481712221388,-42.08469267,0.0 174.30421652,-42.053137975176845,0.0 174.3258345081559,-42.03469267,0.0 174.35421652,-42.01258338746202,0.0 174.3867692504454,-41.98469267,0.0 174.40421652,-41.9708730554376,0.0 174.44458023280194,-41.93469267,0.0 174.45421652,-41.92632839938113,0.0 174.4965308159467,-41.88469267,0.0 174.50421652,-41.87668470793858,0.0 174.54065606025551,-41.83469267,0.0 174.55421652,-41.813596755998795,0.0 174.5737033081064,-41.78469267,0.0 174.596396715251,-41.73469267,0.0 174.60421652,-41.70155799821618,0.0 174.60892766880804,-41.68469267,0.0 174.607868945468,-41.63469267,0.0 174.60421652,-41.62588706236989,0.0 174.58752354504173,-41.58469267,0.0 174.55421652,-41.55139603749459,0.0 174.5276480661593,-41.53469267,0.0 174.50421652,-41.522783071519044,0.0 174.45421652,-41.50910709451186,0.0 174.40421652,-41.504877041346326,0.0 174.35421652,-41.50699184508366,0.0 174.30421652,-41.5141107894918,0.0 174.25421652,-41.526068907450856,0.0 174.22838300536182,-41.53469267,0.0 174.20421652,-41.54016498280406,0.0 174.15421652,-41.556882946373854,0.0 174.10421652,-41.58420930032319,0.0 174.10340900364326,-41.58469267,0.0 174.05421652,-41.61376974893778,0.0 174.02527863964175,-41.63469267,0.0 174.00421652,-41.65149923243011,0.0 173.96205565862527,-41.68469267,0.0 173.95421652,-41.69108376076096,0.0 173.90421652,-41.728859499211104,0.0 173.89620109918434,-41.73469267,0.0 173.85421652,-41.76276404343013,0.0 173.8214441779925,-41.78469267,0.0 173.80421652,-41.79433889190031,0.0 173.75421652,-41.819634306880495,0.0 173.7241816581263,-41.83469267,0.0 173.70421652,-41.84026259131748,0.0 173.65421652,-41.858149597150536,0.0 173.61200683737331,-41.88469267,0.0 173.60421652,-41.88907555530949,0.0 173.55421652,-41.93162794239368,0.0 173.55070911397158,-41.93469267,0.0 173.50421652,-41.98417523779466,0.0 173.5036435058175,-41.98469267,0.0 173.45421652,-42.027282139486346,0.0 173.44532282085797,-42.03469267,0.0 173.40421652,-42.06623262300855,0.0 173.38177002653111,-42.08469267,0.0 173.35421652,-42.10755985060399,0.0 173.3212862370522,-42.13469267,0.0 173.30421652,-42.148527274070666,0.0 173.25588873116882,-42.18469267,0.0 173.25421652,-42.185774669132606,0.0 173.20421652,-42.21376383157547,0.0 173.16589891653098,-42.23469267,0.0 173.15421652,-42.23908321838186,0.0 173.10421652,-42.25703038132842,0.0 173.05421652,-42.2810255256378,0.0 173.04821295453218,-42.28469267,0.0 173.00421652,-42.306969478107064,0.0 172.96831363471847,-42.33469267,0.0 172.95421652,-42.34725023542016,0.0 172.9163382763602,-42.38469267,0.0 172.90421652,-42.40125645911403,0.0 172.87764701154612,-42.43469267,0.0 172.85421652,-42.47360367267373,0.0 172.84618855254368,-42.48469267,0.0 172.80421652,-42.53197511703579,0.0 172.8019871054134,-42.53469267,0.0 172.76287859131904,-42.58469267,0.0 172.75421652,-42.61395696967402,0.0 172.74150922918642,-42.63469267,0.0 172.71007523613994,-42.68469267,0.0 172.70421652,-42.69451472843152,0.0 172.67843204179778,-42.73469267,0.0 172.65457973751182,-42.78469267,0.0 172.65421652,-42.78591824542024,0.0 172.63831782540674,-42.83469267,0.0 172.63759634291148,-42.88469267,0.0 172.65421652,-42.925134455861055,0.0 172.6582312443845,-42.93469267,0.0 172.70421652,-42.977515986252854,0.0 172.71768033212095,-42.98469267,0.0 172.75421652,-43.00078803007357,0.0 
			</coordinates>
		</LineString>
	</Placemark>
	<Placemark>
		<name>0.3 events</name>
		<styleUrl>#sn_noicon</styleUrl>
		<Point>
			<altitudeMode>clampToSeaFloor</altitudeMode>
			<gx:altitudeMode>clampToSeaFloor</gx:altitudeMode>
			<coordinates>172.85421652,-42.89610462293311,0.0</coordinates>
		</Point>
	</Placemark>
	<Placemark>
		<name>0.3 events</name>
		<styleUrl>#sn_noicon</styleUrl>
		<Point>
			<altitudeMode>clampToSeaFloor</altitudeMode>
			<gx:altitudeMode>clampToSeaFloor</gx:altitudeMode>
			<coordinates>174.00421652,-42.418031396555286,0.0</coordinates>
		</Point>
	</Placemark>
	<Placemark>
		<name>0.3 events</name>
		<styleUrl>#sn_noicon</styleUrl>
		<Point>
			<altitudeMode>clampToSeaFloor</altitudeMode>
			<gx:altitudeMode>clampToSeaFloor</gx:altitudeMode>
			<coordinates>174.05421652,-41.755770739787266,0.0</coordinates>
		</Point>
	</Placemark>
	<Placemark>
		<name>0.39</name>
		<styleUrl>#linestyle</styleUrl>
		<Style>
 			<LineStyle>
				<color>#ffffe300</color>
 			</LineStyle>
 		</Style>
		<LineString>
			<tessellate>1</tessellate>
			<altitudeMode>clampToSeaFloor</altitudeMode>
			<gx:altitudeMode>clampToSeaFloor</gx:altitudeMode>
			<coordinates>
172.85421652,-42.89610462293311,0.0 172.90421652,-42.89187103224706,0.0 172.92798344567032,-42.88469267,0.0 172.95421652,-42.876054448934084,0.0 173.00421652,-42.854548868754634,0.0 173.04265949184654,-42.83469267,0.0 173.05421652,-42.8286200864365,0.0 173.10421652,-42.80070007493473,0.0 173.13054738050036,-42.78469267,0.0 173.15421652,-42.77099189527865,0.0 173.20421652,-42.74039245742572,0.0 173.21296548989793,-42.73469267,0.0 173.25421652,-42.70992137720019,0.0 173.291827864108,-42.68469267,0.0 173.30421652,-42.67697487229544,0.0 173.35421652,-42.642486525224626,0.0 173.36482200509434,-42.63469267,0.0 173.40421652,-42.60601586251415,0.0 173.43211984904227,-42.58469267,0.0 173.45421652,-42.56779174561214,0.0 173.49765135133958,-42.53469267,0.0 173.50421652,-42.529712627263784,0.0 173.55421652,-42.496513629090884,0.0 173.57524691688687,-42.48469267,0.0 173.60421652,-42.47192799710144,0.0 173.65421652,-42.458982122190086,0.0 173.70421652,-42.46821906490403,0.0 173.75421652,-42.482810042158015,0.0 173.80421652,-42.479814176993536,0.0 173.8506857075524,-42.43469267,0.0 173.85421652,-42.41878560799086,0.0 173.89316637863462,-42.38469267,0.0 173.90421652,-42.38272349070544,0.0 173.95421652,-42.370255278507855,0.0 173.95618179976515,-42.38469267,0.0 174.00421652,-42.418031396555286,0.0 174.05421652,-42.40015420363682,0.0 174.06892256419147,-42.38469267,0.0 174.05421652,-42.35771427462862,0.0 174.02070347029522,-42.33469267,0.0 174.00421652,-42.31135702324561,0.0 173.98090490909675,-42.28469267,0.0 173.95421652,-42.25085414297528,0.0 173.94350277092528,-42.23469267,0.0 173.95421652,-42.2029262505666,0.0 173.9627030980652,-42.18469267,0.0 174.00421652,-42.13711616472447,0.0 174.00653380077128,-42.13469267,0.0 174.05421652,-42.09076248033763,0.0 174.0610123254207,-42.08469267,0.0 174.10421652,-42.048596024712346,0.0 174.1209796707742,-42.03469267,0.0 174.15421652,-42.00881303553156,0.0 174.18556641005043,-41.98469267,0.0 174.20421652,-41.972288771844106,0.0 174.25421652,-41.9389684263164,0.0 174.26013302682492,-41.93469267,0.0 174.30421652,-41.91084450902506,0.0 174.3393611070025,-41.88469267,0.0 174.35421652,-41.87519194408427,0.0 174.40421652,-41.83544373831756,0.0 174.40507027184185,-41.83469267,0.0 174.45421652,-41.79972615358691,0.0 174.4670844716518,-41.78469267,0.0 174.47135679003176,-41.73469267,0.0 174.47891616875663,-41.68469267,0.0 174.46186069419326,-41.63469267,0.0 174.45421652,-41.628057006064026,0.0 174.40421652,-41.60447012513436,0.0 174.35421652,-41.59665760684484,0.0 174.30421652,-41.59705756718291,0.0 174.25421652,-41.59946229595492,0.0 174.20421652,-41.608734987141844,0.0 174.1587315715602,-41.63469267,0.0 174.15421652,-41.636510522669965,0.0 174.10421652,-41.68425161236966,0.0 174.10374409982353,-41.68469267,0.0 174.06645440119772,-41.73469267,0.0 174.05421652,-41.755770739787266,0.0 174.02677783391567,-41.78469267,0.0 174.00421652,-41.80698671436762,0.0 173.96332073455633,-41.83469267,0.0 173.95421652,-41.838776863912834,0.0 173.90421652,-41.87518784870409,0.0 173.88974627934488,-41.88469267,0.0 173.85421652,-41.903297715311176,0.0 173.80421652,-41.91684507276633,0.0 173.75421652,-41.91160845683201,0.0 173.70421652,-41.907925032064625,0.0 173.65421652,-41.93151357886106,0.0 173.65020486420306,-41.93469267,0.0 173.61621342259954,-41.98469267,0.0 173.60779661484963,-42.03469267,0.0 173.60421652,-42.040553619515066,0.0 173.55421652,-42.08141577461466,0.0 173.55011579156132,-42.08469267,0.0 173.50421652,-42.11098110988318,0.0 173.4644724127288,-42.13469267,0.0 173.45421652,-42.15039989945695,0.0 173.43543738260806,-42.18469267,0.0 173.40421652,-42.230262913034096,0.0 173.3997807194777,-42.23469267,0.0 173.35421652,-42.27460713171113,0.0 173.3397369994257,-42.28469267,0.0 173.30421652,-42.30408296065531,0.0 173.25421652,-42.32385341448092,0.0 173.21116321044468,-42.33469267,0.0 173.20421652,-42.33571411601607,0.0 173.15421652,-42.33957212543067,0.0 173.12795353711553,-42.33469267,0.0 173.10421652,-42.32999637350719,0.0 173.0952594248615,-42.33469267,0.0 173.05421652,-42.36915651642482,0.0 173.0387686221196,-42.38469267,0.0 173.00421652,-42.424231211822345,0.0 172.99535720284402,-42.43469267,0.0 172.96974438947777,-42.48469267,0.0 172.95421652,-42.53215877959016,0.0 172.95293938101997,-42.53469267,0.0 172.9106566394831,-42.58469267,0.0 172.90421652,-42.59463158391044,0.0 172.8682778495577,-42.63469267,0.0 172.85421652,-42.64719018860876,0.0 172.82746968787743,-42.68469267,0.0 172.83530301811763,-42.73469267,0.0 172.80807983621048,-42.78469267,0.0 172.80421652,-42.79575933852064,0.0 172.79077438784003,-42.83469267,0.0 172.80421652,-42.87566819772161,0.0 172.81257665170722,-42.88469267,0.0 172.85421652,-42.89610462293311,0.0 
			</coordinates>
		</LineString>
	</Placemark>
	<Placemark>
		<name>0.5 events</name>
		<styleUrl>#sn_noicon</styleUrl>
		<Point>
			<altitudeMode>clampToSeaFloor</altitudeMode>
			<gx:altitudeMode>clampToSeaFloor</gx:altitudeMode>
			<coordinates>173.05421652,-42.68778114991857,0.0</coordinates>
		</Point>
	</Placemark>
	<Placemark>
		<name>0.5 events</name>
		<styleUrl>#sn_noicon</styleUrl>
		<Point>
			<altitudeMode>clampToSeaFloor</altitudeMode>
			<gx:altitudeMode>clampToSeaFloor</gx:altitudeMode>
			<coordinates>173.35421652,-42.544896775015445,0.0</coordinates>
		</Point>
	</Placemark>
	<Placemark>
		<name>0.5 events</name>
		<styleUrl>#sn_noicon</styleUrl>
		<Point>
			<altitudeMode>clampToSeaFloor</altitudeMode>
			<gx:altitudeMode>clampToSeaFloor</gx:altitudeMode>
			<coordinates>173.89409438974104,-42.13469267,0.0</coordinates>
		</Point>
	</Placemark>
	<Placemark>
		<name>0.58</name>
		<styleUrl>#linestyle</styleUrl>
		<Style>
 			<LineStyle>
				<color>#ffaaff00</color>
 			</LineStyle>
 		</Style>
		<LineString>
			<tessellate>1</tessellate>
			<altitudeMode>clampToSeaFloor</altitudeMode>
			<gx:altitudeMode>clampToSeaFloor</gx:altitudeMode>
			<coordinates>
173.05421652,-42.68778114991857,0.0 173.09307074724305,-42.68469267,0.0 173.10421652,-42.6841362378499,0.0 173.15421652,-42.66797914214235,0.0 173.20421652,-42.646061520135966,0.0 173.22458612955413,-42.63469267,0.0 173.25421652,-42.62577719661053,0.0 173.30421652,-42.58764851360617,0.0 173.30810842588738,-42.58469267,0.0 173.35421652,-42.544896775015445,0.0 173.36706793367776,-42.53469267,0.0 173.40421652,-42.50689073527306,0.0 173.4295376798001,-42.48469267,0.0 173.45421652,-42.45171655298837,0.0 173.47742464703654,-42.43469267,0.0 173.50421652,-42.41557802059737,0.0 173.55421652,-42.405657724655136,0.0 173.60421652,-42.39387245902367,0.0 173.63243773662322,-42.38469267,0.0 173.65421652,-42.38062388538994,0.0 173.70421652,-42.38370720413672,0.0 173.71247330612758,-42.38469267,0.0 173.72287165566226,-42.43469267,0.0 173.75421652,-42.45617340347356,0.0 173.80421652,-42.4458413738141,0.0 173.81569821117176,-42.43469267,0.0 173.80421652,-42.40376177284152,0.0 173.77575955356144,-42.38469267,0.0 173.80421652,-42.359404517695694,0.0 173.85421652,-42.34641436485095,0.0 173.90421652,-42.35063220807458,0.0 173.92245307648193,-42.33469267,0.0 173.90421652,-42.29884024164386,0.0 173.89755533188583,-42.28469267,0.0 173.85421652,-42.23576611752796,0.0 173.85196392143763,-42.23469267,0.0 173.85248043557613,-42.18469267,0.0 173.85421652,-42.18341115836129,0.0 173.89409438974104,-42.13469267,0.0 173.90421652,-42.10220460203162,0.0 173.91613740238282,-42.08469267,0.0 173.94254183176338,-42.03469267,0.0 173.95421652,-42.021394851617764,0.0 174.00421652,-41.99346156979286,0.0 174.01443073276567,-41.98469267,0.0 174.02759250228078,-41.93469267,0.0 174.00421652,-41.927537575262804,0.0 173.98852832630197,-41.93469267,0.0 173.95421652,-41.96330455621896,0.0 173.90421652,-41.95946435503047,0.0 173.85421652,-41.968328857907636,0.0 173.80624380436933,-41.98469267,0.0 173.80421652,-41.98628393642873,0.0 173.80313235356783,-41.98469267,0.0 173.75421652,-41.959068390073334,0.0 173.70421652,-41.94460946016389,0.0 173.66053496628078,-41.98469267,0.0 173.6619012679639,-42.03469267,0.0 173.68262677637463,-42.08469267,0.0 173.65421652,-42.09757360837755,0.0 173.60421652,-42.09935382336801,0.0 173.55421652,-42.1145350700931,0.0 173.52948330481223,-42.13469267,0.0 173.5061972812745,-42.18469267,0.0 173.50421652,-42.19328831890329,0.0 173.48573416527472,-42.23469267,0.0 173.463408820454,-42.28469267,0.0 173.45421652,-42.29389558853789,0.0 173.4136355721517,-42.33469267,0.0 173.40421652,-42.33979407372535,0.0 173.35421652,-42.36031339937954,0.0 173.304463224018,-42.38469267,0.0 173.30421652,-42.3848215199308,0.0 173.25421652,-42.39473593368847,0.0 173.20421652,-42.39052869440016,0.0 173.15421652,-42.38794113729479,0.0 173.10421652,-42.39512435169575,0.0 173.0551706770528,-42.43469267,0.0 173.05421652,-42.436113410302184,0.0 173.02545998584077,-42.48469267,0.0 173.01212439659253,-42.53469267,0.0 173.00421652,-42.549730819758835,0.0 172.97384579904244,-42.58469267,0.0 172.95421652,-42.60166827078808,0.0 172.92793316946896,-42.63469267,0.0 172.95421652,-42.66876788747152,0.0 173.00421652,-42.66973068516434,0.0 173.0478717196432,-42.68469267,0.0 173.05421652,-42.68778114991857,0.0 
			</coordinates>
		</LineString>
	</Placemark>
	<Placemark>
		<name>0.58</name>
		<styleUrl>#linestyle</styleUrl>
		<Style>
 			<LineStyle>
				<color>#ffaaff00</color>
 			</LineStyle>
 		</Style>
		<LineString>
			<tessellate>1</tessellate>
			<altitudeMode>clampToSeaFloor</altitudeMode>
			<gx:altitudeMode>clampToSeaFloor</gx:altitudeMode>
			<coordinates>
174.00421652,-42.393122384714054,0.0 174.02217799514852,-42.38469267,0.0 174.00421652,-42.370255341727834,0.0 173.99207091547976,-42.38469267,0.0 174.00421652,-42.393122384714054,0.0 
			</coordinates>
		</LineString>
	</Placemark>
	<Placemark>
		<name>0.5 events</name>
		<styleUrl>#sn_noicon</styleUrl>
		<Point>
			<altitudeMode>clampToSeaFloor</altitudeMode>
			<gx:altitudeMode>clampToSeaFloor</gx:altitudeMode>
			<coordinates>174.30421652,-41.854840558876,0.0</coordinates>
		</Point>
	</Placemark>
	<Placemark>
		<name>0.5 events</name>
		<styleUrl>#sn_noicon</styleUrl>
		<Point>
			<altitudeMode>clampToSeaFloor</altitudeMode>
			<gx:altitudeMode>clampToSeaFloor</gx:altitudeMode>
			<coordinates>174.39824075024808,-41.68469267,0.0</coordinates>
		</Point>
	</Placemark>
	<Placemark>
		<name>0.58</name>
		<styleUrl>#linestyle</styleUrl>
		<Style>
 			<LineStyle>
				<color>#ffaaff00</color>
 			</LineStyle>
 		</Style>
		<LineString>
			<tessellate>1</tessellate>
			<altitudeMode>clampToSeaFloor</altitudeMode>
			<gx:altitudeMode>clampToSeaFloor</gx:altitudeMode>
			<coordinates>
174.15421652,-41.889914023858104,0.0 174.1999824673871,-41.88469267,0.0 174.20421652,-41.884587455913255,0.0 174.25421652,-41.87811330872888,0.0 174.30421652,-41.854840558876,0.0 174.32972838962291,-41.83469267,0.0 174.35421652,-41.80941033397534,0.0 174.40421652,-41.79370451855166,0.0 174.4147985053863,-41.78469267,0.0 174.40421652,-41.75101758170496,0.0 174.40041750234252,-41.73469267,0.0 174.39824075024808,-41.68469267,0.0 174.35421652,-41.64483343714874,0.0 174.30421652,-41.63720548139545,0.0 174.25421652,-41.6353703446601,0.0 174.20421652,-41.6416913297405,0.0 174.15421652,-41.66634984755739,0.0 174.13512175635458,-41.68469267,0.0 174.1182406513415,-41.73469267,0.0 174.11043899664054,-41.78469267,0.0 174.10526429814468,-41.83469267,0.0 174.1215266960319,-41.88469267,0.0 174.15421652,-41.889914023858104,0.0 
			</coordinates>
		</LineString>
	</Placemark>
	<Placemark>
		<name>0.7 events</name>
		<styleUrl>#sn_noicon</styleUrl>
		<Point>
			<altitudeMode>clampToSeaFloor</altitudeMode>
			<gx:altitudeMode>clampToSeaFloor</gx:altitudeMode>
			<coordinates>173.05421652,-42.58736796908225,0.0</coordinates>
		</Point>
	</Placemark>
	<Placemark>
		<name>0.7 events</name>
		<styleUrl>#sn_noicon</styleUrl>
		<Point>
			<altitudeMode>clampToSeaFloor</altitudeMode>
			<gx:altitudeMode>clampToSeaFloor</gx:altitudeMode>
			<coordinates>173.25421652,-42.516138340050595,0.0</coordinates>
		</Point>
	</Placemark>
	<Placemark>
		<name>0.7 events</name>
		<styleUrl>#sn_noicon</styleUrl>
		<Point>
			<altitudeMode>clampToSeaFloor</altitudeMode>
			<gx:altitudeMode>clampToSeaFloor</gx:altitudeMode>
			<coordinates>173.10421652,-42.43363390071684,0.0</coordinates>
		</Point>
	</Placemark>
	<Placemark>
		<name>0.77</name>
		<styleUrl>#linestyle</styleUrl>
		<Style>
 			<LineStyle>
				<color>#ff39ff00</color>
 			</LineStyle>
 		</Style>
		<LineString>
			<tessellate>1</tessellate>
			<altitudeMode>clampToSeaFloor</altitudeMode>
			<gx:altitudeMode>clampToSeaFloor</gx:altitudeMode>
			<coordinates>
173.05421652,-42.58736796908225,0.0 173.10421652,-42.608494844667675,0.0 173.15421652,-42.59502573792683,0.0 173.1850782689572,-42.58469267,0.0 173.20421652,-42.57746512220939,0.0 173.25133098504224,-42.53469267,0.0 173.25421652,-42.516138340050595,0.0 173.27665979002916,-42.48469267,0.0 173.25421652,-42.476756874667444,0.0 173.2133136800647,-42.43469267,0.0 173.20421652,-42.431511243634496,0.0 173.15421652,-42.41398468474425,0.0 173.10421652,-42.43363390071684,0.0 173.10290415105928,-42.43469267,0.0 173.0629661346733,-42.48469267,0.0 173.05421652,-42.51341466387858,0.0 173.04622150179839,-42.53469267,0.0 173.05048110703763,-42.58469267,0.0 173.05421652,-42.58736796908225,0.0 
			</coordinates>
		</LineString>
	</Placemark>
	<Placemark>
		<name>0.77</name>
		<styleUrl>#linestyle</styleUrl>
		<Style>
 			<LineStyle>
				<color>#ff39ff00</color>
 			</LineStyle>
 		</Style>
		<LineString>
			<tessellate>1</tessellate>
			<altitudeMode>clampToSeaFloor</altitudeMode>
			<gx:altitudeMode>clampToSeaFloor</gx:altitudeMode>
			<coordinates>
173.35421652,-42.505831187186665,0.0 173.3774780375277,-42.48469267,0.0 173.3562836905676,-42.43469267,0.0 173.35421652,-42.432800908954036,0.0 173.34952133491348,-42.43469267,0.0 173.30972206071317,-42.48469267,0.0 173.35421652,-42.505831187186665,0.0 
			</coordinates>
		</LineString>
	</Placemark>
	<Placemark>
		<name>0.7 events</name>
		<styleUrl>#sn_noicon</styleUrl>
		<Point>
			<altitudeMode>clampToSeaFloor</altitudeMode>
			<gx:altitudeMode>clampToSeaFloor</gx:altitudeMode>
			<coordinates>173.77477283962384,-42.33469267,0.0</coordinates>
		</Point>
	</Placemark>
	<Placemark>
		<name>0.7 events</name>
		<styleUrl>#sn_noicon</styleUrl>
		<Point>
			<altitudeMode>clampToSeaFloor</altitudeMode>
			<gx:altitudeMode>clampToSeaFloor</gx:altitudeMode>
			<coordinates>173.75334312956716,-42.18469267,0.0</coordinates>
		</Point>
	</Placemark>
	<Placemark>
		<name>0.77</name>
		<styleUrl>#linestyle</styleUrl>
		<Style>
 			<LineStyle>
				<color>#ff39ff00</color>
 			</LineStyle>
 		</Style>
		<LineString>
			<tessellate>1</tessellate>
			<altitudeMode>clampToSeaFloor</altitudeMode>
			<gx:altitudeMode>clampToSeaFloor</gx:altitudeMode>
			<coordinates>
173.65421652,-42.341490251424645,0.0 173.70421652,-42.35117844943953,0.0 173.75421652,-42.354598180792415,0.0 173.77477283962384,-42.33469267,0.0 173.80421652,-42.28867611041653,0.0 173.85421652,-42.297984552930615,0.0 173.86356935817474,-42.28469267,0.0 173.85421652,-42.274133955817334,0.0 173.80421652,-42.277403793456045,0.0 173.79379673480184,-42.23469267,0.0 173.75421652,-42.18507013895177,0.0 173.75334312956716,-42.18469267,0.0 173.70421652,-42.154293455831784,0.0 173.65421652,-42.14438095500321,0.0 173.63152570812088,-42.13469267,0.0 173.60421652,-42.124565991393425,0.0 173.57738382281576,-42.13469267,0.0 173.55421652,-42.15715682084309,0.0 173.53989296731004,-42.18469267,0.0 173.53115372354728,-42.23469267,0.0 173.53841659818843,-42.28469267,0.0 173.55421652,-42.3068607699451,0.0 173.60421652,-42.33428924666296,0.0 173.60830827139768,-42.33469267,0.0 173.65421652,-42.341490251424645,0.0 
			</coordinates>
		</LineString>
	</Placemark>
	<Placemark>
		<name>0.7 events</name>
		<styleUrl>#sn_noicon</styleUrl>
		<Point>
			<altitudeMode>clampToSeaFloor</altitudeMode>
			<gx:altitudeMode>clampToSeaFloor</gx:altitudeMode>
			<coordinates>173.70421652,-42.054460739910425,0.0</coordinates>
		</Point>
	</Placemark>
	<Placemark>
		<name>0.7 events</name>
		<styleUrl>#sn_noicon</styleUrl>
		<Point>
			<altitudeMode>clampToSeaFloor</altitudeMode>
			<gx:altitudeMode>clampToSeaFloor</gx:altitudeMode>
			<coordinates>173.7226931713877,-41.98469267,0.0</coordinates>
		</Point>
	</Placemark>
	<Placemark>
		<name>0.77</name>
		<styleUrl>#linestyle</styleUrl>
		<Style>
 			<LineStyle>
				<color>#ff39ff00</color>
 			</LineStyle>
 		</Style>
		<LineString>
			<tessellate>1</tessellate>
			<altitudeMode>clampToSeaFloor</altitudeMode>
			<gx:altitudeMode>clampToSeaFloor</gx:altitudeMode>
			<coordinates>
173.70421652,-42.054460739910425,0.0 173.75421652,-42.04832890788539,0.0 173.768342571796,-42.03469267,0.0 173.75421652,-42.01611100804637,0.0 173.7226931713877,-41.98469267,0.0 173.70421652,-41.97717975645278,0.0 173.69602915830808,-41.98469267,0.0 173.6893966705361,-42.03469267,0.0 173.70421652,-42.054460739910425,0.0 
			</coordinates>
		</LineString>
	</Placemark>
	<Placemark>
		<name>0.7 events</name>
		<styleUrl>#sn_noicon</styleUrl>
		<Point>
			<altitudeMode>clampToSeaFloor</altitudeMode>
			<gx:altitudeMode>clampToSeaFloor</gx:altitudeMode>
			<coordinates>174.30421652,-41.82148027693166,0.0</coordinates>
		</Point>
	</Placemark>
	<Placemark>
		<name>0.7 events</name>
		<styleUrl>#sn_noicon</styleUrl>
		<Point>
			<altitudeMode>clampToSeaFloor</altitudeMode>
			<gx:altitudeMode>clampToSeaFloor</gx:altitudeMode>
			<coordinates>174.30421652,-41.65279781770786,0.0</coordinates>
		</Point>
	</Placemark>
	<Placemark>
		<name>0.77</name>
		<styleUrl>#linestyle</styleUrl>
		<Style>
 			<LineStyle>
				<color>#ff39ff00</color>
 			</LineStyle>
 		</Style>
		<LineString>
			<tessellate>1</tessellate>
			<altitudeMode>clampToSeaFloor</altitudeMode>
			<gx:altitudeMode>clampToSeaFloor</gx:altitudeMode>
			<coordinates>
174.20421652,-41.85935845110059,0.0 174.25421652,-41.853451559948475,0.0 174.28366048416999,-41.83469267,0.0 174.30421652,-41.82148027693166,0.0 174.34048308598352,-41.78469267,0.0 174.35421652,-41.75161364534191,0.0 174.36450290568533,-41.73469267,0.0 174.3620527886116,-41.68469267,0.0 174.35421652,-41.67759776672707,0.0 174.30421652,-41.65279781770786,0.0 174.25421652,-41.64535737662459,0.0 174.20421652,-41.659809721946075,0.0 174.16517048808987,-41.68469267,0.0 174.15421652,-41.71212321453155,0.0 174.14555711774642,-41.73469267,0.0 174.14549231517142,-41.78469267,0.0 174.15421652,-41.805869784774856,0.0 174.16708253779407,-41.83469267,0.0 174.20421652,-41.85935845110059,0.0 
			</coordinates>
		</LineString>
	</Placemark>
	<Placemark>
		<name>0.9 events</name>
		<styleUrl>#sn_noicon</styleUrl>
		<Point>
			<altitudeMode>clampToSeaFloor</altitudeMode>
			<gx:altitudeMode>clampToSeaFloor</gx:altitudeMode>
			<coordinates>173.10421652,-42.575264415490615,0.0</coordinates>
		</Point>
	</Placemark>
	<Placemark>
		<name>0.9 events</name>
		<styleUrl>#sn_noicon</styleUrl>
		<Point>
			<altitudeMode>clampToSeaFloor</altitudeMode>
			<gx:altitudeMode>clampToSeaFloor</gx:altitudeMode>
			<coordinates>173.19315804802002,-42.53469267,0.0</coordinates>
		</Point>
	</Placemark>
	<Placemark>
		<name>0.96</name>
		<styleUrl>#linestyle</styleUrl>
		<Style>
 			<LineStyle>
				<color>#ff00ff39</color>
 			</LineStyle>
 		</Style>
		<LineString>
			<tessellate>1</tessellate>
			<altitudeMode>clampToSeaFloor</altitudeMode>
			<gx:altitudeMode>clampToSeaFloor</gx:altitudeMode>
			<coordinates>
173.10421652,-42.575264415490615,0.0 173.15421652,-42.56513475259907,0.0 173.19315804802002,-42.53469267,0.0 173.18720275119884,-42.48469267,0.0 173.15421652,-42.44778531891599,0.0 173.10421652,-42.46789085000427,0.0 173.09061028999312,-42.48469267,0.0 173.06855373447226,-42.53469267,0.0 173.10421652,-42.575264415490615,0.0 
			</coordinates>
		</LineString>
	</Placemark>
	<Placemark>
		<name>0.9 events</name>
		<styleUrl>#sn_noicon</styleUrl>
		<Point>
			<altitudeMode>clampToSeaFloor</altitudeMode>
			<gx:altitudeMode>clampToSeaFloor</gx:altitudeMode>
			<coordinates>173.70421652,-42.31541256911615,0.0</coordinates>
		</Point>
	</Placemark>
	<Placemark>
		<name>0.9 events</name>
		<styleUrl>#sn_noicon</styleUrl>
		<Point>
			<altitudeMode>clampToSeaFloor</altitudeMode>
			<gx:altitudeMode>clampToSeaFloor</gx:altitudeMode>
			<coordinates>173.70421652,-42.19131210112684,0.0</coordinates>
		</Point>
	</Placemark>
	<Placemark>
		<name>0.96</name>
		<styleUrl>#linestyle</styleUrl>
		<Style>
 			<LineStyle>
				<color>#ff00ff39</color>
 			</LineStyle>
 		</Style>
		<LineString>
			<tessellate>1</tessellate>
			<altitudeMode>clampToSeaFloor</altitudeMode>
			<gx:altitudeMode>clampToSeaFloor</gx:altitudeMode>
			<coordinates>
173.60421652,-42.30823141567781,0.0 173.65421652,-42.32405091481905,0.0 173.70421652,-42.31541256911615,0.0 173.73683020570752,-42.28469267,0.0 173.75421652,-42.26298250134623,0.0 173.76819317232653,-42.23469267,0.0 173.75421652,-42.2171698529184,0.0 173.70421652,-42.19131210112684,0.0 173.68093733990025,-42.18469267,0.0 173.65421652,-42.17341107465875,0.0 173.60421652,-42.15578122633436,0.0 173.5748196192061,-42.18469267,0.0 173.5649483658152,-42.23469267,0.0 173.5768364454395,-42.28469267,0.0 173.60421652,-42.30823141567781,0.0 
			</coordinates>
		</LineString>
	</Placemark>
	<Placemark>
		<name>0.9 events</name>
		<styleUrl>#sn_noicon</styleUrl>
		<Point>
			<altitudeMode>clampToSeaFloor</altitudeMode>
			<gx:altitudeMode>clampToSeaFloor</gx:altitudeMode>
			<coordinates>174.30421652,-41.79660000435824,0.0</coordinates>
		</Point>
	</Placemark>
	<Placemark>
		<name>0.9 events</name>
		<styleUrl>#sn_noicon</styleUrl>
		<Point>
			<altitudeMode>clampToSeaFloor</altitudeMode>
			<gx:altitudeMode>clampToSeaFloor</gx:altitudeMode>
			<coordinates>174.30421652,-41.66839015402026,0.0</coordinates>
		</Point>
	</Placemark>
	<Placemark>
		<name>0.96</name>
		<styleUrl>#linestyle</styleUrl>
		<Style>
 			<LineStyle>
				<color>#ff00ff39</color>
 			</LineStyle>
 		</Style>
		<LineString>
			<tessellate>1</tessellate>
			<altitudeMode>clampToSeaFloor</altitudeMode>
			<gx:altitudeMode>clampToSeaFloor</gx:altitudeMode>
			<coordinates>
174.20421652,-41.83415703814161,0.0 174.25421652,-41.831869716988244,0.0 174.30421652,-41.79660000435824,0.0 174.3159552049325,-41.78469267,0.0 174.34310261187002,-41.73469267,0.0 174.332798939027,-41.68469267,0.0 174.30421652,-41.66839015402026,0.0 174.25421652,-41.655344408589066,0.0 174.20421652,-41.67792811415164,0.0 174.1936016578486,-41.68469267,0.0 174.1809774453018,-41.73469267,0.0 174.16756861417466,-41.78469267,0.0 174.20421652,-41.83415703814161,0.0 
			</coordinates>
		</LineString>
	</Placemark>
	<Placemark>
		<name>1.1 events</name>
		<styleUrl>#sn_noicon</styleUrl>
		<Point>
			<altitudeMode>clampToSeaFloor</altitudeMode>
			<gx:altitudeMode>clampToSeaFloor</gx:altitudeMode>
			<coordinates>173.10421652,-42.553957749917615,0.0</coordinates>
		</Point>
	</Placemark>
	<Placemark>
		<name>1.16</name>
		<styleUrl>#linestyle</styleUrl>
		<Style>
 			<LineStyle>
				<color>#ff00ffaa</color>
 			</LineStyle>
 		</Style>
		<LineString>
			<tessellate>1</tessellate>
			<altitudeMode>clampToSeaFloor</altitudeMode>
			<gx:altitudeMode>clampToSeaFloor</gx:altitudeMode>
			<coordinates>
173.10421652,-42.553957749917615,0.0 173.15421652,-42.541489392264765,0.0 173.1629108906843,-42.53469267,0.0 173.15421652,-42.51444802009447,0.0 173.10421652,-42.50267468284276,0.0 173.08728240969816,-42.53469267,0.0 173.10421652,-42.553957749917615,0.0 
			</coordinates>
		</LineString>
	</Placemark>
	<Placemark>
		<name>1.1 events</name>
		<styleUrl>#sn_noicon</styleUrl>
		<Point>
			<altitudeMode>clampToSeaFloor</altitudeMode>
			<gx:altitudeMode>clampToSeaFloor</gx:altitudeMode>
			<coordinates>173.7406438320832,-42.23469267,0.0</coordinates>
		</Point>
	</Placemark>
	<Placemark>
		<name>1.1 events</name>
		<styleUrl>#sn_noicon</styleUrl>
		<Point>
			<altitudeMode>clampToSeaFloor</altitudeMode>
			<gx:altitudeMode>clampToSeaFloor</gx:altitudeMode>
			<coordinates>173.59273235332006,-42.23469267,0.0</coordinates>
		</Point>
	</Placemark>
	<Placemark>
		<name>1.16</name>
		<styleUrl>#linestyle</styleUrl>
		<Style>
 			<LineStyle>
				<color>#ff00ffaa</color>
 			</LineStyle>
 		</Style>
		<LineString>
			<tessellate>1</tessellate>
			<altitudeMode>clampToSeaFloor</altitudeMode>
			<gx:altitudeMode>clampToSeaFloor</gx:altitudeMode>
			<coordinates>
173.65421652,-42.31117208393899,0.0 173.6994995358353,-42.28469267,0.0 173.70421652,-42.27721958824101,0.0 173.7406438320832,-42.23469267,0.0 173.70421652,-42.21086364583411,0.0 173.65421652,-42.19904387245016,0.0 173.60421652,-42.19984354347633,0.0 173.59273235332006,-42.23469267,0.0 173.60421652,-42.275215132192656,0.0 173.6064618912454,-42.28469267,0.0 173.65421652,-42.31117208393899,0.0 
			</coordinates>
		</LineString>
	</Placemark>
	<Placemark>
		<name>1.1 events</name>
		<styleUrl>#sn_noicon</styleUrl>
		<Point>
			<altitudeMode>clampToSeaFloor</altitudeMode>
			<gx:altitudeMode>clampToSeaFloor</gx:altitudeMode>
			<coordinates>174.30421652,-41.77177462009467,0.0</coordinates>
		</Point>
	</Placemark>
	<Placemark>
		<name>1.1 events</name>
		<styleUrl>#sn_noicon</styleUrl>
		<Point>
			<altitudeMode>clampToSeaFloor</altitudeMode>
			<gx:altitudeMode>clampToSeaFloor</gx:altitudeMode>
			<coordinates>174.25421652,-41.665331440553544,0.0</coordinates>
		</Point>
	</Placemark>
	<Placemark>
		<name>1.16</name>
		<styleUrl>#linestyle</styleUrl>
		<Style>
 			<LineStyle>
				<color>#ff00ffaa</color>
 			</LineStyle>
 		</Style>
		<LineString>
			<tessellate>1</tessellate>
			<altitudeMode>clampToSeaFloor</altitudeMode>
			<gx:altitudeMode>clampToSeaFloor</gx:altitudeMode>
			<coordinates>
174.20421652,-41.81016398095433,0.0 174.25421652,-41.82007560840845,0.0 174.2968131466907,-41.78469267,0.0 174.30421652,-41.77177462009467,0.0 174.32752791848972,-41.73469267,0.0 174.30546164393436,-41.68469267,0.0 174.30421652,-41.68398249033266,0.0 174.25421652,-41.665331440553544,0.0 174.21643050908946,-41.68469267,0.0 174.2123793907534,-41.73469267,0.0 174.20421652,-41.74854654440186,0.0 174.18534495163325,-41.78469267,0.0 174.20421652,-41.81016398095433,0.0 
			</coordinates>
		</LineString>
	</Placemark>
	<Placemark>
		<name>1.3 events</name>
		<styleUrl>#sn_noicon</styleUrl>
		<Point>
			<altitudeMode>clampToSeaFloor</altitudeMode>
			<gx:altitudeMode>clampToSeaFloor</gx:altitudeMode>
			<coordinates>173.65421652,-42.29829325305893,0.0</coordinates>
		</Point>
	</Placemark>
	<Placemark>
		<name>1.3 events</name>
		<styleUrl>#sn_noicon</styleUrl>
		<Point>
			<altitudeMode>clampToSeaFloor</altitudeMode>
			<gx:altitudeMode>clampToSeaFloor</gx:altitudeMode>
			<coordinates>173.70421652,-42.230415190541386,0.0</coordinates>
		</Point>
	</Placemark>
	<Placemark>
		<name>1.35</name>
		<styleUrl>#linestyle</styleUrl>
		<Style>
 			<LineStyle>
				<color>#ff00e3ff</color>
 			</LineStyle>
 		</Style>
		<LineString>
			<tessellate>1</tessellate>
			<altitudeMode>clampToSeaFloor</altitudeMode>
			<gx:altitudeMode>clampToSeaFloor</gx:altitudeMode>
			<coordinates>
173.65421652,-42.29829325305893,0.0 173.67747516988726,-42.28469267,0.0 173.70421652,-42.2423265545413,0.0 173.71075548181747,-42.23469267,0.0 173.70421652,-42.230415190541386,0.0 173.65421652,-42.22251721124452,0.0 173.63075379253732,-42.23469267,0.0 173.62968837914607,-42.28469267,0.0 173.65421652,-42.29829325305893,0.0 
			</coordinates>
		</LineString>
	</Placemark>
	<Placemark>
		<name>1.3 events</name>
		<styleUrl>#sn_noicon</styleUrl>
		<Point>
			<altitudeMode>clampToSeaFloor</altitudeMode>
			<gx:altitudeMode>clampToSeaFloor</gx:altitudeMode>
			<coordinates>174.30421652,-41.74699961558677,0.0</coordinates>
		</Point>
	</Placemark>
	<Placemark>
		<name>1.3 events</name>
		<styleUrl>#sn_noicon</styleUrl>
		<Point>
			<altitudeMode>clampToSeaFloor</altitudeMode>
			<gx:altitudeMode>clampToSeaFloor</gx:altitudeMode>
			<coordinates>174.25421652,-41.67531847251803,0.0</coordinates>
		</Point>
	</Placemark>
	<Placemark>
		<name>1.35</name>
		<styleUrl>#linestyle</styleUrl>
		<Style>
 			<LineStyle>
				<color>#ff00e3ff</color>
 			</LineStyle>
 		</Style>
		<LineString>
			<tessellate>1</tessellate>
			<altitudeMode>clampToSeaFloor</altitudeMode>
			<gx:altitudeMode>clampToSeaFloor</gx:altitudeMode>
			<coordinates>
174.20421652,-41.786170923767045,0.0 174.25421652,-41.80828149982867,0.0 174.2826145169861,-41.78469267,0.0 174.30421652,-41.74699961558677,0.0 174.31195322510942,-41.73469267,0.0 174.30421652,-41.71757759734739,0.0 174.27900765105002,-41.68469267,0.0 174.25421652,-41.67531847251803,0.0 174.23592152849076,-41.68469267,0.0 174.23244109015738,-41.73469267,0.0 174.20421652,-41.782594892369886,0.0 174.20312128909185,-41.78469267,0.0 174.20421652,-41.786170923767045,0.0 
			</coordinates>
		</LineString>
	</Placemark>
	<Placemark>
		<name>1.5 events</name>
		<styleUrl>#sn_noicon</styleUrl>
		<Point>
			<altitudeMode>clampToSeaFloor</altitudeMode>
			<gx:altitudeMode>clampToSeaFloor</gx:altitudeMode>
			<coordinates>173.65421652,-42.28541442217887,0.0</coordinates>
		</Point>
	</Placemark>
	<Placemark>
		<name>1.54</name>
		<styleUrl>#linestyle</styleUrl>
		<Style>
 			<LineStyle>
				<color>#ff0071ff</color>
 			</LineStyle>
 		</Style>
		<LineString>
			<tessellate>1</tessellate>
			<altitudeMode>clampToSeaFloor</altitudeMode>
			<gx:altitudeMode>clampToSeaFloor</gx:altitudeMode>
			<coordinates>
173.65421652,-42.28541442217887,0.0 173.65545080393923,-42.28469267,0.0 173.65421652,-42.279478015918976,0.0 173.65291486704672,-42.28469267,0.0 173.65421652,-42.28541442217887,0.0 
			</coordinates>
		</LineString>
	</Placemark>
	<Placemark>
		<name>1.54</name>
		<styleUrl>#linestyle</styleUrl>
		<Style>
 			<LineStyle>
				<color>#ff0071ff</color>
 			</LineStyle>
 		</Style>
		<LineString>
			<tessellate>1</tessellate>
			<altitudeMode>clampToSeaFloor</altitudeMode>
			<gx:altitudeMode>clampToSeaFloor</gx:altitudeMode>
			<coordinates>
174.25421652,-41.796487391248874,0.0 174.26841588728146,-41.78469267,0.0 174.26147205688818,-41.73469267,0.0 174.25421652,-41.70559487330003,0.0 174.25250278956136,-41.73469267,0.0 174.2284212455733,-41.78469267,0.0 174.25421652,-41.796487391248874,0.0 
			</coordinates>
		</LineString>
	</Placemark>
	<Placemark>
		<name>1.7 events</name>
		<styleUrl>#sn_noicon</styleUrl>
		<Point>
			<altitudeMode>clampToSeaFloor</altitudeMode>
			<gx:altitudeMode>clampToSeaFloor</gx:altitudeMode>
			<coordinates>174.25421652,-41.78469328266908,0.0</coordinates>
		</Point>
	</Placemark>
	<Placemark>
		<name>1.73</name>
		<styleUrl>#linestyle</styleUrl>
		<Style>
 			<LineStyle>
				<color>#ff000000</color>
 			</LineStyle>
 		</Style>
		<LineString>
			<tessellate>1</tessellate>
			<altitudeMode>clampToSeaFloor</altitudeMode>
			<gx:altitudeMode>clampToSeaFloor</gx:altitudeMode>
			<coordinates>
174.25421652,-41.78469328266908,0.0 174.25421725757684,-41.78469267,0.0 
			</coordinates>
		</LineString>
	</Placemark>
</Document>
</kml>
