<?xml version="1.0" encoding="UTF-8"?>
<kml xmlns="http://www.opengis.net/kml/2.2"
 xmlns:gx="http://www.google.com/kml/ext/2.2"
 xmlns:kml="http://www.opengis.net/kml/2.2"
 xmlns:atom="http://www.w3.org/2005/Atom">
<Document>
	<name>2016p858000.kml</name>
	<Style id="sn_noicon">
		<IconStyle>
			<Icon>
			</Icon>
		</IconStyle>
		<LabelStyle>
			<scale>0.8</scale>
		</LabelStyle>
	</Style>
	<Style id="linestyle">
			<LineStyle>
				<width>2</width>
			</LineStyle>
	</Style>
	<Placemark>
		<name>0.0 events</name>
		<styleUrl>#sn_noicon</styleUrl>
		<Point>
			<altitudeMode>clampToSeaFloor</altitudeMode>
			<gx:altitudeMode>clampToSeaFloor</gx:altitudeMode>
			<coordinates>172.51163574,-43.11429748143862,0.0</coordinates>
		</Point>
	</Placemark>
	<Placemark>
		<name>0.0 events</name>
		<styleUrl>#sn_noicon</styleUrl>
		<Point>
			<altitudeMode>clampToSeaFloor</altitudeMode>
			<gx:altitudeMode>clampToSeaFloor</gx:altitudeMode>
			<coordinates>174.06163574,-42.24264814052428,0.0</coordinates>
		</Point>
	</Placemark>
	<Placemark>
		<name>0.0 events</name>
		<styleUrl>#sn_noicon</styleUrl>
		<Point>
			<altitudeMode>clampToSeaFloor</altitudeMode>
			<gx:altitudeMode>clampToSeaFloor</gx:altitudeMode>
			<coordinates>173.74761791049798,-41.7043996,0.0</coordinates>
		</Point>
	</Placemark>
	<Placemark>
		<name>0.04</name>
		<styleUrl>#linestyle</styleUrl>
		<Style>
 			<LineStyle>
				<color>#ffff7100</color>
 			</LineStyle>
 		</Style>
		<LineString>
			<tessellate>1</tessellate>
			<altitudeMode>clampToSeaFloor</altitudeMode>
			<gx:altitudeMode>clampToSeaFloor</gx:altitudeMode>
			<coordinates>
172.51163574,-43.11429748143862,0.0 172.56163574,-43.134823707161395,0.0 172.61163574,-43.143887055640384,0.0 172.66163574,-43.14581424055202,0.0 172.71163574,-43.14225438783694,0.0 172.76163574,-43.13334069445037,0.0 172.81163574,-43.11852431166638,0.0 172.8465836925669,-43.1043996,0.0 172.86163574,-43.099096667505,0.0 172.91163574,-43.077789926215345,0.0 172.95436888453796,-43.0543996,0.0 172.96163574,-43.0506754934091,0.0 173.01163574,-43.02306672331465,0.0 173.04091620752573,-43.0043996,0.0 173.06163574,-42.991802264413366,0.0 173.11163574,-42.9580058784194,0.0 173.1168470917655,-42.9543996,0.0 173.16163574,-42.924766120819214,0.0 173.18966636358172,-42.9043996,0.0 173.21163574,-42.88915508320464,0.0 173.25790851412384,-42.8543996,0.0 173.26163574,-42.85173166653244,0.0 173.31163574,-42.815436430591014,0.0 173.32608705485913,-42.8043996,0.0 173.36163574,-42.77854447656905,0.0 173.3928556468082,-42.7543996,0.0 173.41163574,-42.74060194869194,0.0 173.45834389039481,-42.7043996,0.0 173.46163574,-42.70199129928753,0.0 173.51163574,-42.66584015297447,0.0 173.52711968204085,-42.6543996,0.0 173.56163574,-42.63115761970757,0.0 173.60118654598847,-42.6043996,0.0 173.61163574,-42.5984030811229,0.0 173.66163574,-42.574302787030696,0.0 173.71163574,-42.55526020684253,0.0 173.7141343025173,-42.5543996,0.0 173.76163574,-42.547580290775734,0.0 173.81163574,-42.53655247575715,0.0 173.86163574,-42.507869914912185,0.0 173.8662078923807,-42.5043996,0.0 173.91163574,-42.458855704579,0.0 173.91572779968345,-42.4543996,0.0 173.94255795982392,-42.4043996,0.0 173.96163574,-42.36494812511572,0.0 173.96976431801463,-42.3543996,0.0 174.01163574,-42.33210063504454,0.0 174.03856588303776,-42.3043996,0.0 174.0552823133865,-42.2543996,0.0 174.06163574,-42.24264814052428,0.0 174.09373155021532,-42.2043996,0.0 174.11163574,-42.18664007550457,0.0 174.14500974419784,-42.1543996,0.0 174.16163574,-42.13938260813618,0.0 174.1996837438917,-42.1043996,0.0 174.21163574,-42.094043233538926,0.0 174.2558403262754,-42.0543996,0.0 174.26163574,-42.049547732123045,0.0 174.31163574,-42.005828724185214,0.0 174.31322523210682,-42.0043996,0.0 174.36163574,-41.96393656547512,0.0 174.37215729988108,-41.9543996,0.0 174.41163574,-41.92108316700765,0.0 174.42952289994386,-41.9043996,0.0 174.46163574,-41.87760746918066,0.0 174.485010010147,-41.8543996,0.0 174.51163574,-41.82538957655438,0.0 174.52932047089143,-41.8043996,0.0 174.55936339577664,-41.7543996,0.0 174.56163574,-41.750179931189145,0.0 174.58984960102256,-41.7043996,0.0 174.61142974227442,-41.6543996,0.0 174.61163574,-41.65365418398087,0.0 174.62753078192935,-41.6043996,0.0 174.63051033391807,-41.5543996,0.0 174.6169409614962,-41.5043996,0.0 174.61163574,-41.496211418338895,0.0 174.58330499506215,-41.4543996,0.0 174.56163574,-41.43584252389533,0.0 174.51163574,-41.408184373847774,0.0 174.49861108252415,-41.4043996,0.0 174.46163574,-41.39191281489951,0.0 174.41163574,-41.385126639109096,0.0 174.36163574,-41.386069624059274,0.0 174.31163574,-41.39360958274534,0.0 174.27220749295512,-41.4043996,0.0 174.26163574,-41.40668401140485,0.0 174.21163574,-41.42155347216061,0.0 174.16163574,-41.44274976720681,0.0 174.1385560433086,-41.4543996,0.0 174.11163574,-41.46680787370954,0.0 174.06163574,-41.49440304982516,0.0 174.0451774721017,-41.5043996,0.0 174.01163574,-41.523642667263935,0.0 173.96553287829332,-41.5543996,0.0 173.96163574,-41.556882401248004,0.0 173.91163574,-41.58944123288688,0.0 173.89047268834375,-41.6043996,0.0 173.86163574,-41.623791226225215,0.0 173.81951917026285,-41.6543996,0.0 173.81163574,-41.65978023335037,0.0 173.76163574,-41.69436814589638,0.0 173.74761791049798,-41.7043996,0.0 173.71163574,-41.727609010057215,0.0 173.67322190578798,-41.7543996,0.0 173.66163574,-41.76125774953314,0.0 173.61163574,-41.7931650532953,0.0 173.59577824199678,-41.8043996,0.0 173.56163574,-41.82575821203527,0.0 173.52409489687255,-41.8543996,0.0 173.51163574,-41.863869918706115,0.0 173.4634472845875,-41.9043996,0.0 173.46163574,-41.90601097356639,0.0 173.41163574,-41.94884421581599,0.0 173.405185846531,-41.9543996,0.0 173.36163574,-41.99121417253116,0.0 173.3464366190537,-42.0043996,0.0 173.31163574,-42.033879825175454,0.0 173.28824008787566,-42.0543996,0.0 173.26163574,-42.077413166613816,0.0 173.23118729429083,-42.1043996,0.0 173.21163574,-42.12140640262024,0.0 173.174348110703,-42.1543996,0.0 173.16163574,-42.16525836110667,0.0 173.11681687610732,-42.2043996,0.0 173.11163574,-42.20869768917838,0.0 173.06163574,-42.25092535520277,0.0 173.05758025505617,-42.2543996,0.0 173.01163574,-42.29143754249474,0.0 172.99636527584778,-42.3043996,0.0 172.96163574,-42.332083270865716,0.0 172.93533171135118,-42.3543996,0.0 172.91163574,-42.37339166276417,0.0 172.8753210310553,-42.4043996,0.0 172.86163574,-42.415419413590776,0.0 172.8160734120531,-42.4543996,0.0 172.81163574,-42.45776886178145,0.0 172.76163574,-42.49936036583192,0.0 172.75602934661245,-42.5043996,0.0 172.71163574,-42.544595318740434,0.0 172.7013581749603,-42.5543996,0.0 172.66163574,-42.59383042175392,0.0 172.65099205795823,-42.6043996,0.0 172.61163574,-42.64389705565746,0.0 172.60142857644092,-42.6543996,0.0 172.56163574,-42.6963511142859,0.0 172.55427287192373,-42.7043996,0.0 172.51163574,-42.754360718556484,0.0 172.51160359692648,-42.7543996,0.0 172.4729096596414,-42.8043996,0.0 172.46163574,-42.823133544315276,0.0 172.4424602688499,-42.8543996,0.0 172.4221596286528,-42.9043996,0.0 172.41387617688122,-42.9543996,0.0 172.41791794240405,-43.0043996,0.0 172.44036068854038,-43.0543996,0.0 172.46163574,-43.07719414947605,0.0 172.4958755912568,-43.1043996,0.0 172.51163574,-43.11429748143862,0.0 
			</coordinates>
		</LineString>
	</Placemark>
	<Placemark>
		<name>0.0 events</name>
		<styleUrl>#sn_noicon</styleUrl>
		<Point>
			<altitudeMode>clampToSeaFloor</altitudeMode>
			<gx:altitudeMode>clampToSeaFloor</gx:altitudeMode>
			<coordinates>172.61163574,-43.05781072381363,0.0</coordinates>
		</Point>
	</Placemark>
	<Placemark>
		<name>0.0 events</name>
		<styleUrl>#sn_noicon</styleUrl>
		<Point>
			<altitudeMode>clampToSeaFloor</altitudeMode>
			<gx:altitudeMode>clampToSeaFloor</gx:altitudeMode>
			<coordinates>173.56163574,-42.48267993011664,0.0</coordinates>
		</Point>
	</Placemark>
	<Placemark>
		<name>0.0 events</name>
		<styleUrl>#sn_noicon</styleUrl>
		<Point>
			<altitudeMode>clampToSeaFloor</altitudeMode>
			<gx:altitudeMode>clampToSeaFloor</gx:altitudeMode>
			<coordinates>174.16163574,-41.55417935087844,0.0</coordinates>
		</Point>
	</Placemark>
	<Placemark>
		<name>0.07</name>
		<styleUrl>#linestyle</styleUrl>
		<Style>
 			<LineStyle>
				<color>#ffffe300</color>
 			</LineStyle>
 		</Style>
		<LineString>
			<tessellate>1</tessellate>
			<altitudeMode>clampToSeaFloor</altitudeMode>
			<gx:altitudeMode>clampToSeaFloor</gx:altitudeMode>
			<coordinates>
172.61163574,-43.05781072381363,0.0 172.66163574,-43.06183979352552,0.0 172.7096586544769,-43.0543996,0.0 172.71163574,-43.05412135102111,0.0 172.76163574,-43.03978793027344,0.0 172.81163574,-43.01839645427819,0.0 172.83755595327446,-43.0043996,0.0 172.86163574,-42.99162221781234,0.0 172.91163574,-42.96092913494054,0.0 172.92149376485122,-42.9543996,0.0 172.96163574,-42.928473361177346,0.0 172.99530437771983,-42.9043996,0.0 173.01163574,-42.89304711436209,0.0 173.06163574,-42.85593301771003,0.0 173.06367230419625,-42.8543996,0.0 173.11163574,-42.81979997692202,0.0 173.13160403461586,-42.8043996,0.0 173.16163574,-42.78229769910678,0.0 173.19727533889562,-42.7543996,0.0 173.21163574,-42.74369403364876,0.0 173.2612305837124,-42.7043996,0.0 173.26163574,-42.70409157638792,0.0 173.31163574,-42.66601498830647,0.0 173.32612849872513,-42.6543996,0.0 173.36163574,-42.62708063006603,0.0 173.3900226478398,-42.6043996,0.0 173.41163574,-42.587951785839465,0.0 173.45460445681118,-42.5543996,0.0 173.46163574,-42.549242230424156,0.0 173.51163574,-42.513707933481804,0.0 173.52541207431537,-42.5043996,0.0 173.56163574,-42.48267993011664,0.0 173.61163574,-42.458594599084584,0.0 173.66163574,-42.45471041220918,0.0 173.71163574,-42.4768276321753,0.0 173.76163574,-42.49086890118554,0.0 173.81163574,-42.48108212392512,0.0 173.84422864869754,-42.4543996,0.0 173.85423649096435,-42.4043996,0.0 173.8324122680488,-42.3543996,0.0 173.84554520217426,-42.3043996,0.0 173.86163574,-42.276387310840306,0.0 173.8788155091154,-42.2543996,0.0 173.91163574,-42.210957677347885,0.0 173.91691125340745,-42.2043996,0.0 173.96163574,-42.15513632233466,0.0 173.9623358925684,-42.1543996,0.0 174.01163574,-42.10689993232787,0.0 174.0142887132109,-42.1043996,0.0 174.06163574,-42.062792578930214,0.0 174.07100780159894,-42.0543996,0.0 174.11163574,-42.020074485615304,0.0 174.12965427164264,-42.0043996,0.0 174.16163574,-41.97839452098696,0.0 174.19067848724248,-41.9543996,0.0 174.21163574,-41.94003185712779,0.0 174.2603321333005,-41.9043996,0.0 174.26163574,-41.903831991948984,0.0 174.31163574,-41.873862570642345,0.0 174.3355639253147,-41.8543996,0.0 174.36163574,-41.83418575487465,0.0 174.41163574,-41.82531959096598,0.0 174.4377129659433,-41.8043996,0.0 174.44696351058022,-41.7543996,0.0 174.4601385432308,-41.7043996,0.0 174.46163574,-41.70173410862444,0.0 174.49083089177304,-41.6543996,0.0 174.51163574,-41.60445008541954,0.0 174.51165825011324,-41.6043996,0.0 174.51788136899495,-41.5543996,0.0 174.51163574,-41.53955561548216,0.0 174.49265867765953,-41.5043996,0.0 174.46163574,-41.48341263946407,0.0 174.41163574,-41.47054473984676,0.0 174.36163574,-41.47181931849015,0.0 174.31163574,-41.4825966684352,0.0 174.26163574,-41.501949120395004,0.0 174.2565413120426,-41.5043996,0.0 174.21163574,-41.52480343567188,0.0 174.16163574,-41.55417935087844,0.0 174.16128352622215,-41.5543996,0.0 174.11163574,-41.58411919535872,0.0 174.08236144897555,-41.6043996,0.0 174.06163574,-41.61835307327156,0.0 174.01314442935754,-41.6543996,0.0 174.01163574,-41.65551306557015,0.0 173.96163574,-41.69198180173476,0.0 173.94539687393188,-41.7043996,0.0 173.91163574,-41.72907883094848,0.0 173.87826854675635,-41.7543996,0.0 173.86163574,-41.76611086132478,0.0 173.81163574,-41.80170217213624,0.0 173.80770579843843,-41.8043996,0.0 173.76163574,-41.829561086732625,0.0 173.71525800880957,-41.8543996,0.0 173.71163574,-41.8554105427413,0.0 173.66163574,-41.872312548282565,0.0 173.61485984245905,-41.9043996,0.0 173.61163574,-41.90679734558347,0.0 173.5635392039161,-41.9543996,0.0 173.56163574,-41.95777333089839,0.0 173.5207024179734,-42.0043996,0.0 173.51163574,-42.01374038409069,0.0 173.4670626716009,-42.0543996,0.0 173.46163574,-42.05850771182113,0.0 173.41163574,-42.101258371227765,0.0 173.40814102326408,-42.1043996,0.0 173.36163574,-42.14909173249391,0.0 173.35596984421866,-42.1543996,0.0 173.31163574,-42.197138176885225,0.0 173.30375777476198,-42.2043996,0.0 173.26163574,-42.242013658117486,0.0 173.24765745919632,-42.2543996,0.0 173.21163574,-42.28453454404529,0.0 173.18827092806862,-42.3043996,0.0 173.16163574,-42.32506250135875,0.0 173.12522062626485,-42.3543996,0.0 173.11163574,-42.363153798156794,0.0 173.06163574,-42.40192762265473,0.0 173.0586056253201,-42.4043996,0.0 173.01163574,-42.44007362534355,0.0 172.9945009726355,-42.4543996,0.0 172.96163574,-42.48086319342446,0.0 172.93344985799516,-42.5043996,0.0 172.91163574,-42.52030196577239,0.0 172.86163574,-42.54602152729277,0.0 172.8412170330248,-42.5543996,0.0 172.81163574,-42.57989898089935,0.0 172.79839395514165,-42.6043996,0.0 172.7632052865339,-42.6543996,0.0 172.76163574,-42.65651462539929,0.0 172.71541853636347,-42.7043996,0.0 172.71163574,-42.70818655921094,0.0 172.6648193462049,-42.7543996,0.0 172.66163574,-42.75758192277136,0.0 172.61662648288248,-42.8043996,0.0 172.61163574,-42.8101084071211,0.0 172.57464947760823,-42.8543996,0.0 172.56163574,-42.87485060100261,0.0 172.54319145068848,-42.9043996,0.0 172.52755447904977,-42.9543996,0.0 172.53530576605542,-43.0043996,0.0 172.56163574,-43.03319623153812,0.0 172.60219859458346,-43.0543996,0.0 172.61163574,-43.05781072381363,0.0 
			</coordinates>
		</LineString>
	</Placemark>
	<Placemark>
		<name>0.1 events</name>
		<styleUrl>#sn_noicon</styleUrl>
		<Point>
			<altitudeMode>clampToSeaFloor</altitudeMode>
			<gx:altitudeMode>clampToSeaFloor</gx:altitudeMode>
			<coordinates>172.66163574,-42.98786612362615,0.0</coordinates>
		</Point>
	</Placemark>
	<Placemark>
		<name>0.1 events</name>
		<styleUrl>#sn_noicon</styleUrl>
		<Point>
			<altitudeMode>clampToSeaFloor</altitudeMode>
			<gx:altitudeMode>clampToSeaFloor</gx:altitudeMode>
			<coordinates>173.76163574,-42.46378024410784,0.0</coordinates>
		</Point>
	</Placemark>
	<Placemark>
		<name>0.1 events</name>
		<styleUrl>#sn_noicon</styleUrl>
		<Point>
			<altitudeMode>clampToSeaFloor</altitudeMode>
			<gx:altitudeMode>clampToSeaFloor</gx:altitudeMode>
			<coordinates>174.11163574,-41.6596284197511,0.0</coordinates>
		</Point>
	</Placemark>
	<Placemark>
		<name>0.11</name>
		<styleUrl>#linestyle</styleUrl>
		<Style>
 			<LineStyle>
				<color>#ffaaff00</color>
 			</LineStyle>
 		</Style>
		<LineString>
			<tessellate>1</tessellate>
			<altitudeMode>clampToSeaFloor</altitudeMode>
			<gx:altitudeMode>clampToSeaFloor</gx:altitudeMode>
			<coordinates>
172.66163574,-42.98786612362615,0.0 172.71163574,-42.98587903140733,0.0 172.76163574,-42.96991452131803,0.0 172.79353070878096,-42.9543996,0.0 172.81163574,-42.94466920748937,0.0 172.86163574,-42.914898291118995,0.0 172.87749171536277,-42.9043996,0.0 172.91163574,-42.88116074916305,0.0 172.94951463713895,-42.8543996,0.0 172.96163574,-42.84566277185437,0.0 173.01163574,-42.8093386541316,0.0 173.01818375005033,-42.8043996,0.0 173.06163574,-42.77227347620754,0.0 173.08505810013787,-42.7543996,0.0 173.11163574,-42.734679672640546,0.0 173.15122062908955,-42.7043996,0.0 173.16163574,-42.69678431047869,0.0 173.21163574,-42.65846831321408,0.0 173.2167477661453,-42.6543996,0.0 173.26163574,-42.6189574906557,0.0 173.2795842634583,-42.6043996,0.0 173.31163574,-42.57811741150519,0.0 173.34104546120972,-42.5543996,0.0 173.36163574,-42.538116128041274,0.0 173.40491402594648,-42.5043996,0.0 173.41163574,-42.49935467155804,0.0 173.46163574,-42.462462467670015,0.0 173.47290624962105,-42.4543996,0.0 173.51163574,-42.42902337962769,0.0 173.55242782412478,-42.4043996,0.0 173.56163574,-42.39978972864588,0.0 173.61163574,-42.38062849923002,0.0 173.66163574,-42.36834097888886,0.0 173.71163574,-42.382217507906034,0.0 173.71779795530753,-42.4043996,0.0 173.74282193436673,-42.4543996,0.0 173.76163574,-42.46378024410784,0.0 173.79172642101796,-42.4543996,0.0 173.81163574,-42.41990735092268,0.0 173.81561436536737,-42.4043996,0.0 173.81163574,-42.39848936886432,0.0 173.76163574,-42.3613881959131,0.0 173.7376541827901,-42.3543996,0.0 173.76163574,-42.34293175783131,0.0 173.7821202932449,-42.3043996,0.0 173.80413431165405,-42.2543996,0.0 173.81163574,-42.23582691993876,0.0 173.83245781541507,-42.2043996,0.0 173.86163574,-42.177543884304676,0.0 173.88286849746788,-42.1543996,0.0 173.91163574,-42.107717452578036,0.0 173.9147726854207,-42.1043996,0.0 173.96163574,-42.05862884212879,0.0 173.96625194201624,-42.0543996,0.0 174.01163574,-42.01772650762717,0.0 174.02700299830366,-42.0043996,0.0 174.06163574,-41.973515081687104,0.0 174.0835014423946,-41.9543996,0.0 174.11163574,-41.92978395945859,0.0 174.14524852094345,-41.9043996,0.0 174.16163574,-41.89557030445388,0.0 174.21163574,-41.87865806795973,0.0 174.25644474043665,-41.8543996,0.0 174.26163574,-41.853217179135704,0.0 174.31163574,-41.81944372830349,0.0 174.32903085941982,-41.8043996,0.0 174.3579930331663,-41.7543996,0.0 174.36163574,-41.74554616971811,0.0 174.38671047051514,-41.7043996,0.0 174.41149249284294,-41.6543996,0.0 174.41163574,-41.65349604952003,0.0 174.427536971139,-41.6043996,0.0 174.41795470761147,-41.5543996,0.0 174.41163574,-41.54954763178762,0.0 174.36163574,-41.53970839172326,0.0 174.31163574,-41.549142611254354,0.0 174.29873089234388,-41.5543996,0.0 174.26163574,-41.56965531647499,0.0 174.21163574,-41.59531551363819,0.0 174.19689718958307,-41.6043996,0.0 174.16163574,-41.62516085361108,0.0 174.11940037409732,-41.6543996,0.0 174.11163574,-41.6596284197511,0.0 174.06163574,-41.69776092884578,0.0 174.0530995986519,-41.7043996,0.0 174.01163574,-41.737998651209836,0.0 173.99068244407928,-41.7543996,0.0 173.96163574,-41.77660570748501,0.0 173.92441073251098,-41.8043996,0.0 173.91163574,-41.81253947511927,0.0 173.86163574,-41.848402780732435,0.0 173.85249817181003,-41.8543996,0.0 173.81163574,-41.87630388181543,0.0 173.76163574,-41.89125347920602,0.0 173.71163574,-41.900836133376075,0.0 173.70378728808643,-41.9043996,0.0 173.66163574,-41.915306663595096,0.0 173.61769227600084,-41.9543996,0.0 173.61163574,-41.97412794132318,0.0 173.59361838552098,-42.0043996,0.0 173.56163574,-42.05389021948372,0.0 173.56113980336437,-42.0543996,0.0 173.51163574,-42.08947204078399,0.0 173.4934064993679,-42.1043996,0.0 173.46163574,-42.11689939450729,0.0 173.42308084410251,-42.1543996,0.0 173.41163574,-42.18948761006015,0.0 173.3985689921968,-42.2043996,0.0 173.36163574,-42.24474910570409,0.0 173.35159457358506,-42.2543996,0.0 173.31163574,-42.2914585399519,0.0 173.29698359651394,-42.3043996,0.0 173.26163574,-42.33392614130232,0.0 173.2367758331241,-42.3543996,0.0 173.21163574,-42.373135326872394,0.0 173.16163574,-42.40396786185555,0.0 173.16102066630424,-42.4043996,0.0 173.11163574,-42.42688537445982,0.0 173.07807591755034,-42.4543996,0.0 173.06163574,-42.468119310181486,0.0 173.0202898600742,-42.5043996,0.0 173.01163574,-42.51284952034045,0.0 172.964342268414,-42.5543996,0.0 172.96163574,-42.55539805942071,0.0 172.91163574,-42.583811831622455,0.0 172.88521659555238,-42.6043996,0.0 172.86163574,-42.618674474041086,0.0 172.8265082333283,-42.6543996,0.0 172.81163574,-42.69847355105004,0.0 172.8072525561966,-42.7043996,0.0 172.76459968416216,-42.7543996,0.0 172.76163574,-42.75741814507544,0.0 172.71393291396194,-42.8043996,0.0 172.71163574,-42.806900265561616,0.0 172.66802056877395,-42.8543996,0.0 172.66163574,-42.86345094987103,0.0 172.63345734746144,-42.9043996,0.0 172.62058581568766,-42.9543996,0.0 172.66163574,-42.98786612362615,0.0 
			</coordinates>
		</LineString>
	</Placemark>
	<Placemark>
		<name>0.1 events</name>
		<styleUrl>#sn_noicon</styleUrl>
		<Point>
			<altitudeMode>clampToSeaFloor</altitudeMode>
			<gx:altitudeMode>clampToSeaFloor</gx:altitudeMode>
			<coordinates>172.86163574,-42.80977389967308,0.0</coordinates>
		</Point>
	</Placemark>
	<Placemark>
		<name>0.15</name>
		<styleUrl>#linestyle</styleUrl>
		<Style>
 			<LineStyle>
				<color>#ff39ff00</color>
 			</LineStyle>
 		</Style>
		<LineString>
			<tessellate>1</tessellate>
			<altitudeMode>clampToSeaFloor</altitudeMode>
			<gx:altitudeMode>clampToSeaFloor</gx:altitudeMode>
			<coordinates>
172.86163574,-42.80977389967308,0.0 172.87342359408163,-42.8043996,0.0 172.86163574,-42.787777356495155,0.0 172.85096053575106,-42.8043996,0.0 172.86163574,-42.80977389967308,0.0 
			</coordinates>
		</LineString>
	</Placemark>
	<Placemark>
		<name>0.1 events</name>
		<styleUrl>#sn_noicon</styleUrl>
		<Point>
			<altitudeMode>clampToSeaFloor</altitudeMode>
			<gx:altitudeMode>clampToSeaFloor</gx:altitudeMode>
			<coordinates>173.1195607216919,-42.6543996,0.0</coordinates>
		</Point>
	</Placemark>
	<Placemark>
		<name>0.1 events</name>
		<styleUrl>#sn_noicon</styleUrl>
		<Point>
			<altitudeMode>clampToSeaFloor</altitudeMode>
			<gx:altitudeMode>clampToSeaFloor</gx:altitudeMode>
			<coordinates>174.10281023195853,-41.8543996,0.0</coordinates>
		</Point>
	</Placemark>
	<Placemark>
		<name>0.15</name>
		<styleUrl>#linestyle</styleUrl>
		<Style>
 			<LineStyle>
				<color>#ff39ff00</color>
 			</LineStyle>
 		</Style>
		<LineString>
			<tessellate>1</tessellate>
			<altitudeMode>clampToSeaFloor</altitudeMode>
			<gx:altitudeMode>clampToSeaFloor</gx:altitudeMode>
			<coordinates>
172.91163574,-42.78263799877487,0.0 172.96163574,-42.75842621994938,0.0 172.96767828988237,-42.7543996,0.0 173.01163574,-42.723878904139085,0.0 173.04158987346068,-42.7043996,0.0 173.06163574,-42.692047940780554,0.0 173.11163574,-42.66009440563033,0.0 173.1195607216919,-42.6543996,0.0 173.16163574,-42.627291222146965,0.0 173.19086776811378,-42.6043996,0.0 173.21163574,-42.58423473934782,0.0 173.24571169512194,-42.5543996,0.0 173.26163574,-42.53472469706375,0.0 173.29893378394686,-42.5043996,0.0 173.31163574,-42.495931881024624,0.0 173.36163574,-42.465112477224174,0.0 173.37566600052386,-42.4543996,0.0 173.41163574,-42.4201946046728,0.0 173.43462419834984,-42.4043996,0.0 173.46163574,-42.39030825137229,0.0 173.51163574,-42.36613405112422,0.0 173.53437904055448,-42.3543996,0.0 173.56163574,-42.34304657519197,0.0 173.61163574,-42.33421042163348,0.0 173.66163574,-42.328774081476,0.0 173.71163574,-42.319711855046336,0.0 173.73164260875694,-42.3043996,0.0 173.76163574,-42.25599466305155,0.0 173.76241907238062,-42.2543996,0.0 173.77940965597227,-42.2043996,0.0 173.81163574,-42.172714241480016,0.0 173.83106876520995,-42.1543996,0.0 173.84381923013993,-42.1043996,0.0 173.86163574,-42.079829955092166,0.0 173.88249679014874,-42.0543996,0.0 173.91163574,-42.02116648743784,0.0 173.9316072842287,-42.0043996,0.0 173.96163574,-41.990540787894034,0.0 174.01163574,-41.964345138553234,0.0 174.02229401022882,-41.9543996,0.0 174.03742790329028,-41.9043996,0.0 174.06163574,-41.87861554505385,0.0 174.10281023195853,-41.8543996,0.0 174.11163574,-41.849448060626955,0.0 174.16163574,-41.84085786188063,0.0 174.21163574,-41.84609772990612,0.0 174.26163574,-41.83513961051312,0.0 174.29744644833096,-41.8043996,0.0 174.31163574,-41.76292502641335,0.0 174.31727512148458,-41.7543996,0.0 174.34032955853075,-41.7043996,0.0 174.36163574,-41.66693459185663,0.0 174.36978770896962,-41.6543996,0.0 174.36163574,-41.63758518918708,0.0 174.31163574,-41.625048712396755,0.0 174.26163574,-41.63049550153243,0.0 174.21163574,-41.653167853384936,0.0 174.2096843191784,-41.6543996,0.0 174.16163574,-41.678809080824756,0.0 174.1278602590498,-41.7043996,0.0 174.11163574,-41.72759693667283,0.0 174.0841508824933,-41.7543996,0.0 174.06163574,-41.78482731587183,0.0 174.03727399230266,-41.8043996,0.0 174.01163574,-41.82625128007742,0.0 173.96163574,-41.838497780907204,0.0 173.93869228236764,-41.8543996,0.0 173.91163574,-41.888041627147096,0.0 173.88879128255377,-41.9043996,0.0 173.86163574,-41.921218314142756,0.0 173.81163574,-41.93274484500195,0.0 173.76163574,-41.92689754440751,0.0 173.71163574,-41.92059269932378,0.0 173.66163574,-41.94119512289357,0.0 173.6467928932426,-41.9543996,0.0 173.63086662917203,-42.0043996,0.0 173.62371644746818,-42.0543996,0.0 173.61163574,-42.06708135715733,0.0 173.56163574,-42.09858674830657,0.0 173.55422928022304,-42.1043996,0.0 173.51163574,-42.13475454212401,0.0 173.46163574,-42.14583255257136,0.0 173.45282774501916,-42.1543996,0.0 173.46147639168996,-42.2043996,0.0 173.42961917847467,-42.2543996,0.0 173.41163574,-42.27913149291928,0.0 173.38799789597414,-42.3043996,0.0 173.36163574,-42.333604332912735,0.0 173.33709476935832,-42.3543996,0.0 173.31163574,-42.36669247961028,0.0 173.2676709276633,-42.4043996,0.0 173.26163574,-42.415894042254564,0.0 173.21163574,-42.443640462205565,0.0 173.16163574,-42.42991609902791,0.0 173.12608042445214,-42.4543996,0.0 173.11163574,-42.46307783275132,0.0 173.0666675595481,-42.5043996,0.0 173.06163574,-42.50912269039081,0.0 173.0158730909182,-42.5543996,0.0 173.01163574,-42.561631790943416,0.0 172.96163574,-42.57675832640111,0.0 172.9270550955804,-42.6043996,0.0 172.91163574,-42.64581865096995,0.0 172.87741730844473,-42.6543996,0.0 172.8902497899059,-42.7043996,0.0 172.87779172610612,-42.7543996,0.0 172.91163574,-42.78263799877487,0.0 
			</coordinates>
		</LineString>
	</Placemark>
	<Placemark>
		<name>0.1 events</name>
		<styleUrl>#sn_noicon</styleUrl>
		<Point>
			<altitudeMode>clampToSeaFloor</altitudeMode>
			<gx:altitudeMode>clampToSeaFloor</gx:altitudeMode>
			<coordinates>172.96163574,-42.62746666723352,0.0</coordinates>
		</Point>
	</Placemark>
	<Placemark>
		<name>0.1 events</name>
		<styleUrl>#sn_noicon</styleUrl>
		<Point>
			<altitudeMode>clampToSeaFloor</altitudeMode>
			<gx:altitudeMode>clampToSeaFloor</gx:altitudeMode>
			<coordinates>173.01163574,-42.611522508303025,0.0</coordinates>
		</Point>
	</Placemark>
	<Placemark>
		<name>0.1 events</name>
		<styleUrl>#sn_noicon</styleUrl>
		<Point>
			<altitudeMode>clampToSeaFloor</altitudeMode>
			<gx:altitudeMode>clampToSeaFloor</gx:altitudeMode>
			<coordinates>173.16577027342117,-42.5543996,0.0</coordinates>
		</Point>
	</Placemark>
	<Placemark>
		<name>0.1 events</name>
		<styleUrl>#sn_noicon</styleUrl>
		<Point>
			<altitudeMode>clampToSeaFloor</altitudeMode>
			<gx:altitudeMode>clampToSeaFloor</gx:altitudeMode>
			<coordinates>173.06163574,-42.53200603495235,0.0</coordinates>
		</Point>
	</Placemark>
	<Placemark>
		<name>0.19</name>
		<styleUrl>#linestyle</styleUrl>
		<Style>
 			<LineStyle>
				<color>#ff00ff39</color>
 			</LineStyle>
 		</Style>
		<LineString>
			<tessellate>1</tessellate>
			<altitudeMode>clampToSeaFloor</altitudeMode>
			<gx:altitudeMode>clampToSeaFloor</gx:altitudeMode>
			<coordinates>
172.96163574,-42.62746666723352,0.0 173.01163574,-42.611522508303025,0.0 173.04498371000807,-42.6043996,0.0 173.06163574,-42.602358725655364,0.0 173.11163574,-42.6002439619885,0.0 173.16163574,-42.558432963224,0.0 173.16577027342117,-42.5543996,0.0 173.16163574,-42.53748165349826,0.0 173.1557415669593,-42.5043996,0.0 173.11163574,-42.48548009478703,0.0 173.09104669502142,-42.5043996,0.0 173.06163574,-42.53200603495235,0.0 173.0390019324409,-42.5543996,0.0 173.01163574,-42.60110744481809,0.0 172.96163574,-42.59811859338152,0.0 172.95377788006115,-42.6043996,0.0 172.96163574,-42.62746666723352,0.0 
			</coordinates>
		</LineString>
	</Placemark>
	<Placemark>
		<name>0.1 events</name>
		<styleUrl>#sn_noicon</styleUrl>
		<Point>
			<altitudeMode>clampToSeaFloor</altitudeMode>
			<gx:altitudeMode>clampToSeaFloor</gx:altitudeMode>
			<coordinates>173.73875322009346,-42.2543996,0.0</coordinates>
		</Point>
	</Placemark>
	<Placemark>
		<name>0.1 events</name>
		<styleUrl>#sn_noicon</styleUrl>
		<Point>
			<altitudeMode>clampToSeaFloor</altitudeMode>
			<gx:altitudeMode>clampToSeaFloor</gx:altitudeMode>
			<coordinates>173.75722572630323,-41.9543996,0.0</coordinates>
		</Point>
	</Placemark>
	<Placemark>
		<name>0.19</name>
		<styleUrl>#linestyle</styleUrl>
		<Style>
 			<LineStyle>
				<color>#ff00ff39</color>
 			</LineStyle>
 		</Style>
		<LineString>
			<tessellate>1</tessellate>
			<altitudeMode>clampToSeaFloor</altitudeMode>
			<gx:altitudeMode>clampToSeaFloor</gx:altitudeMode>
			<coordinates>
173.51163574,-42.29023093374193,0.0 173.56163574,-42.29795016615377,0.0 173.61163574,-42.30121792189168,0.0 173.66163574,-42.300714171378715,0.0 173.71163574,-42.28701361419611,0.0 173.73875322009346,-42.2543996,0.0 173.74313263388711,-42.2043996,0.0 173.7357397695578,-42.1543996,0.0 173.74456614967937,-42.1043996,0.0 173.76163574,-42.10073767312974,0.0 173.80931182651761,-42.0543996,0.0 173.81163574,-42.04924426606767,0.0 173.83795146070838,-42.0043996,0.0 173.81163574,-41.98289766564729,0.0 173.76163574,-41.95755495951808,0.0 173.75722572630323,-41.9543996,0.0 173.71163574,-41.938164218169774,0.0 173.6789617454462,-41.9543996,0.0 173.66163574,-41.99671119058887,0.0 173.65912036655035,-42.0043996,0.0 173.66163574,-42.020228570860354,0.0 173.66748702142124,-42.0543996,0.0 173.66163574,-42.094055855281596,0.0 173.65307540178097,-42.1043996,0.0 173.61163574,-42.10928377476243,0.0 173.56163574,-42.12102224919345,0.0 173.52299786719698,-42.1543996,0.0 173.51163574,-42.18844775579101,0.0 173.5019224147493,-42.2043996,0.0 173.49706848068612,-42.2543996,0.0 173.51163574,-42.29023093374193,0.0 
			</coordinates>
		</LineString>
	</Placemark>
	<Placemark>
		<name>0.1 events</name>
		<styleUrl>#sn_noicon</styleUrl>
		<Point>
			<altitudeMode>clampToSeaFloor</altitudeMode>
			<gx:altitudeMode>clampToSeaFloor</gx:altitudeMode>
			<coordinates>174.26163574,-41.81706204189053,0.0</coordinates>
		</Point>
	</Placemark>
	<Placemark>
		<name>0.1 events</name>
		<styleUrl>#sn_noicon</styleUrl>
		<Point>
			<altitudeMode>clampToSeaFloor</altitudeMode>
			<gx:altitudeMode>clampToSeaFloor</gx:altitudeMode>
			<coordinates>174.26163574,-41.664638887172195,0.0</coordinates>
		</Point>
	</Placemark>
	<Placemark>
		<name>0.1 events</name>
		<styleUrl>#sn_noicon</styleUrl>
		<Point>
			<altitudeMode>clampToSeaFloor</altitudeMode>
			<gx:altitudeMode>clampToSeaFloor</gx:altitudeMode>
			<coordinates>174.14843600370838,-41.7543996,0.0</coordinates>
		</Point>
	</Placemark>
	<Placemark>
		<name>0.19</name>
		<styleUrl>#linestyle</styleUrl>
		<Style>
 			<LineStyle>
				<color>#ff00ff39</color>
 			</LineStyle>
 		</Style>
		<LineString>
			<tessellate>1</tessellate>
			<altitudeMode>clampToSeaFloor</altitudeMode>
			<gx:altitudeMode>clampToSeaFloor</gx:altitudeMode>
			<coordinates>
174.21163574,-41.827030193546406,0.0 174.26163574,-41.81706204189053,0.0 174.27638690650028,-41.8043996,0.0 174.28228601676375,-41.7543996,0.0 174.30725471525264,-41.7043996,0.0 174.26163574,-41.664638887172195,0.0 174.21163574,-41.7000660832349,0.0 174.20288784555083,-41.7043996,0.0 174.16163574,-41.73637522727779,0.0 174.14843600370838,-41.7543996,0.0 174.16163574,-41.77762317792191,0.0 174.1713036993521,-41.8043996,0.0 174.21163574,-41.827030193546406,0.0 
			</coordinates>
		</LineString>
	</Placemark>
	<Placemark>
		<name>0.2 events</name>
		<styleUrl>#sn_noicon</styleUrl>
		<Point>
			<altitudeMode>clampToSeaFloor</altitudeMode>
			<gx:altitudeMode>clampToSeaFloor</gx:altitudeMode>
			<coordinates>173.11163574,-42.56582637354528,0.0</coordinates>
		</Point>
	</Placemark>
	<Placemark>
		<name>0.22</name>
		<styleUrl>#linestyle</styleUrl>
		<Style>
 			<LineStyle>
				<color>#ff00ffaa</color>
 			</LineStyle>
 		</Style>
		<LineString>
			<tessellate>1</tessellate>
			<altitudeMode>clampToSeaFloor</altitudeMode>
			<gx:altitudeMode>clampToSeaFloor</gx:altitudeMode>
			<coordinates>
173.11163574,-42.56582637354528,0.0 173.12466278160417,-42.5543996,0.0 173.11163574,-42.52034571171396,0.0 173.0646638782976,-42.5543996,0.0 173.11163574,-42.56582637354528,0.0 
			</coordinates>
		</LineString>
	</Placemark>
	<Placemark>
		<name>0.2 events</name>
		<styleUrl>#sn_noicon</styleUrl>
		<Point>
			<altitudeMode>clampToSeaFloor</altitudeMode>
			<gx:altitudeMode>clampToSeaFloor</gx:altitudeMode>
			<coordinates>173.61163574,-42.280226763041355,0.0</coordinates>
		</Point>
	</Placemark>
	<Placemark>
		<name>0.2 events</name>
		<styleUrl>#sn_noicon</styleUrl>
		<Point>
			<altitudeMode>clampToSeaFloor</altitudeMode>
			<gx:altitudeMode>clampToSeaFloor</gx:altitudeMode>
			<coordinates>173.71163574,-42.20078304212616,0.0</coordinates>
		</Point>
	</Placemark>
	<Placemark>
		<name>0.22</name>
		<styleUrl>#linestyle</styleUrl>
		<Style>
 			<LineStyle>
				<color>#ff00ffaa</color>
 			</LineStyle>
 		</Style>
		<LineString>
			<tessellate>1</tessellate>
			<altitudeMode>clampToSeaFloor</altitudeMode>
			<gx:altitudeMode>clampToSeaFloor</gx:altitudeMode>
			<coordinates>
173.56163574,-42.26119873526464,0.0 173.61163574,-42.280226763041355,0.0 173.66163574,-42.2844715314057,0.0 173.71163574,-42.25896628343543,0.0 173.71543278707335,-42.2543996,0.0 173.71310912051976,-42.2043996,0.0 173.71163574,-42.20078304212616,0.0 173.67391650210763,-42.1543996,0.0 173.66163574,-42.14552700715171,0.0 173.61163574,-42.12941025713639,0.0 173.56163574,-42.140145957963234,0.0 173.54513561657234,-42.1543996,0.0 173.5294849015422,-42.2043996,0.0 173.5519875321419,-42.2543996,0.0 173.56163574,-42.26119873526464,0.0 
			</coordinates>
		</LineString>
	</Placemark>
	<Placemark>
		<name>0.2 events</name>
		<styleUrl>#sn_noicon</styleUrl>
		<Point>
			<altitudeMode>clampToSeaFloor</altitudeMode>
			<gx:altitudeMode>clampToSeaFloor</gx:altitudeMode>
			<coordinates>173.7801366849459,-42.0043996,0.0</coordinates>
		</Point>
	</Placemark>
	<Placemark>
		<name>0.22</name>
		<styleUrl>#linestyle</styleUrl>
		<Style>
 			<LineStyle>
				<color>#ff00ffaa</color>
 			</LineStyle>
 		</Style>
		<LineString>
			<tessellate>1</tessellate>
			<altitudeMode>clampToSeaFloor</altitudeMode>
			<gx:altitudeMode>clampToSeaFloor</gx:altitudeMode>
			<coordinates>
173.71163574,-42.07183660481532,0.0 173.76163574,-42.05643121020538,0.0 173.763726013017,-42.0543996,0.0 173.7801366849459,-42.0043996,0.0 173.76163574,-41.99285906145943,0.0 173.71163574,-41.95734459053441,0.0 173.68306093134697,-42.0043996,0.0 173.69793223595033,-42.0543996,0.0 173.71163574,-42.07183660481532,0.0 
			</coordinates>
		</LineString>
	</Placemark>
	<Placemark>
		<name>0.22</name>
		<styleUrl>#linestyle</styleUrl>
		<Style>
 			<LineStyle>
				<color>#ff00ffaa</color>
 			</LineStyle>
 		</Style>
		<LineString>
			<tessellate>1</tessellate>
			<altitudeMode>clampToSeaFloor</altitudeMode>
			<gx:altitudeMode>clampToSeaFloor</gx:altitudeMode>
			<coordinates>
174.21163574,-41.8079626571867,0.0 174.23084415821526,-41.8043996,0.0 174.2166299056475,-41.7543996,0.0 174.21163574,-41.752101471217166,0.0 174.20889374530222,-41.7543996,0.0 174.2052856914699,-41.8043996,0.0 174.21163574,-41.8079626571867,0.0 
			</coordinates>
		</LineString>
	</Placemark>
	<Placemark>
		<name>0.22</name>
		<styleUrl>#linestyle</styleUrl>
		<Style>
 			<LineStyle>
				<color>#ff00ffaa</color>
 			</LineStyle>
 		</Style>
		<LineString>
			<tessellate>1</tessellate>
			<altitudeMode>clampToSeaFloor</altitudeMode>
			<gx:altitudeMode>clampToSeaFloor</gx:altitudeMode>
			<coordinates>
174.26163574,-41.74219794961927,0.0 174.28670637873503,-41.7043996,0.0 174.26163574,-41.68254846323876,0.0 174.2329583549905,-41.7043996,0.0 174.26163574,-41.74219794961927,0.0 
			</coordinates>
		</LineString>
	</Placemark>
	<Placemark>
		<name>0.2 events</name>
		<styleUrl>#sn_noicon</styleUrl>
		<Point>
			<altitudeMode>clampToSeaFloor</altitudeMode>
			<gx:altitudeMode>clampToSeaFloor</gx:altitudeMode>
			<coordinates>173.61163574,-42.25923560419103,0.0</coordinates>
		</Point>
	</Placemark>
	<Placemark>
		<name>0.2 events</name>
		<styleUrl>#sn_noicon</styleUrl>
		<Point>
			<altitudeMode>clampToSeaFloor</altitudeMode>
			<gx:altitudeMode>clampToSeaFloor</gx:altitudeMode>
			<coordinates>173.66163574,-42.26822889143269,0.0</coordinates>
		</Point>
	</Placemark>
	<Placemark>
		<name>0.2 events</name>
		<styleUrl>#sn_noicon</styleUrl>
		<Point>
			<altitudeMode>clampToSeaFloor</altitudeMode>
			<gx:altitudeMode>clampToSeaFloor</gx:altitudeMode>
			<coordinates>173.62328887377475,-42.1543996,0.0</coordinates>
		</Point>
	</Placemark>
	<Placemark>
		<name>0.2 events</name>
		<styleUrl>#sn_noicon</styleUrl>
		<Point>
			<altitudeMode>clampToSeaFloor</altitudeMode>
			<gx:altitudeMode>clampToSeaFloor</gx:altitudeMode>
			<coordinates>173.55298487510203,-42.2043996,0.0</coordinates>
		</Point>
	</Placemark>
	<Placemark>
		<name>0.26</name>
		<styleUrl>#linestyle</styleUrl>
		<Style>
 			<LineStyle>
				<color>#ff00e3ff</color>
 			</LineStyle>
 		</Style>
		<LineString>
			<tessellate>1</tessellate>
			<altitudeMode>clampToSeaFloor</altitudeMode>
			<gx:altitudeMode>clampToSeaFloor</gx:altitudeMode>
			<coordinates>
173.61163574,-42.25923560419103,0.0 173.66163574,-42.26822889143269,0.0 173.6868465591581,-42.2543996,0.0 173.6856545450942,-42.2043996,0.0 173.66163574,-42.17814494537408,0.0 173.62328887377475,-42.1543996,0.0 173.61163574,-42.149536739510346,0.0 173.58729294371904,-42.1543996,0.0 173.56163574,-42.17484500303844,0.0 173.55298487510203,-42.2043996,0.0 173.56163574,-42.21995688167918,0.0 173.60061663742462,-42.2543996,0.0 173.61163574,-42.25923560419103,0.0 
			</coordinates>
		</LineString>
	</Placemark>
	<Placemark>
		<name>0.26</name>
		<styleUrl>#linestyle</styleUrl>
		<Style>
 			<LineStyle>
				<color>#ff00e3ff</color>
 			</LineStyle>
 		</Style>
		<LineString>
			<tessellate>1</tessellate>
			<altitudeMode>clampToSeaFloor</altitudeMode>
			<gx:altitudeMode>clampToSeaFloor</gx:altitudeMode>
			<coordinates>
173.71163574,-42.0184521332679,0.0 173.7237385820591,-42.0043996,0.0 173.71163574,-41.99607411906762,0.0 173.70657997596362,-42.0043996,0.0 173.71163574,-42.0184521332679,0.0 
			</coordinates>
		</LineString>
	</Placemark>
	<Placemark>
		<name>0.26</name>
		<styleUrl>#linestyle</styleUrl>
		<Style>
 			<LineStyle>
				<color>#ff00e3ff</color>
 			</LineStyle>
 		</Style>
		<LineString>
			<tessellate>1</tessellate>
			<altitudeMode>clampToSeaFloor</altitudeMode>
			<gx:altitudeMode>clampToSeaFloor</gx:altitudeMode>
			<coordinates>
174.26163574,-41.71121775737145,0.0 174.26615804221743,-41.7043996,0.0 174.26163574,-41.70045803930532,0.0 174.2564628441999,-41.7043996,0.0 174.26163574,-41.71121775737145,0.0 
			</coordinates>
		</LineString>
	</Placemark>
	<Placemark>
		<name>0.2 events</name>
		<styleUrl>#sn_noicon</styleUrl>
		<Point>
			<altitudeMode>clampToSeaFloor</altitudeMode>
			<gx:altitudeMode>clampToSeaFloor</gx:altitudeMode>
			<coordinates>173.61163574,-42.23265759695249,0.0</coordinates>
		</Point>
	</Placemark>
	<Placemark>
		<name>0.30</name>
		<styleUrl>#linestyle</styleUrl>
		<Style>
 			<LineStyle>
				<color>#ff0071ff</color>
 			</LineStyle>
 		</Style>
		<LineString>
			<tessellate>1</tessellate>
			<altitudeMode>clampToSeaFloor</altitudeMode>
			<gx:altitudeMode>clampToSeaFloor</gx:altitudeMode>
			<coordinates>
173.61163574,-42.23265759695249,0.0 173.65624409280568,-42.2043996,0.0 173.61163574,-42.175961125697896,0.0 173.58099300540846,-42.2043996,0.0 173.61163574,-42.23265759695249,0.0 
			</coordinates>
		</LineString>
	</Placemark>
	<Placemark>
		<name>0.3 events</name>
		<styleUrl>#sn_noicon</styleUrl>
		<Point>
			<altitudeMode>clampToSeaFloor</altitudeMode>
			<gx:altitudeMode>clampToSeaFloor</gx:altitudeMode>
			<coordinates>173.61163574,-42.20440718095094,0.0</coordinates>
		</Point>
	</Placemark>
	<Placemark>
		<name>0.34</name>
		<styleUrl>#linestyle</styleUrl>
		<Style>
 			<LineStyle>
				<color>#ff000000</color>
 			</LineStyle>
 		</Style>
		<LineString>
			<tessellate>1</tessellate>
			<altitudeMode>clampToSeaFloor</altitudeMode>
			<gx:altitudeMode>clampToSeaFloor</gx:altitudeMode>
			<coordinates>
173.61163574,-42.20440718095094,0.0 173.61164770736394,-42.2043996,0.0 173.61163574,-42.20439197063127,0.0 173.61162751928046,-42.2043996,0.0 173.61163574,-42.20440718095094,0.0 
			</coordinates>
		</LineString>
	</Placemark>
</Document>
</kml>
