<?xml version="1.0" encoding="UTF-8"?>
<kml xmlns="http://www.opengis.net/kml/2.2"
 xmlns:gx="http://www.google.com/kml/ext/2.2"
 xmlns:kml="http://www.opengis.net/kml/2.2"
 xmlns:atom="http://www.w3.org/2005/Atom">
<Document>
	<name>2016p858000.kml</name>
	<Style id="sn_noicon">
		<IconStyle>
			<Icon>
			</Icon>
		</IconStyle>
		<LabelStyle>
			<scale>0.8</scale>
		</LabelStyle>
	</Style>
	<Style id="linestyle">
			<LineStyle>
				<width>2</width>
			</LineStyle>
	</Style>
	<Placemark>
		<name>0.1 events</name>
		<styleUrl>#sn_noicon</styleUrl>
		<Point>
			<altitudeMode>clampToSeaFloor</altitudeMode>
			<gx:altitudeMode>clampToSeaFloor</gx:altitudeMode>
			<coordinates>172.62320777,-43.049512859409916,0.0</coordinates>
		</Point>
	</Placemark>
	<Placemark>
		<name>0.1 events</name>
		<styleUrl>#sn_noicon</styleUrl>
		<Point>
			<altitudeMode>clampToSeaFloor</altitudeMode>
			<gx:altitudeMode>clampToSeaFloor</gx:altitudeMode>
			<coordinates>174.0432896490252,-42.28444407,0.0</coordinates>
		</Point>
	</Placemark>
	<Placemark>
		<name>0.1 events</name>
		<styleUrl>#sn_noicon</styleUrl>
		<Point>
			<altitudeMode>clampToSeaFloor</altitudeMode>
			<gx:altitudeMode>clampToSeaFloor</gx:altitudeMode>
			<coordinates>173.97320777,-41.59426514998102,0.0</coordinates>
		</Point>
	</Placemark>
	<Placemark>
		<name>0.19</name>
		<styleUrl>#linestyle</styleUrl>
		<Style>
 			<LineStyle>
				<color>#ffff7100</color>
 			</LineStyle>
 		</Style>
		<LineString>
			<tessellate>1</tessellate>
			<altitudeMode>clampToSeaFloor</altitudeMode>
			<gx:altitudeMode>clampToSeaFloor</gx:altitudeMode>
			<coordinates>
172.62320777,-43.049512859409916,0.0 172.67320777,-43.067395252068906,0.0 172.72320777,-43.074186198251404,0.0 172.77320777,-43.07383073974807,0.0 172.82320777,-43.067578294041276,0.0 172.87320777,-43.055317330499186,0.0 172.92320777,-43.036368251832855,0.0 172.92757994411897,-43.03444407,0.0 172.97320777,-43.016490378178794,0.0 173.02320777,-42.99038006889878,0.0 173.0336226146208,-42.98444407,0.0 173.07320777,-42.963193781463886,0.0 173.1180404726329,-42.93444407,0.0 173.12320777,-42.931281508377296,0.0 173.17320777,-42.89957417033611,0.0 173.1949425762841,-42.88444407,0.0 173.22320777,-42.865672694629744,0.0 173.26603964616905,-42.83444407,0.0 173.27320777,-42.82946440578933,0.0 173.32320777,-42.79364596934557,0.0 173.33551479463506,-42.78444407,0.0 173.37320777,-42.757643782075945,0.0 173.40375282079728,-42.73444407,0.0 173.42320777,-42.7204440261661,0.0 173.4705309465698,-42.68444407,0.0 173.47320777,-42.682532172621094,0.0 173.52320777,-42.647549025986,0.0 173.54148838225728,-42.63444407,0.0 173.57320777,-42.614039630780596,0.0 173.61948703386594,-42.58444407,0.0 173.62320777,-42.58249607759992,0.0 173.67320777,-42.56196314849569,0.0 173.72320777,-42.54754453339511,0.0 173.77057884174187,-42.53444407,0.0 173.77320777,-42.53418910378857,0.0 173.82320777,-42.52384327496008,0.0 173.87320777,-42.49156937396105,0.0 173.88159997074587,-42.48444407,0.0 173.91897315629004,-42.43444407,0.0 173.92320777,-42.41890612940866,0.0 173.9422677550485,-42.38444407,0.0 173.97320777,-42.34717610579896,0.0 173.98564984237575,-42.33444407,0.0 174.02320777,-42.30683042042631,0.0 174.0432896490252,-42.28444407,0.0 174.06190564086208,-42.23444407,0.0 174.07320777,-42.22119415862974,0.0 174.10920546926957,-42.18444407,0.0 174.12320777,-42.171641720062084,0.0 174.163941101004,-42.13444407,0.0 174.17320777,-42.126584049591685,0.0 174.2215708473689,-42.08444407,0.0 174.22320777,-42.08313069449426,0.0 174.27320777,-42.04278474387566,0.0 174.28307311641439,-42.03444407,0.0 174.32320777,-42.0038794276352,0.0 174.34653302677347,-41.98444407,0.0 174.37320777,-41.96455582576595,0.0 174.4085887258263,-41.93444407,0.0 174.42320777,-41.92292260696886,0.0 174.46602508087366,-41.88444407,0.0 174.47320777,-41.878579802523014,0.0 174.51782482727643,-41.83444407,0.0 174.52320777,-41.82772302243071,0.0 174.5603304970536,-41.78444407,0.0 174.57320777,-41.76645493665621,0.0 174.59846235671952,-41.73444407,0.0 174.62320777,-41.69865501897769,0.0 174.6332348929419,-41.68444407,0.0 174.66257069603108,-41.63444407,0.0 174.67320777,-41.606471508246635,0.0 174.68243402494832,-41.58444407,0.0 174.6912528963707,-41.53444407,0.0 174.68341000496892,-41.48444407,0.0 174.67320777,-41.46671905156369,0.0 174.65391435587705,-41.43444407,0.0 174.62320777,-41.408018640317884,0.0 174.57510090721024,-41.38444407,0.0 174.57320777,-41.383556507556335,0.0 174.52320777,-41.36985589196944,0.0 174.47320777,-41.36654516709337,0.0 174.42320777,-41.37100164708569,0.0 174.37320777,-41.382548916365835,0.0 174.36737609608844,-41.38444407,0.0 174.32320777,-41.396329018256395,0.0 174.27320777,-41.415647595120255,0.0 174.23552680180651,-41.43444407,0.0 174.22320777,-41.44005776146706,0.0 174.17320777,-41.46569547375004,0.0 174.14219745829783,-41.48444407,0.0 174.12320777,-41.495171995507015,0.0 174.07320777,-41.526801559976214,0.0 174.06182209112623,-41.53444407,0.0 174.02320777,-41.55898983993795,0.0 173.98757140392038,-41.58444407,0.0 173.97320777,-41.59426514998102,0.0 173.92320777,-41.63087157308145,0.0 173.9183782405067,-41.63444407,0.0 173.87320777,-41.666274199738105,0.0 173.84889378897833,-41.68444407,0.0 173.82320777,-41.70235964074653,0.0 173.7792842790214,-41.73444407,0.0 173.77320777,-41.738392924140044,0.0 173.72320777,-41.77004500098981,0.0 173.70159858721053,-41.78444407,0.0 173.67320777,-41.799121949940734,0.0 173.62320777,-41.82999523117555,0.0 173.61676405669294,-41.83444407,0.0 173.57320777,-41.860449009649294,0.0 173.54265203694308,-41.88444407,0.0 173.52320777,-41.90111204281377,0.0 173.48582034467924,-41.93444407,0.0 173.47320777,-41.94676920486229,0.0 173.43169905959908,-41.98444407,0.0 173.42320777,-41.99186940577178,0.0 173.37493402983765,-42.03444407,0.0 173.37320777,-42.03590915338443,0.0 173.32320777,-42.07948642019001,0.0 173.31766316000366,-42.08444407,0.0 173.27320777,-42.124361100531566,0.0 173.2620963873855,-42.13444407,0.0 173.22320777,-42.16936667297896,0.0 173.20648201643579,-42.18444407,0.0 173.17320777,-42.21336742492954,0.0 173.14931118388955,-42.23444407,0.0 173.12320777,-42.2561428603975,0.0 173.0902286786451,-42.28444407,0.0 173.07320777,-42.29789041859889,0.0 173.0295924266491,-42.33444407,0.0 173.02320777,-42.33931637264565,0.0 172.97320777,-42.38011216242632,0.0 172.96811307022548,-42.38444407,0.0 172.92320777,-42.42037635778718,0.0 172.90682462544987,-42.43444407,0.0 172.87320777,-42.46123874382431,0.0 172.84583832537137,-42.48444407,0.0 172.82320777,-42.49800385183994,0.0 172.7800746441143,-42.53444407,0.0 172.77320777,-42.541197470579334,0.0 172.73277015191888,-42.58444407,0.0 172.72320777,-42.59788377194897,0.0 172.69027965434154,-42.63444407,0.0 172.67320777,-42.65397625374541,0.0 172.64624369933617,-42.68444407,0.0 172.62320777,-42.712606398723054,0.0 172.6056539106778,-42.73444407,0.0 172.57320777,-42.783256246813444,0.0 172.5724158511412,-42.78444407,0.0 172.5450282256032,-42.83444407,0.0 172.5311853620476,-42.88444407,0.0 172.5306814773422,-42.93444407,0.0 172.54817957626003,-42.98444407,0.0 172.57320777,-43.012990966394455,0.0 172.59879815082942,-43.03444407,0.0 172.62320777,-43.049512859409916,0.0 
			</coordinates>
		</LineString>
	</Placemark>
	<Placemark>
		<name>0.3 events</name>
		<styleUrl>#sn_noicon</styleUrl>
		<Point>
			<altitudeMode>clampToSeaFloor</altitudeMode>
			<gx:altitudeMode>clampToSeaFloor</gx:altitudeMode>
			<coordinates>172.67320777,-42.95806984539387,0.0</coordinates>
		</Point>
	</Placemark>
	<Placemark>
		<name>0.3 events</name>
		<styleUrl>#sn_noicon</styleUrl>
		<Point>
			<altitudeMode>clampToSeaFloor</altitudeMode>
			<gx:altitudeMode>clampToSeaFloor</gx:altitudeMode>
			<coordinates>173.27320777,-42.686391333995246,0.0</coordinates>
		</Point>
	</Placemark>
	<Placemark>
		<name>0.3 events</name>
		<styleUrl>#sn_noicon</styleUrl>
		<Point>
			<altitudeMode>clampToSeaFloor</altitudeMode>
			<gx:altitudeMode>clampToSeaFloor</gx:altitudeMode>
			<coordinates>174.53128956220365,-41.63444407,0.0</coordinates>
		</Point>
	</Placemark>
	<Placemark>
		<name>0.39</name>
		<styleUrl>#linestyle</styleUrl>
		<Style>
 			<LineStyle>
				<color>#ffffe300</color>
 			</LineStyle>
 		</Style>
		<LineString>
			<tessellate>1</tessellate>
			<altitudeMode>clampToSeaFloor</altitudeMode>
			<gx:altitudeMode>clampToSeaFloor</gx:altitudeMode>
			<coordinates>
172.67320777,-42.95806984539387,0.0 172.72320777,-42.98371287878713,0.0 172.77320777,-42.98430305518587,0.0 172.82320777,-42.97360055413683,0.0 172.87320777,-42.95543192191846,0.0 172.91475256330583,-42.93444407,0.0 172.92320777,-42.93009594413605,0.0 172.97320777,-42.90155655314091,0.0 172.9995024173016,-42.88444407,0.0 173.02320777,-42.86917723167976,0.0 173.0726464262294,-42.83444407,0.0 173.07320777,-42.83405592130995,0.0 173.12320777,-42.799264708673114,0.0 173.14307338905297,-42.78444407,0.0 173.17320777,-42.7627992237282,0.0 173.21034425440988,-42.73444407,0.0 173.22320777,-42.724978217852914,0.0 173.27320777,-42.686391333995246,0.0 173.27569701685397,-42.68444407,0.0 173.32320777,-42.648602869797365,0.0 173.34117107095943,-42.63444407,0.0 173.37320777,-42.61009402090613,0.0 173.40605782856812,-42.58444407,0.0 173.42320777,-42.571679889698494,0.0 173.47257034893644,-42.53444407,0.0 173.47320777,-42.533993308163176,0.0 173.52320777,-42.50110484790102,0.0 173.54994510124007,-42.48444407,0.0 173.57320777,-42.472025274149665,0.0 173.62320777,-42.452629482499965,0.0 173.67320777,-42.45147000477825,0.0 173.72320777,-42.47236854856701,0.0 173.77320777,-42.480517790691245,0.0 173.82320777,-42.46217219640663,0.0 173.8498037963485,-42.43444407,0.0 173.8392676755326,-42.38444407,0.0 173.82898100485764,-42.33444407,0.0 173.8568258032747,-42.28444407,0.0 173.87320777,-42.25717945851224,0.0 173.89122839855034,-42.23444407,0.0 173.92320777,-42.194632476071554,0.0 173.93204321894203,-42.18444407,0.0 173.97320777,-42.14142403877612,0.0 173.9803048340029,-42.13444407,0.0 174.02320777,-42.09536377262426,0.0 174.03535028991936,-42.08444407,0.0 174.07320777,-42.052723853372584,0.0 174.0946120953243,-42.03444407,0.0 174.12320777,-42.01158731090362,0.0 174.15685775872956,-41.98444407,0.0 174.17320777,-41.972925582513966,0.0 174.22320777,-41.9384569749431,0.0 174.22883031237214,-41.93444407,0.0 174.27320777,-41.913171878375536,0.0 174.3140051344892,-41.88444407,0.0 174.32320777,-41.87949782774395,0.0 174.37320777,-41.839961860995324,0.0 174.38045854953975,-41.83444407,0.0 174.42320777,-41.82377285730491,0.0 174.46349892309416,-41.78444407,0.0 174.46125018540087,-41.73444407,0.0 174.47320777,-41.7144551423755,0.0 174.4946418788445,-41.68444407,0.0 174.52320777,-41.645315544223216,0.0 174.53128956220365,-41.63444407,0.0 174.56025498764208,-41.58444407,0.0 174.57276495886214,-41.53444407,0.0 174.55190438213089,-41.48444407,0.0 174.52320777,-41.46617831054856,0.0 174.47320777,-41.4568085812805,0.0 174.42320777,-41.46213495604402,0.0 174.37320777,-41.477494175930374,0.0 174.35754350548774,-41.48444407,0.0 174.32320777,-41.49933030933231,0.0 174.27320777,-41.52582816717043,0.0 174.25888111943738,-41.53444407,0.0 174.22320777,-41.55457785770474,0.0 174.17749046159773,-41.58444407,0.0 174.17320777,-41.58697097095313,0.0 174.12320777,-41.619217252700395,0.0 174.10235633067472,-41.63444407,0.0 174.07320777,-41.65501130931782,0.0 174.03572019898962,-41.68444407,0.0 174.02320777,-41.694667421870626,0.0 173.9743611397058,-41.73444407,0.0 173.97320777,-41.73538579957699,0.0 173.92320777,-41.77344883579903,0.0 173.90887339922446,-41.78444407,0.0 173.87320777,-41.80946104192499,0.0 173.83751249443836,-41.83444407,0.0 173.82320777,-41.84300308921234,0.0 173.77320777,-41.86533587612001,0.0 173.72320777,-41.8816765226736,0.0 173.7167906269087,-41.88444407,0.0 173.67320777,-41.89259950319741,0.0 173.62320777,-41.92412652907816,0.0 173.61138700561673,-41.93444407,0.0 173.57810999161913,-41.98444407,0.0 173.57320777,-41.9957968726752,0.0 173.54197264324887,-42.03444407,0.0 173.52320777,-42.04994127086026,0.0 173.48246054013046,-42.08444407,0.0 173.47320777,-42.08941460758872,0.0 173.42320777,-42.13210485419857,0.0 173.42071910649713,-42.13444407,0.0 173.37880535035427,-42.18444407,0.0 173.37320777,-42.19137821112914,0.0 173.33107618658198,-42.23444407,0.0 173.32320777,-42.24228468313778,0.0 173.2777932877202,-42.28444407,0.0 173.27320777,-42.28845649729045,0.0 173.22320777,-42.33091335262933,0.0 173.2190043559851,-42.33444407,0.0 173.17320777,-42.36759594292933,0.0 173.15056461590825,-42.38444407,0.0 173.12320777,-42.39543431034727,0.0 173.0747537337585,-42.43444407,0.0 173.07320777,-42.43571432809493,0.0 173.02320777,-42.47485941336031,0.0 173.0118467334813,-42.48444407,0.0 172.97320777,-42.51551027465683,0.0 172.95027781749351,-42.53444407,0.0 172.92320777,-42.55052979831613,0.0 172.87444287748636,-42.58444407,0.0 172.87320777,-42.5855648258593,0.0 172.86953669880387,-42.58444407,0.0 172.82320777,-42.57560747180734,0.0 172.81432857480587,-42.58444407,0.0 172.82320777,-42.62084083335478,0.0 172.8280875139258,-42.63444407,0.0 172.82320777,-42.64065797112257,0.0 172.78913063354972,-42.68444407,0.0 172.77320777,-42.71197253068565,0.0 172.75403326682664,-42.73444407,0.0 172.72320777,-42.769918738648855,0.0 172.71072375111652,-42.78444407,0.0 172.67474003295095,-42.83444407,0.0 172.67320777,-42.83778366718138,0.0 172.65202177090327,-42.88444407,0.0 172.65371232605705,-42.93444407,0.0 172.67320777,-42.95806984539387,0.0 
			</coordinates>
		</LineString>
	</Placemark>
	<Placemark>
		<name>0.39</name>
		<styleUrl>#linestyle</styleUrl>
		<Style>
 			<LineStyle>
				<color>#ffffe300</color>
 			</LineStyle>
 		</Style>
		<LineString>
			<tessellate>1</tessellate>
			<altitudeMode>clampToSeaFloor</altitudeMode>
			<gx:altitudeMode>clampToSeaFloor</gx:altitudeMode>
			<coordinates>
173.97320777,-42.29504869913109,0.0 173.98449770440146,-42.28444407,0.0 173.97320777,-42.268901332343404,0.0 173.9556893121313,-42.28444407,0.0 173.97320777,-42.29504869913109,0.0 
			</coordinates>
		</LineString>
	</Placemark>
	<Placemark>
		<name>0.5 events</name>
		<styleUrl>#sn_noicon</styleUrl>
		<Point>
			<altitudeMode>clampToSeaFloor</altitudeMode>
			<gx:altitudeMode>clampToSeaFloor</gx:altitudeMode>
			<coordinates>172.82320777,-42.88679146661366,0.0</coordinates>
		</Point>
	</Placemark>
	<Placemark>
		<name>0.5 events</name>
		<styleUrl>#sn_noicon</styleUrl>
		<Point>
			<altitudeMode>clampToSeaFloor</altitudeMode>
			<gx:altitudeMode>clampToSeaFloor</gx:altitudeMode>
			<coordinates>173.87320777,-42.15181580352128,0.0</coordinates>
		</Point>
	</Placemark>
	<Placemark>
		<name>0.5 events</name>
		<styleUrl>#sn_noicon</styleUrl>
		<Point>
			<altitudeMode>clampToSeaFloor</altitudeMode>
			<gx:altitudeMode>clampToSeaFloor</gx:altitudeMode>
			<coordinates>173.92320777,-41.856971976487856,0.0</coordinates>
		</Point>
	</Placemark>
	<Placemark>
		<name>0.58</name>
		<styleUrl>#linestyle</styleUrl>
		<Style>
 			<LineStyle>
				<color>#ffaaff00</color>
 			</LineStyle>
 		</Style>
		<LineString>
			<tessellate>1</tessellate>
			<altitudeMode>clampToSeaFloor</altitudeMode>
			<gx:altitudeMode>clampToSeaFloor</gx:altitudeMode>
			<coordinates>
172.82320777,-42.88679146661366,0.0 172.830398186637,-42.88444407,0.0 172.87320777,-42.86681792614968,0.0 172.92320777,-42.8428692703221,0.0 172.93725812047194,-42.83444407,0.0 172.97320777,-42.811088166845266,0.0 173.01478190453773,-42.78444407,0.0 173.02320777,-42.77869587645878,0.0 173.07320777,-42.74414689535415,0.0 173.08668912803924,-42.73444407,0.0 173.12320777,-42.70835005831861,0.0 173.1560640086146,-42.68444407,0.0 173.17320777,-42.672178735510506,0.0 173.22320777,-42.6345035647062,0.0 173.22328391143273,-42.63444407,0.0 173.27320777,-42.594135452910805,0.0 173.2854388565083,-42.58444407,0.0 173.32320777,-42.5534070239358,0.0 173.34775359256088,-42.53444407,0.0 173.37320777,-42.515043594735594,0.0 173.4149713810874,-42.48444407,0.0 173.42320777,-42.47833228331773,0.0 173.47320777,-42.44416368825586,0.0 173.4885445765381,-42.43444407,0.0 173.52320777,-42.4155773152949,0.0 173.57320777,-42.393905807653596,0.0 173.60162267151657,-42.38444407,0.0 173.62320777,-42.380660561010686,0.0 173.67320777,-42.37509253292838,0.0 173.72320777,-42.37826750685644,0.0 173.7688205714779,-42.33444407,0.0 173.77320777,-42.32319606791128,0.0 173.79143659700324,-42.28444407,0.0 173.81383853177638,-42.23444407,0.0 173.82320777,-42.21391126982927,0.0 173.84437881088203,-42.18444407,0.0 173.87320777,-42.15181580352128,0.0 173.88846963619605,-42.13444407,0.0 173.92320777,-42.08655159534259,0.0 173.9253297321014,-42.08444407,0.0 173.97320777,-42.040337860902724,0.0 173.98000259947716,-42.03444407,0.0 174.02320777,-42.0026699270341,0.0 174.044802274752,-41.98444407,0.0 174.07320777,-41.95641063698303,0.0 174.1014765488733,-41.93444407,0.0 174.12320777,-41.91969743119229,0.0 174.17320777,-41.89651308654956,0.0 174.20294840533452,-41.88444407,0.0 174.22320777,-41.88219803881608,0.0 174.27320777,-41.86919227056988,0.0 174.3177867753861,-41.83444407,0.0 174.32320777,-41.82685340834383,0.0 174.36477423437498,-41.78444407,0.0 174.37320777,-41.74963363179903,0.0 174.3793916822769,-41.73444407,0.0 174.40762576762341,-41.68444407,0.0 174.42320777,-41.6461123636299,0.0 174.43068190896497,-41.63444407,0.0 174.44727227007823,-41.58444407,0.0 174.42320777,-41.55751973225086,0.0 174.37320777,-41.562016626400805,0.0 174.32320777,-41.579563204094335,0.0 174.3138078908035,-41.58444407,0.0 174.27320777,-41.60229503374138,0.0 174.22320777,-41.6281870243445,0.0 174.21352636055263,-41.63444407,0.0 174.17320777,-41.65611633629356,0.0 174.1333916678254,-41.68444407,0.0 174.12320777,-41.691411716668576,0.0 174.0758699907345,-41.73444407,0.0 174.07320777,-41.73861153583509,0.0 174.02497612768084,-41.78444407,0.0 174.02320777,-41.78630631218618,0.0 173.97320777,-41.82433009101639,0.0 173.95880680593788,-41.83444407,0.0 173.92320777,-41.856971976487856,0.0 173.88821244882442,-41.88444407,0.0 173.87320777,-41.897913534065815,0.0 173.82320777,-41.91969053877736,0.0 173.77320777,-41.92171890714323,0.0 173.72320777,-41.91421814303359,0.0 173.67320777,-41.927090692791495,0.0 173.66318003155757,-41.93444407,0.0 173.62849909553395,-41.98444407,0.0 173.62320777,-42.029574108189564,0.0 173.6217493989404,-42.03444407,0.0 173.57552255182134,-42.08444407,0.0 173.57320777,-42.0850101630367,0.0 173.52320777,-42.11238299423044,0.0 173.48699405010677,-42.13444407,0.0 173.47320777,-42.15340657197427,0.0 173.45492950848157,-42.18444407,0.0 173.42541477980808,-42.23444407,0.0 173.42320777,-42.23793810139116,0.0 173.38338192175203,-42.28444407,0.0 173.37320777,-42.296361649938305,0.0 173.3331322505745,-42.33444407,0.0 173.32320777,-42.34151255127829,0.0 173.27320777,-42.38307142636878,0.0 173.27150477232652,-42.38444407,0.0 173.22320777,-42.420828068456984,0.0 173.17320777,-42.427301890430584,0.0 173.15764602913433,-42.43444407,0.0 173.12320777,-42.448647384252666,0.0 173.08148632058925,-42.48444407,0.0 173.07320777,-42.490213715843836,0.0 173.0243041470953,-42.53444407,0.0 173.02320777,-42.535344595073944,0.0 172.97320777,-42.57011109034602,0.0 172.9533440634579,-42.58444407,0.0 172.92320777,-42.60715612507021,0.0 172.89445773853618,-42.63444407,0.0 172.87320777,-42.65524410886124,0.0 172.84740716031072,-42.68444407,0.0 172.8600510657786,-42.73444407,0.0 172.82320777,-42.78132189666906,0.0 172.8206080084923,-42.78444407,0.0 172.78783659076916,-42.83444407,0.0 172.80270604314177,-42.88444407,0.0 172.82320777,-42.88679146661366,0.0 
			</coordinates>
		</LineString>
	</Placemark>
	<Placemark>
		<name>0.58</name>
		<styleUrl>#linestyle</styleUrl>
		<Style>
 			<LineStyle>
				<color>#ffaaff00</color>
 			</LineStyle>
 		</Style>
		<LineString>
			<tessellate>1</tessellate>
			<altitudeMode>clampToSeaFloor</altitudeMode>
			<gx:altitudeMode>clampToSeaFloor</gx:altitudeMode>
			<coordinates>
173.77320777,-42.45627764786066,0.0 173.8086970836967,-42.43444407,0.0 173.77320777,-42.38902120782554,0.0 173.73079022081376,-42.43444407,0.0 173.77320777,-42.45627764786066,0.0 
			</coordinates>
		</LineString>
	</Placemark>
	<Placemark>
		<name>0.58</name>
		<styleUrl>#linestyle</styleUrl>
		<Style>
 			<LineStyle>
				<color>#ffaaff00</color>
 			</LineStyle>
 		</Style>
		<LineString>
			<tessellate>1</tessellate>
			<altitudeMode>clampToSeaFloor</altitudeMode>
			<gx:altitudeMode>clampToSeaFloor</gx:altitudeMode>
			<coordinates>
174.42320777,-41.79436496259669,0.0 174.43337142440777,-41.78444407,0.0 174.42320777,-41.76597791431773,0.0 174.3909980120137,-41.78444407,0.0 174.42320777,-41.79436496259669,0.0 
			</coordinates>
		</LineString>
	</Placemark>
	<Placemark>
		<name>0.7 events</name>
		<styleUrl>#sn_noicon</styleUrl>
		<Point>
			<altitudeMode>clampToSeaFloor</altitudeMode>
			<gx:altitudeMode>clampToSeaFloor</gx:altitudeMode>
			<coordinates>172.97320777,-42.654004761008665,0.0</coordinates>
		</Point>
	</Placemark>
	<Placemark>
		<name>0.7 events</name>
		<styleUrl>#sn_noicon</styleUrl>
		<Point>
			<altitudeMode>clampToSeaFloor</altitudeMode>
			<gx:altitudeMode>clampToSeaFloor</gx:altitudeMode>
			<coordinates>173.02320777,-42.6445784384897,0.0</coordinates>
		</Point>
	</Placemark>
	<Placemark>
		<name>0.7 events</name>
		<styleUrl>#sn_noicon</styleUrl>
		<Point>
			<altitudeMode>clampToSeaFloor</altitudeMode>
			<gx:altitudeMode>clampToSeaFloor</gx:altitudeMode>
			<coordinates>173.17320777,-42.57960798463388,0.0</coordinates>
		</Point>
	</Placemark>
	<Placemark>
		<name>0.7 events</name>
		<styleUrl>#sn_noicon</styleUrl>
		<Point>
			<altitudeMode>clampToSeaFloor</altitudeMode>
			<gx:altitudeMode>clampToSeaFloor</gx:altitudeMode>
			<coordinates>173.0655324867634,-42.53444407,0.0</coordinates>
		</Point>
	</Placemark>
	<Placemark>
		<name>0.78</name>
		<styleUrl>#linestyle</styleUrl>
		<Style>
 			<LineStyle>
				<color>#ff39ff00</color>
 			</LineStyle>
 		</Style>
		<LineString>
			<tessellate>1</tessellate>
			<altitudeMode>clampToSeaFloor</altitudeMode>
			<gx:altitudeMode>clampToSeaFloor</gx:altitudeMode>
			<coordinates>
172.97320777,-42.654004761008665,0.0 173.02320777,-42.6445784384897,0.0 173.0513377060853,-42.63444407,0.0 173.07320777,-42.63012113443645,0.0 173.12320777,-42.61979453470225,0.0 173.16785557162885,-42.58444407,0.0 173.17320777,-42.57960798463388,0.0 173.21160086685921,-42.53444407,0.0 173.17320777,-42.50273072419242,0.0 173.12320777,-42.49817035973252,0.0 173.07320777,-42.52750224287882,0.0 173.0655324867634,-42.53444407,0.0 173.02320777,-42.569208084002405,0.0 173.00332657087463,-42.58444407,0.0 172.97320777,-42.6203917832095,0.0 172.95378954460475,-42.63444407,0.0 172.97320777,-42.654004761008665,0.0 
			</coordinates>
		</LineString>
	</Placemark>
	<Placemark>
		<name>0.78</name>
		<styleUrl>#linestyle</styleUrl>
		<Style>
 			<LineStyle>
				<color>#ff39ff00</color>
 			</LineStyle>
 		</Style>
		<LineString>
			<tessellate>1</tessellate>
			<altitudeMode>clampToSeaFloor</altitudeMode>
			<gx:altitudeMode>clampToSeaFloor</gx:altitudeMode>
			<coordinates>
173.32320777,-42.46193874162329,0.0 173.36089736270708,-42.43444407,0.0 173.32320777,-42.40875314602705,0.0 173.29854834866154,-42.43444407,0.0 173.32320777,-42.46193874162329,0.0 
			</coordinates>
		</LineString>
	</Placemark>
	<Placemark>
		<name>0.7 events</name>
		<styleUrl>#sn_noicon</styleUrl>
		<Point>
			<altitudeMode>clampToSeaFloor</altitudeMode>
			<gx:altitudeMode>clampToSeaFloor</gx:altitudeMode>
			<coordinates>173.62320777,-42.344472822233826,0.0</coordinates>
		</Point>
	</Placemark>
	<Placemark>
		<name>0.7 events</name>
		<styleUrl>#sn_noicon</styleUrl>
		<Point>
			<altitudeMode>clampToSeaFloor</altitudeMode>
			<gx:altitudeMode>clampToSeaFloor</gx:altitudeMode>
			<coordinates>173.85894116920733,-42.03444407,0.0</coordinates>
		</Point>
	</Placemark>
	<Placemark>
		<name>0.78</name>
		<styleUrl>#linestyle</styleUrl>
		<Style>
 			<LineStyle>
				<color>#ff39ff00</color>
 			</LineStyle>
 		</Style>
		<LineString>
			<tessellate>1</tessellate>
			<altitudeMode>clampToSeaFloor</altitudeMode>
			<gx:altitudeMode>clampToSeaFloor</gx:altitudeMode>
			<coordinates>
173.47320777,-42.37147832581543,0.0 173.52320777,-42.349250685228085,0.0 173.57320777,-42.344020289485044,0.0 173.62320777,-42.344472822233826,0.0 173.67320777,-42.33640444684554,0.0 173.72320777,-42.33766529592417,0.0 173.72656052252543,-42.33444407,0.0 173.75427590374514,-42.28444407,0.0 173.77013287264782,-42.23444407,0.0 173.77320777,-42.19849724857494,0.0 173.7763919014598,-42.18444407,0.0 173.82320777,-42.15777247715822,0.0 173.84521704848453,-42.13444407,0.0 173.8267969463014,-42.08444407,0.0 173.85894116920733,-42.03444407,0.0 173.82320777,-41.987285047147246,0.0 173.82148503258713,-41.98444407,0.0 173.77320777,-41.96381452787708,0.0 173.72320777,-41.94123395594559,0.0 173.67320777,-41.961783342577064,0.0 173.6555598517571,-41.98444407,0.0 173.65542607579286,-42.03444407,0.0 173.66677753232375,-42.08444407,0.0 173.62320777,-42.09994818259818,0.0 173.57320777,-42.107330768471456,0.0 173.5382919921816,-42.13444407,0.0 173.52320777,-42.15915824033473,0.0 173.50157185053797,-42.18444407,0.0 173.4838386295094,-42.23444407,0.0 173.47320777,-42.27031031804755,0.0 173.46547956493555,-42.28444407,0.0 173.43082783934926,-42.33444407,0.0 173.47320777,-42.37147832581543,0.0 
			</coordinates>
		</LineString>
	</Placemark>
	<Placemark>
		<name>0.78</name>
		<styleUrl>#linestyle</styleUrl>
		<Style>
 			<LineStyle>
				<color>#ff39ff00</color>
 			</LineStyle>
 		</Style>
		<LineString>
			<tessellate>1</tessellate>
			<altitudeMode>clampToSeaFloor</altitudeMode>
			<gx:altitudeMode>clampToSeaFloor</gx:altitudeMode>
			<coordinates>
173.97320777,-41.9375707850646,0.0 173.97593551658343,-41.93444407,0.0 173.97320777,-41.9316038051357,0.0 173.97035505297106,-41.93444407,0.0 173.97320777,-41.9375707850646,0.0 
			</coordinates>
		</LineString>
	</Placemark>
	<Placemark>
		<name>0.7 events</name>
		<styleUrl>#sn_noicon</styleUrl>
		<Point>
			<altitudeMode>clampToSeaFloor</altitudeMode>
			<gx:altitudeMode>clampToSeaFloor</gx:altitudeMode>
			<coordinates>174.22320777,-41.86461572744103,0.0</coordinates>
		</Point>
	</Placemark>
	<Placemark>
		<name>0.7 events</name>
		<styleUrl>#sn_noicon</styleUrl>
		<Point>
			<altitudeMode>clampToSeaFloor</altitudeMode>
			<gx:altitudeMode>clampToSeaFloor</gx:altitudeMode>
			<coordinates>174.34218982357376,-41.68444407,0.0</coordinates>
		</Point>
	</Placemark>
	<Placemark>
		<name>0.78</name>
		<styleUrl>#linestyle</styleUrl>
		<Style>
 			<LineStyle>
				<color>#ff39ff00</color>
 			</LineStyle>
 		</Style>
		<LineString>
			<tessellate>1</tessellate>
			<altitudeMode>clampToSeaFloor</altitudeMode>
			<gx:altitudeMode>clampToSeaFloor</gx:altitudeMode>
			<coordinates>
174.12320777,-41.83605987029051,0.0 174.17320777,-41.857907519747215,0.0 174.22320777,-41.86461572744103,0.0 174.27320777,-41.84348546133121,0.0 174.28480711115267,-41.83444407,0.0 174.32200904643338,-41.78444407,0.0 174.32320777,-41.77645701373094,0.0 174.339134415662,-41.73444407,0.0 174.34218982357376,-41.68444407,0.0 174.32320777,-41.66014744410974,0.0 174.27320777,-41.65047208776756,0.0 174.22320777,-41.66888844453403,0.0 174.2004910521461,-41.68444407,0.0 174.17320777,-41.69576470647458,0.0 174.1284585158603,-41.73444407,0.0 174.12320777,-41.7629738457977,0.0 174.11182662253572,-41.78444407,0.0 174.11957717133362,-41.83444407,0.0 174.12320777,-41.83605987029051,0.0 
			</coordinates>
		</LineString>
	</Placemark>
	<Placemark>
		<name>0.9 events</name>
		<styleUrl>#sn_noicon</styleUrl>
		<Point>
			<altitudeMode>clampToSeaFloor</altitudeMode>
			<gx:altitudeMode>clampToSeaFloor</gx:altitudeMode>
			<coordinates>173.57320777,-42.30755030389687,0.0</coordinates>
		</Point>
	</Placemark>
	<Placemark>
		<name>0.9 events</name>
		<styleUrl>#sn_noicon</styleUrl>
		<Point>
			<altitudeMode>clampToSeaFloor</altitudeMode>
			<gx:altitudeMode>clampToSeaFloor</gx:altitudeMode>
			<coordinates>173.72480241170746,-42.28444407,0.0</coordinates>
		</Point>
	</Placemark>
	<Placemark>
		<name>0.9 events</name>
		<styleUrl>#sn_noicon</styleUrl>
		<Point>
			<altitudeMode>clampToSeaFloor</altitudeMode>
			<gx:altitudeMode>clampToSeaFloor</gx:altitudeMode>
			<coordinates>173.63489717972445,-42.13444407,0.0</coordinates>
		</Point>
	</Placemark>
	<Placemark>
		<name>0.97</name>
		<styleUrl>#linestyle</styleUrl>
		<Style>
 			<LineStyle>
				<color>#ff00ff39</color>
 			</LineStyle>
 		</Style>
		<LineString>
			<tessellate>1</tessellate>
			<altitudeMode>clampToSeaFloor</altitudeMode>
			<gx:altitudeMode>clampToSeaFloor</gx:altitudeMode>
			<coordinates>
173.57320777,-42.30755030389687,0.0 173.62320777,-42.323059193232076,0.0 173.67320777,-42.32001258947364,0.0 173.72320777,-42.287219308065204,0.0 173.72480241170746,-42.28444407,0.0 173.74523716022338,-42.23444407,0.0 173.72750553920258,-42.18444407,0.0 173.72320777,-42.1760810466665,0.0 173.67320777,-42.14118435298248,0.0 173.63489717972445,-42.13444407,0.0 173.62320777,-42.13241501370664,0.0 173.57320777,-42.12965137390621,0.0 173.56703586534334,-42.13444407,0.0 173.53410691219725,-42.18444407,0.0 173.52519818582613,-42.23444407,0.0 173.5378486516899,-42.28444407,0.0 173.57320777,-42.30755030389687,0.0 
			</coordinates>
		</LineString>
	</Placemark>
	<Placemark>
		<name>0.9 events</name>
		<styleUrl>#sn_noicon</styleUrl>
		<Point>
			<altitudeMode>clampToSeaFloor</altitudeMode>
			<gx:altitudeMode>clampToSeaFloor</gx:altitudeMode>
			<coordinates>173.77320777,-42.020977035932,0.0</coordinates>
		</Point>
	</Placemark>
	<Placemark>
		<name>0.97</name>
		<styleUrl>#linestyle</styleUrl>
		<Style>
 			<LineStyle>
				<color>#ff00ff39</color>
 			</LineStyle>
 		</Style>
		<LineString>
			<tessellate>1</tessellate>
			<altitudeMode>clampToSeaFloor</altitudeMode>
			<gx:altitudeMode>clampToSeaFloor</gx:altitudeMode>
			<coordinates>
173.72320777,-42.072713319594854,0.0 173.77320777,-42.045994267588,0.0 173.78341210435534,-42.03444407,0.0 173.77320777,-42.020977035932,0.0 173.75879917861977,-41.98444407,0.0 173.72320777,-41.960952690016995,0.0 173.6845074412618,-41.98444407,0.0 173.68441511902154,-42.03444407,0.0 173.72320777,-42.072713319594854,0.0 
			</coordinates>
		</LineString>
	</Placemark>
	<Placemark>
		<name>0.9 events</name>
		<styleUrl>#sn_noicon</styleUrl>
		<Point>
			<altitudeMode>clampToSeaFloor</altitudeMode>
			<gx:altitudeMode>clampToSeaFloor</gx:altitudeMode>
			<coordinates>174.3146341282608,-41.73444407,0.0</coordinates>
		</Point>
	</Placemark>
	<Placemark>
		<name>0.9 events</name>
		<styleUrl>#sn_noicon</styleUrl>
		<Point>
			<altitudeMode>clampToSeaFloor</altitudeMode>
			<gx:altitudeMode>clampToSeaFloor</gx:altitudeMode>
			<coordinates>174.17320777,-41.718785453620534,0.0</coordinates>
		</Point>
	</Placemark>
	<Placemark>
		<name>0.97</name>
		<styleUrl>#linestyle</styleUrl>
		<Style>
 			<LineStyle>
				<color>#ff00ff39</color>
 			</LineStyle>
 		</Style>
		<LineString>
			<tessellate>1</tessellate>
			<altitudeMode>clampToSeaFloor</altitudeMode>
			<gx:altitudeMode>clampToSeaFloor</gx:altitudeMode>
			<coordinates>
174.22320777,-41.84703341606597,0.0 174.2494489694709,-41.83444407,0.0 174.27320777,-41.823536721152244,0.0 174.3073253767912,-41.78444407,0.0 174.3146341282608,-41.73444407,0.0 174.27984035084418,-41.68444407,0.0 174.27320777,-41.6810872467201,0.0 174.2653781228441,-41.68444407,0.0 174.22320777,-41.705639841909054,0.0 174.17320777,-41.718785453620534,0.0 174.1550918720127,-41.73444407,0.0 174.15343351852292,-41.78444407,0.0 174.17320777,-41.81765662773929,0.0 174.18732191250723,-41.83444407,0.0 174.22320777,-41.84703341606597,0.0 
			</coordinates>
		</LineString>
	</Placemark>
	<Placemark>
		<name>1.1 events</name>
		<styleUrl>#sn_noicon</styleUrl>
		<Point>
			<altitudeMode>clampToSeaFloor</altitudeMode>
			<gx:altitudeMode>clampToSeaFloor</gx:altitudeMode>
			<coordinates>173.62320777,-42.30730961723812,0.0</coordinates>
		</Point>
	</Placemark>
	<Placemark>
		<name>1.1 events</name>
		<styleUrl>#sn_noicon</styleUrl>
		<Point>
			<altitudeMode>clampToSeaFloor</altitudeMode>
			<gx:altitudeMode>clampToSeaFloor</gx:altitudeMode>
			<coordinates>173.68604681445342,-42.18444407,0.0</coordinates>
		</Point>
	</Placemark>
	<Placemark>
		<name>1.1 events</name>
		<styleUrl>#sn_noicon</styleUrl>
		<Point>
			<altitudeMode>clampToSeaFloor</altitudeMode>
			<gx:altitudeMode>clampToSeaFloor</gx:altitudeMode>
			<coordinates>173.55764306062176,-42.18444407,0.0</coordinates>
		</Point>
	</Placemark>
	<Placemark>
		<name>1.17</name>
		<styleUrl>#linestyle</styleUrl>
		<Style>
 			<LineStyle>
				<color>#ff00ffaa</color>
 			</LineStyle>
 		</Style>
		<LineString>
			<tessellate>1</tessellate>
			<altitudeMode>clampToSeaFloor</altitudeMode>
			<gx:altitudeMode>clampToSeaFloor</gx:altitudeMode>
			<coordinates>
173.62320777,-42.30730961723812,0.0 173.67320777,-42.30481081477816,0.0 173.70251577978794,-42.28444407,0.0 173.7209196103693,-42.23444407,0.0 173.68604681445342,-42.18444407,0.0 173.67320777,-42.174092063920455,0.0 173.62320777,-42.15432952357484,0.0 173.57320777,-42.16158649594167,0.0 173.55764306062176,-42.18444407,0.0 173.55216166530215,-42.23444407,0.0 173.57320777,-42.27002367200856,0.0 173.58215352989384,-42.28444407,0.0 173.62320777,-42.30730961723812,0.0 
			</coordinates>
		</LineString>
	</Placemark>
	<Placemark>
		<name>1.17</name>
		<styleUrl>#linestyle</styleUrl>
		<Style>
 			<LineStyle>
				<color>#ff00ffaa</color>
 			</LineStyle>
 		</Style>
		<LineString>
			<tessellate>1</tessellate>
			<altitudeMode>clampToSeaFloor</altitudeMode>
			<gx:altitudeMode>clampToSeaFloor</gx:altitudeMode>
			<coordinates>
173.72320777,-42.048664263323516,0.0 173.74412368833492,-42.03444407,0.0 173.72892364460228,-41.98444407,0.0 173.72320777,-41.98067142408839,0.0 173.7169926120528,-41.98444407,0.0 173.70879308974665,-42.03444407,0.0 173.72320777,-42.048664263323516,0.0 
			</coordinates>
		</LineString>
	</Placemark>
	<Placemark>
		<name>1.1 events</name>
		<styleUrl>#sn_noicon</styleUrl>
		<Point>
			<altitudeMode>clampToSeaFloor</altitudeMode>
			<gx:altitudeMode>clampToSeaFloor</gx:altitudeMode>
			<coordinates>174.27320777,-41.80671187237341,0.0</coordinates>
		</Point>
	</Placemark>
	<Placemark>
		<name>1.1 events</name>
		<styleUrl>#sn_noicon</styleUrl>
		<Point>
			<altitudeMode>clampToSeaFloor</altitudeMode>
			<gx:altitudeMode>clampToSeaFloor</gx:altitudeMode>
			<coordinates>174.22825953337963,-41.73444407,0.0</coordinates>
		</Point>
	</Placemark>
	<Placemark>
		<name>1.17</name>
		<styleUrl>#linestyle</styleUrl>
		<Style>
 			<LineStyle>
				<color>#ff00ffaa</color>
 			</LineStyle>
 		</Style>
		<LineString>
			<tessellate>1</tessellate>
			<altitudeMode>clampToSeaFloor</altitudeMode>
			<gx:altitudeMode>clampToSeaFloor</gx:altitudeMode>
			<coordinates>
174.22320777,-41.83012046772206,0.0 174.27320777,-41.80671187237341,0.0 174.292641707149,-41.78444407,0.0 174.29960797936639,-41.73444407,0.0 174.27320777,-41.70126030564173,0.0 174.22825953337963,-41.73444407,0.0 174.22320777,-41.7375318564699,0.0 174.17963905349262,-41.78444407,0.0 174.22320777,-41.83012046772206,0.0 
			</coordinates>
		</LineString>
	</Placemark>
	<Placemark>
		<name>1.3 events</name>
		<styleUrl>#sn_noicon</styleUrl>
		<Point>
			<altitudeMode>clampToSeaFloor</altitudeMode>
			<gx:altitudeMode>clampToSeaFloor</gx:altitudeMode>
			<coordinates>173.62320777,-42.29156004124416,0.0</coordinates>
		</Point>
	</Placemark>
	<Placemark>
		<name>1.3 events</name>
		<styleUrl>#sn_noicon</styleUrl>
		<Point>
			<altitudeMode>clampToSeaFloor</altitudeMode>
			<gx:altitudeMode>clampToSeaFloor</gx:altitudeMode>
			<coordinates>173.70104558360188,-42.23444407,0.0</coordinates>
		</Point>
	</Placemark>
	<Placemark>
		<name>1.3 events</name>
		<styleUrl>#sn_noicon</styleUrl>
		<Point>
			<altitudeMode>clampToSeaFloor</altitudeMode>
			<gx:altitudeMode>clampToSeaFloor</gx:altitudeMode>
			<coordinates>173.59553562135616,-42.18444407,0.0</coordinates>
		</Point>
	</Placemark>
	<Placemark>
		<name>1.36</name>
		<styleUrl>#linestyle</styleUrl>
		<Style>
 			<LineStyle>
				<color>#ff00e3ff</color>
 			</LineStyle>
 		</Style>
		<LineString>
			<tessellate>1</tessellate>
			<altitudeMode>clampToSeaFloor</altitudeMode>
			<gx:altitudeMode>clampToSeaFloor</gx:altitudeMode>
			<coordinates>
173.62320777,-42.29156004124416,0.0 173.67320777,-42.289609040082674,0.0 173.68064022891213,-42.28444407,0.0 173.70104558360188,-42.23444407,0.0 173.67320777,-42.20087212073469,0.0 173.6421981864715,-42.18444407,0.0 173.62320777,-42.17554058997674,0.0 173.59553562135616,-42.18444407,0.0 173.57944780788094,-42.23444407,0.0 173.61043130814653,-42.28444407,0.0 173.62320777,-42.29156004124416,0.0 
			</coordinates>
		</LineString>
	</Placemark>
	<Placemark>
		<name>1.3 events</name>
		<styleUrl>#sn_noicon</styleUrl>
		<Point>
			<altitudeMode>clampToSeaFloor</altitudeMode>
			<gx:altitudeMode>clampToSeaFloor</gx:altitudeMode>
			<coordinates>174.27320777,-41.78988702359459,0.0</coordinates>
		</Point>
	</Placemark>
	<Placemark>
		<name>1.3 events</name>
		<styleUrl>#sn_noicon</styleUrl>
		<Point>
			<altitudeMode>clampToSeaFloor</altitudeMode>
			<gx:altitudeMode>clampToSeaFloor</gx:altitudeMode>
			<coordinates>174.25384262200689,-41.73444407,0.0</coordinates>
		</Point>
	</Placemark>
	<Placemark>
		<name>1.36</name>
		<styleUrl>#linestyle</styleUrl>
		<Style>
 			<LineStyle>
				<color>#ff00e3ff</color>
 			</LineStyle>
 		</Style>
		<LineString>
			<tessellate>1</tessellate>
			<altitudeMode>clampToSeaFloor</altitudeMode>
			<gx:altitudeMode>clampToSeaFloor</gx:altitudeMode>
			<coordinates>
174.22320777,-41.81489526249697,0.0 174.27320777,-41.78988702359459,0.0 174.27795803750678,-41.78444407,0.0 174.28458183047198,-41.73444407,0.0 174.27320777,-41.720147435558175,0.0 174.25384262200689,-41.73444407,0.0 174.22320777,-41.75316899324468,0.0 174.1941617103417,-41.78444407,0.0 174.22320777,-41.81489526249697,0.0 
			</coordinates>
		</LineString>
	</Placemark>
	<Placemark>
		<name>1.5 events</name>
		<styleUrl>#sn_noicon</styleUrl>
		<Point>
			<altitudeMode>clampToSeaFloor</altitudeMode>
			<gx:altitudeMode>clampToSeaFloor</gx:altitudeMode>
			<coordinates>173.62320777,-42.25923331809978,0.0</coordinates>
		</Point>
	</Placemark>
	<Placemark>
		<name>1.56</name>
		<styleUrl>#linestyle</styleUrl>
		<Style>
 			<LineStyle>
				<color>#ff0071ff</color>
 			</LineStyle>
 		</Style>
		<LineString>
			<tessellate>1</tessellate>
			<altitudeMode>clampToSeaFloor</altitudeMode>
			<gx:altitudeMode>clampToSeaFloor</gx:altitudeMode>
			<coordinates>
173.62320777,-42.25923331809978,0.0 173.67320777,-42.25332867476867,0.0 173.68117155683447,-42.23444407,0.0 173.67320777,-42.224839872939484,0.0 173.62320777,-42.210364961689145,0.0 173.60788155420244,-42.23444407,0.0 173.62320777,-42.25923331809978,0.0 
			</coordinates>
		</LineString>
	</Placemark>
	<Placemark>
		<name>1.56</name>
		<styleUrl>#linestyle</styleUrl>
		<Style>
 			<LineStyle>
				<color>#ff0071ff</color>
 			</LineStyle>
 		</Style>
		<LineString>
			<tessellate>1</tessellate>
			<altitudeMode>clampToSeaFloor</altitudeMode>
			<gx:altitudeMode>clampToSeaFloor</gx:altitudeMode>
			<coordinates>
174.22320777,-41.799670057271875,0.0 174.25303254792297,-41.78444407,0.0 174.22320777,-41.76880613001946,0.0 174.20868436719076,-41.78444407,0.0 174.22320777,-41.799670057271875,0.0 
			</coordinates>
		</LineString>
	</Placemark>
	<Placemark>
		<name>1.7 events</name>
		<styleUrl>#sn_noicon</styleUrl>
		<Point>
			<altitudeMode>clampToSeaFloor</altitudeMode>
			<gx:altitudeMode>clampToSeaFloor</gx:altitudeMode>
			<coordinates>174.22320777,-41.784444852046775,0.0</coordinates>
		</Point>
	</Placemark>
	<Placemark>
		<name>1.75</name>
		<styleUrl>#linestyle</styleUrl>
		<Style>
 			<LineStyle>
				<color>#ff000000</color>
 			</LineStyle>
 		</Style>
		<LineString>
			<tessellate>1</tessellate>
			<altitudeMode>clampToSeaFloor</altitudeMode>
			<gx:altitudeMode>clampToSeaFloor</gx:altitudeMode>
			<coordinates>
174.22320777,-41.784444852046775,0.0 174.22320930187908,-41.78444407,0.0 174.22320777,-41.78444326679425,0.0 174.2232070240398,-41.78444407,0.0 
			</coordinates>
		</LineString>
	</Placemark>
</Document>
</kml>
