<?xml version="1.0" encoding="UTF-8"?>
<kml xmlns="http://www.opengis.net/kml/2.2"
 xmlns:gx="http://www.google.com/kml/ext/2.2"
 xmlns:kml="http://www.opengis.net/kml/2.2"
 xmlns:atom="http://www.w3.org/2005/Atom">
<Document>
	<name>2016p858000.kml</name>
	<Style id="sn_noicon">
		<IconStyle>
			<Icon>
			</Icon>
		</IconStyle>
		<LabelStyle>
			<scale>0.8</scale>
		</LabelStyle>
	</Style>
	<Style id="linestyle">
			<LineStyle>
				<width>2</width>
			</LineStyle>
	</Style>
	<Placemark>
		<name>0.6 events</name>
		<styleUrl>#sn_noicon</styleUrl>
		<Point>
			<altitudeMode>clampToSeaFloor</altitudeMode>
			<gx:altitudeMode>clampToSeaFloor</gx:altitudeMode>
			<coordinates>172.62076112,-43.07013379660447,0.0</coordinates>
		</Point>
	</Placemark>
	<Placemark>
		<name>0.6 events</name>
		<styleUrl>#sn_noicon</styleUrl>
		<Point>
			<altitudeMode>clampToSeaFloor</altitudeMode>
			<gx:altitudeMode>clampToSeaFloor</gx:altitudeMode>
			<coordinates>174.07076112,-42.22774318768297,0.0</coordinates>
		</Point>
	</Placemark>
	<Placemark>
		<name>0.6 events</name>
		<styleUrl>#sn_noicon</styleUrl>
		<Point>
			<altitudeMode>clampToSeaFloor</altitudeMode>
			<gx:altitudeMode>clampToSeaFloor</gx:altitudeMode>
			<coordinates>173.82076112,-41.74800919741181,0.0</coordinates>
		</Point>
	</Placemark>
	<Placemark>
		<name>0.63</name>
		<styleUrl>#linestyle</styleUrl>
		<Style>
 			<LineStyle>
				<color>#ffff7100</color>
 			</LineStyle>
 		</Style>
		<LineString>
			<tessellate>1</tessellate>
			<altitudeMode>clampToSeaFloor</altitudeMode>
			<gx:altitudeMode>clampToSeaFloor</gx:altitudeMode>
			<coordinates>
172.62076112,-43.07013379660447,0.0 172.67076112,-43.08077742877935,0.0 172.72076112,-43.08248892261002,0.0 172.77076112,-43.077557333373385,0.0 172.82076112,-43.066319843203836,0.0 172.87076112,-43.04826437681315,0.0 172.87722400131292,-43.04548357,0.0 172.92076112,-43.02881970668664,0.0 172.97076112,-43.00351135926065,0.0 172.98500320897804,-42.99548357,0.0 173.02076112,-42.97660763198307,0.0 173.06986987774943,-42.94548357,0.0 173.07076112,-42.94494805893694,0.0 173.12076112,-42.91446144556164,0.0 173.14839503851937,-42.89548357,0.0 173.17076112,-42.88096303150692,0.0 173.22023631117773,-42.84548357,0.0 173.22076112,-42.84512852620548,0.0 173.27076112,-42.81129526068999,0.0 173.2922683318813,-42.79548357,0.0 173.32076112,-42.775757530924146,0.0 173.36125469586915,-42.74548357,0.0 173.37076112,-42.738795553720486,0.0 173.42076112,-42.702477919380755,0.0 173.43019910763,-42.69548357,0.0 173.47076112,-42.66748952698668,0.0 173.50105463281113,-42.64548357,0.0 173.52076112,-42.632392896364294,0.0 173.57076112,-42.598798414632576,0.0 173.5760702723113,-42.59548357,0.0 173.62076112,-42.572488823223324,0.0 173.67076112,-42.551905057334196,0.0 173.70387796670818,-42.54548357,0.0 173.72076112,-42.54389126765931,0.0 173.73416680728243,-42.54548357,0.0 173.77076112,-42.55102117964097,0.0 173.7993381669575,-42.54548357,0.0 173.82076112,-42.542614066157014,0.0 173.87058851869403,-42.49548357,0.0 173.87076112,-42.49525114598587,0.0 173.91847673594526,-42.44548357,0.0 173.92076112,-42.442820367171734,0.0 173.97076112,-42.42376725857131,0.0 174.02076112,-42.4242044102784,0.0 174.06260663944127,-42.39548357,0.0 174.07076112,-42.37702136828476,0.0 174.08627787180737,-42.34548357,0.0 174.07076112,-42.31426907258336,0.0 174.05877349208077,-42.29548357,0.0 174.05955171778527,-42.24548357,0.0 174.07076112,-42.22774318768297,0.0 174.09676745726787,-42.19548357,0.0 174.12076112,-42.172730820388786,0.0 174.14989755421834,-42.14548357,0.0 174.17076112,-42.12798304128978,0.0 174.20840138951758,-42.09548357,0.0 174.22076112,-42.0857733492335,0.0 174.2695685488181,-42.04548357,0.0 174.27076112,-42.044603525501515,0.0 174.32076112,-42.00700441229789,0.0 174.33486529717496,-41.99548357,0.0 174.37076112,-41.96926626168421,0.0 174.3994591966033,-41.94548357,0.0 174.42076112,-41.92925158719406,0.0 174.45958773351768,-41.89548357,0.0 174.47076112,-41.886510123409536,0.0 174.51424890511757,-41.84548357,0.0 174.52076112,-41.838564120326424,0.0 174.5606896257241,-41.79548357,0.0 174.57076112,-41.782684820408235,0.0 174.60220409671166,-41.74548357,0.0 174.62076112,-41.72085719355507,0.0 174.6399433163788,-41.69548357,0.0 174.6695194180993,-41.64548357,0.0 174.67076112,-41.64252592865018,0.0 174.69198481615155,-41.59548357,0.0 174.699791600658,-41.54548357,0.0 174.68995583790002,-41.49548357,0.0 174.67076112,-41.467603273839636,0.0 174.6523993114656,-41.44548357,0.0 174.62076112,-41.42291714168083,0.0 174.57076112,-41.40407307480442,0.0 174.52076112,-41.3974909395214,0.0 174.47076112,-41.39825492577199,0.0 174.42076112,-41.404845259067415,0.0 174.37076112,-41.417276958317665,0.0 174.32076112,-41.43614358929778,0.0 174.30045842388145,-41.44548357,0.0 174.27076112,-41.45764680228984,0.0 174.22076112,-41.48267900287053,0.0 174.19837739255345,-41.49548357,0.0 174.17076112,-41.509858106446174,0.0 174.12076112,-41.54044083504594,0.0 174.11294351127214,-41.54548357,0.0 174.07076112,-41.57075291237144,0.0 174.03515235245354,-41.59548357,0.0 174.02076112,-41.604980881843204,0.0 173.97076112,-41.64083979856039,0.0 173.96440955878924,-41.64548357,0.0 173.92076112,-41.676033462826986,0.0 173.89457719257118,-41.69548357,0.0 173.87076112,-41.71206276457088,0.0 173.82465835624606,-41.74548357,0.0 173.82076112,-41.74800919741181,0.0 173.77076112,-41.778619871188766,0.0 173.7439504057387,-41.79548357,0.0 173.72076112,-41.80618129952396,0.0 173.67076112,-41.83054797477552,0.0 173.64596567062614,-41.84548357,0.0 173.62076112,-41.85621554067702,0.0 173.57076112,-41.89179390665075,0.0 173.5661063043899,-41.89548357,0.0 173.52076112,-41.936676870437864,0.0 173.51098183151714,-41.94548357,0.0 173.47076112,-41.98468312448372,0.0 173.45869244405813,-41.99548357,0.0 173.42076112,-42.02749693762773,0.0 173.3999762371034,-42.04548357,0.0 173.37076112,-42.06983603759505,0.0 173.34174904165997,-42.09548357,0.0 173.32076112,-42.11454750658709,0.0 173.28661631717452,-42.14548357,0.0 173.27076112,-42.15987073707148,0.0 173.23076373913023,-42.19548357,0.0 173.22076112,-42.20395782244827,0.0 173.17122025281512,-42.24548357,0.0 173.17076112,-42.245818798060064,0.0 173.12076112,-42.276299036372535,0.0 173.09003134687958,-42.29548357,0.0 173.07076112,-42.29902263154808,0.0 173.02076112,-42.34435246830054,0.0 173.01953392227426,-42.34548357,0.0 172.97702915894922,-42.39548357,0.0 172.97076112,-42.40119762286622,0.0 172.92076112,-42.44450310843052,0.0 172.9196144795288,-42.44548357,0.0 172.87076112,-42.48296465861933,0.0 172.85535339065635,-42.49548357,0.0 172.82076112,-42.511622162875064,0.0 172.7808204428929,-42.54548357,0.0 172.77076112,-42.55938903094622,0.0 172.73781442377,-42.59548357,0.0 172.72076112,-42.61642479842055,0.0 172.6928643312207,-42.64548357,0.0 172.67076112,-42.66849368009435,0.0 172.64499642109712,-42.69548357,0.0 172.62076112,-42.721827702536,0.0 172.59985632123093,-42.74548357,0.0 172.57076112,-42.78288517169564,0.0 172.56124704073991,-42.79548357,0.0 172.53088307014747,-42.84548357,0.0 172.52076112,-42.87399345980287,0.0 172.5123322109845,-42.89548357,0.0 172.50776011831445,-42.94548357,0.0 172.52076112,-42.984594330645855,0.0 172.52403943183327,-42.99548357,0.0 172.57076112,-43.044629254322345,0.0 172.57206982007528,-43.04548357,0.0 172.62076112,-43.07013379660447,0.0 
			</coordinates>
		</LineString>
	</Placemark>
	<Placemark>
		<name>1.2 events</name>
		<styleUrl>#sn_noicon</styleUrl>
		<Point>
			<altitudeMode>clampToSeaFloor</altitudeMode>
			<gx:altitudeMode>clampToSeaFloor</gx:altitudeMode>
			<coordinates>172.67076112,-42.98004747760154,0.0</coordinates>
		</Point>
	</Placemark>
	<Placemark>
		<name>1.2 events</name>
		<styleUrl>#sn_noicon</styleUrl>
		<Point>
			<altitudeMode>clampToSeaFloor</altitudeMode>
			<gx:altitudeMode>clampToSeaFloor</gx:altitudeMode>
			<coordinates>173.42076112,-42.558665672006576,0.0</coordinates>
		</Point>
	</Placemark>
	<Placemark>
		<name>1.2 events</name>
		<styleUrl>#sn_noicon</styleUrl>
		<Point>
			<altitudeMode>clampToSeaFloor</altitudeMode>
			<gx:altitudeMode>clampToSeaFloor</gx:altitudeMode>
			<coordinates>174.5678389879124,-41.59548357,0.0</coordinates>
		</Point>
	</Placemark>
	<Placemark>
		<name>1.27</name>
		<styleUrl>#linestyle</styleUrl>
		<Style>
 			<LineStyle>
				<color>#ffffe300</color>
 			</LineStyle>
 		</Style>
		<LineString>
			<tessellate>1</tessellate>
			<altitudeMode>clampToSeaFloor</altitudeMode>
			<gx:altitudeMode>clampToSeaFloor</gx:altitudeMode>
			<coordinates>
172.67076112,-42.98004747760154,0.0 172.72076112,-42.99043756885048,0.0 172.77076112,-42.98314780367087,0.0 172.82076112,-42.96698284522465,0.0 172.8662264769937,-42.94548357,0.0 172.87076112,-42.94324343849595,0.0 172.92076112,-42.91570853949005,0.0 172.95282456354832,-42.89548357,0.0 172.97076112,-42.8841635476707,0.0 173.02076112,-42.850775321102475,0.0 173.02831004980868,-42.84548357,0.0 173.07076112,-42.816662236036386,0.0 173.1000056232793,-42.79548357,0.0 173.12076112,-42.7809777669372,0.0 173.16894946638672,-42.74548357,0.0 173.17076112,-42.74419903920817,0.0 173.22076112,-42.70847959955902,0.0 173.23789962241,-42.69548357,0.0 173.27076112,-42.67153568556687,0.0 173.30465937285854,-42.64548357,0.0 173.32076112,-42.63337134175592,0.0 173.36994672259527,-42.59548357,0.0 173.37076112,-42.594869834204275,0.0 173.42076112,-42.558665672006576,0.0 173.4386186836094,-42.54548357,0.0 173.47076112,-42.52333189108393,0.0 173.51143694200576,-42.49548357,0.0 173.52076112,-42.48969874711615,0.0 173.57076112,-42.46257474429883,0.0 173.6119940649528,-42.44548357,0.0 173.62076112,-42.44257760440499,0.0 173.67076112,-42.4416580665275,0.0 173.67485770030845,-42.44548357,0.0 173.72076112,-42.46905665688864,0.0 173.77076112,-42.48673219578831,0.0 173.82076112,-42.46915160572539,0.0 173.84112149425803,-42.44548357,0.0 173.84879352292106,-42.39548357,0.0 173.87076112,-42.37681829467103,0.0 173.92076112,-42.37467667171353,0.0 173.95790474824304,-42.34548357,0.0 173.92076112,-42.30778474503723,0.0 173.87076112,-42.29931992481001,0.0 173.8661387701318,-42.29548357,0.0 173.87076112,-42.2808590209942,0.0 173.884123291543,-42.24548357,0.0 173.91943917555517,-42.19548357,0.0 173.92076112,-42.193956391894815,0.0 173.9671298643736,-42.14548357,0.0 173.97076112,-42.141908363659724,0.0 174.02076112,-42.09641215481207,0.0 174.02180509746353,-42.09548357,0.0 174.07076112,-42.05534966614021,0.0 174.08255991903522,-42.04548357,0.0 174.12076112,-42.01573388052399,0.0 174.1463112379819,-41.99548357,0.0 174.17076112,-41.97817435019337,0.0 174.2168589980121,-41.94548357,0.0 174.22076112,-41.943497618388655,0.0 174.27076112,-41.91690629165784,0.0 174.30151470704212,-41.89548357,0.0 174.32076112,-41.885522189632404,0.0 174.37057130129406,-41.84548357,0.0 174.37076112,-41.84531694439632,0.0 174.42076112,-41.830030532667244,0.0 174.45851108140238,-41.79548357,0.0 174.46663106185795,-41.74548357,0.0 174.47076112,-41.73780214364985,0.0 174.50047958799954,-41.69548357,0.0 174.52076112,-41.66853491038089,0.0 174.53868026930428,-41.64548357,0.0 174.5678389879124,-41.59548357,0.0 174.57076112,-41.58092849344972,0.0 174.57797032526028,-41.54548357,0.0 174.57076112,-41.530871981033854,0.0 174.5351340254153,-41.49548357,0.0 174.52076112,-41.48991560621503,0.0 174.47076112,-41.48831264671594,0.0 174.43894082653813,-41.49548357,0.0 174.42076112,-41.499676735615026,0.0 174.37076112,-41.517963740665884,0.0 174.32076112,-41.54188532146201,0.0 174.31420536481008,-41.54548357,0.0 174.27076112,-41.566631359707756,0.0 174.22167106885703,-41.59548357,0.0 174.22076112,-41.59589074145438,0.0 174.17076112,-41.62349630878067,0.0 174.1391993262055,-41.64548357,0.0 174.12076112,-41.65691214206544,0.0 174.07200191980104,-41.69548357,0.0 174.07076112,-41.69665879835052,0.0 174.02076112,-41.738675754852814,0.0 174.01238555604294,-41.74548357,0.0 173.97076112,-41.778890433726325,0.0 173.9492338231562,-41.79548357,0.0 173.92076112,-41.81326851982999,0.0 173.87738229785276,-41.84548357,0.0 173.87076112,-41.85071486287576,0.0 173.82076112,-41.877680966916955,0.0 173.77076112,-41.89316115523758,0.0 173.75774532186628,-41.89548357,0.0 173.72076112,-41.89763687381732,0.0 173.67076112,-41.9062360543734,0.0 173.62132740637364,-41.94548357,0.0 173.62076112,-41.947022827488446,0.0 173.59172587996105,-41.99548357,0.0 173.57076112,-42.03880923434678,0.0 173.56494099279638,-42.04548357,0.0 173.52076112,-42.07699244402355,0.0 173.49793519180673,-42.09548357,0.0 173.47076112,-42.105710782425454,0.0 173.4276449624083,-42.14548357,0.0 173.42076112,-42.16584120410645,0.0 173.39679581110877,-42.19548357,0.0 173.37076112,-42.22609601047668,0.0 173.35121613694074,-42.24548357,0.0 173.32076112,-42.27441434374723,0.0 173.29701416929504,-42.29548357,0.0 173.27076112,-42.31705753150882,0.0 173.23501475412976,-42.34548357,0.0 173.22076112,-42.35583631412283,0.0 173.17076112,-42.38621881007356,0.0 173.15457569772605,-42.39548357,0.0 173.12076112,-42.40575147346046,0.0 173.07647404547563,-42.44548357,0.0 173.07076112,-42.450453353031214,0.0 173.02076112,-42.493055476788136,0.0 173.0178999073258,-42.49548357,0.0 172.97076112,-42.5324090999735,0.0 172.95434119425664,-42.54548357,0.0 172.92076112,-42.56326389281478,0.0 172.87851739049432,-42.59548357,0.0 172.87076112,-42.6019770490985,0.0 172.82724658632026,-42.64548357,0.0 172.82076112,-42.658444876705445,0.0 172.79396900550344,-42.69548357,0.0 172.77076112,-42.727199906934764,0.0 172.75344280772555,-42.74548357,0.0 172.72076112,-42.779067373213834,0.0 172.7051733067867,-42.79548357,0.0 172.67076112,-42.836829311313416,0.0 172.66387993342568,-42.84548357,0.0 172.6368343628453,-42.89548357,0.0 172.63462068554887,-42.94548357,0.0 172.67076112,-42.98004747760154,0.0 
			</coordinates>
		</LineString>
	</Placemark>
	<Placemark>
		<name>1.27</name>
		<styleUrl>#linestyle</styleUrl>
		<Style>
 			<LineStyle>
				<color>#ffffe300</color>
 			</LineStyle>
 		</Style>
		<LineString>
			<tessellate>1</tessellate>
			<altitudeMode>clampToSeaFloor</altitudeMode>
			<gx:altitudeMode>clampToSeaFloor</gx:altitudeMode>
			<coordinates>
174.02076112,-42.3544076928914,0.0 174.0270461871919,-42.34548357,0.0 174.02076112,-42.33822565875037,0.0 174.00683980298166,-42.34548357,0.0 174.02076112,-42.3544076928914,0.0 
			</coordinates>
		</LineString>
	</Placemark>
	<Placemark>
		<name>1.27</name>
		<styleUrl>#linestyle</styleUrl>
		<Style>
 			<LineStyle>
				<color>#ffffe300</color>
 			</LineStyle>
 		</Style>
		<LineString>
			<tessellate>1</tessellate>
			<altitudeMode>clampToSeaFloor</altitudeMode>
			<gx:altitudeMode>clampToSeaFloor</gx:altitudeMode>
			<coordinates>
173.97076112,-42.30165020949935,0.0 173.9736762089501,-42.29548357,0.0 173.97076112,-42.2916501950882,0.0 173.96426847329883,-42.29548357,0.0 173.97076112,-42.30165020949935,0.0 
			</coordinates>
		</LineString>
	</Placemark>
	<Placemark>
		<name>1.8 events</name>
		<styleUrl>#sn_noicon</styleUrl>
		<Point>
			<altitudeMode>clampToSeaFloor</altitudeMode>
			<gx:altitudeMode>clampToSeaFloor</gx:altitudeMode>
			<coordinates>172.82076112,-42.85167759186653,0.0</coordinates>
		</Point>
	</Placemark>
	<Placemark>
		<name>1.8 events</name>
		<styleUrl>#sn_noicon</styleUrl>
		<Point>
			<altitudeMode>clampToSeaFloor</altitudeMode>
			<gx:altitudeMode>clampToSeaFloor</gx:altitudeMode>
			<coordinates>173.03201346982667,-42.74548357,0.0</coordinates>
		</Point>
	</Placemark>
	<Placemark>
		<name>1.8 events</name>
		<styleUrl>#sn_noicon</styleUrl>
		<Point>
			<altitudeMode>clampToSeaFloor</altitudeMode>
			<gx:altitudeMode>clampToSeaFloor</gx:altitudeMode>
			<coordinates>174.22076112,-41.88717149301291,0.0</coordinates>
		</Point>
	</Placemark>
	<Placemark>
		<name>1.90</name>
		<styleUrl>#linestyle</styleUrl>
		<Style>
 			<LineStyle>
				<color>#ffaaff00</color>
 			</LineStyle>
 		</Style>
		<LineString>
			<tessellate>1</tessellate>
			<altitudeMode>clampToSeaFloor</altitudeMode>
			<gx:altitudeMode>clampToSeaFloor</gx:altitudeMode>
			<coordinates>
172.82076112,-42.85167759186653,0.0 172.85579741729367,-42.84548357,0.0 172.87076112,-42.84100240414272,0.0 172.92076112,-42.812838778959694,0.0 172.95226506324153,-42.79548357,0.0 172.97076112,-42.783647751392685,0.0 173.02076112,-42.75298468978399,0.0 173.03201346982667,-42.74548357,0.0 173.07076112,-42.718919517022925,0.0 173.10636919503307,-42.69548357,0.0 173.12076112,-42.686296272061966,0.0 173.17076112,-42.65249885641376,0.0 173.18038413766214,-42.64548357,0.0 173.22076112,-42.615793927629326,0.0 173.2471445695346,-42.59548357,0.0 173.27076112,-42.57346188214316,0.0 173.30665507877194,-42.54548357,0.0 173.32076112,-42.533098080415854,0.0 173.37076112,-42.49775828564012,0.0 173.37392494311658,-42.49548357,0.0 173.42076112,-42.461723663697235,0.0 173.44540409240344,-42.44548357,0.0 173.47076112,-42.42905120438237,0.0 173.52076112,-42.403585782611316,0.0 173.53866092254975,-42.39548357,0.0 173.57076112,-42.38528363717087,0.0 173.62076112,-42.376224819085536,0.0 173.67076112,-42.369351589726875,0.0 173.72076112,-42.37272834198408,0.0 173.74854673939245,-42.34548357,0.0 173.77076112,-42.327633147690925,0.0 173.794080633157,-42.29548357,0.0 173.81061239479476,-42.24548357,0.0 173.82076112,-42.21144005002748,0.0 173.82947497437814,-42.19548357,0.0 173.87076112,-42.152129121877124,0.0 173.8767490933507,-42.14548357,0.0 173.90849033502357,-42.09548357,0.0 173.92076112,-42.08140192824554,0.0 173.9601969266125,-42.04548357,0.0 173.97076112,-42.037112160045844,0.0 174.02076112,-41.99993180864044,0.0 174.0262534273523,-41.99548357,0.0 174.07076112,-41.95554630570842,0.0 174.08405429277823,-41.94548357,0.0 174.12076112,-41.919497300202245,0.0 174.17076112,-41.89630847860365,0.0 174.1724729684691,-41.89548357,0.0 174.22076112,-41.88717149301291,0.0 174.27076112,-41.87067698219529,0.0 174.30549301112282,-41.84548357,0.0 174.32076112,-41.83168079806916,0.0 174.36007948712026,-41.79548357,0.0 174.37076112,-41.76842165347879,0.0 174.3863432980469,-41.74548357,0.0 174.4088050641506,-41.69548357,0.0 174.42076112,-41.65793721460492,0.0 174.4275604408114,-41.64548357,0.0 174.42076112,-41.61450530965731,0.0 174.37076112,-41.60204122914058,0.0 174.32076112,-41.61035460380355,0.0 174.27076112,-41.62766585477517,0.0 174.23825651225275,-41.64548357,0.0 174.22076112,-41.65188387589142,0.0 174.17076112,-41.68211420223717,0.0 174.15257831902625,-41.69548357,0.0 174.12076112,-41.7222856141715,0.0 174.0967165368121,-41.74548357,0.0 174.07076112,-41.78689497179756,0.0 174.06190373668008,-41.79548357,0.0 174.02076112,-41.83751452495537,0.0 174.00744810799722,-41.84548357,0.0 173.97076112,-41.86829535658376,0.0 173.93413954371255,-41.89548357,0.0 173.92076112,-41.90631276954024,0.0 173.87076112,-41.93981499063754,0.0 173.85121526043912,-41.94548357,0.0 173.82076112,-41.95196908469059,0.0 173.79231995197884,-41.94548357,0.0 173.77076112,-41.9417827534052,0.0 173.72076112,-41.925071936119686,0.0 173.67076112,-41.93896407749611,0.0 173.6625495753893,-41.94548357,0.0 173.63903122331936,-41.99548357,0.0 173.6376629226158,-42.04548357,0.0 173.62076112,-42.07497700418736,0.0 173.59339022455376,-42.09548357,0.0 173.57076112,-42.09971021187325,0.0 173.52076112,-42.13333986891571,0.0 173.47226648441188,-42.14548357,0.0 173.4731595453029,-42.19548357,0.0 173.47076112,-42.20194912087715,0.0 173.4435397406688,-42.24548357,0.0 173.42076112,-42.278387604189845,0.0 173.40529849039766,-42.29548357,0.0 173.37076112,-42.3341958428453,0.0 173.358047641538,-42.34548357,0.0 173.32076112,-42.36555237642499,0.0 173.28492851229944,-42.39548357,0.0 173.27076112,-42.41601504526371,0.0 173.22332565858167,-42.44548357,0.0 173.22076112,-42.447157121924505,0.0 173.2179236191915,-42.44548357,0.0 173.17076112,-42.43513965170103,0.0 173.14937959100521,-42.44548357,0.0 173.12076112,-42.45751206025726,0.0 173.0791984784543,-42.49548357,0.0 173.07076112,-42.50223396936576,0.0 173.02309337512844,-42.54548357,0.0 173.02076112,-42.547155088156,0.0 172.97076112,-42.5767453453172,0.0 172.94444296354717,-42.59548357,0.0 172.92076112,-42.63114683657491,0.0 172.90301680558258,-42.64548357,0.0 172.87076112,-42.69243723468283,0.0 172.86928344134114,-42.69548357,0.0 172.87076112,-42.718122608358904,0.0 172.8762080548288,-42.74548357,0.0 172.87076112,-42.753584907870035,0.0 172.8385156265571,-42.79548357,0.0 172.82076112,-42.83072862408889,0.0 172.81188959255246,-42.84548357,0.0 172.82076112,-42.85167759186653,0.0 
			</coordinates>
		</LineString>
	</Placemark>
	<Placemark>
		<name>1.90</name>
		<styleUrl>#linestyle</styleUrl>
		<Style>
 			<LineStyle>
				<color>#ffaaff00</color>
 			</LineStyle>
 		</Style>
		<LineString>
			<tessellate>1</tessellate>
			<altitudeMode>clampToSeaFloor</altitudeMode>
			<gx:altitudeMode>clampToSeaFloor</gx:altitudeMode>
			<coordinates>
173.77076112,-42.45524255422844,0.0 173.78797264929725,-42.44548357,0.0 173.77564695829864,-42.39548357,0.0 173.77076112,-42.385982196834256,0.0 173.7615915987479,-42.39548357,0.0 173.75268085262687,-42.44548357,0.0 173.77076112,-42.45524255422844,0.0 
			</coordinates>
		</LineString>
	</Placemark>
	<Placemark>
		<name>2.5 events</name>
		<styleUrl>#sn_noicon</styleUrl>
		<Point>
			<altitudeMode>clampToSeaFloor</altitudeMode>
			<gx:altitudeMode>clampToSeaFloor</gx:altitudeMode>
			<coordinates>173.02076112,-42.62946478179408,0.0</coordinates>
		</Point>
	</Placemark>
	<Placemark>
		<name>2.5 events</name>
		<styleUrl>#sn_noicon</styleUrl>
		<Point>
			<altitudeMode>clampToSeaFloor</altitudeMode>
			<gx:altitudeMode>clampToSeaFloor</gx:altitudeMode>
			<coordinates>173.19804078262086,-42.54548357,0.0</coordinates>
		</Point>
	</Placemark>
	<Placemark>
		<name>2.5 events</name>
		<styleUrl>#sn_noicon</styleUrl>
		<Point>
			<altitudeMode>clampToSeaFloor</altitudeMode>
			<gx:altitudeMode>clampToSeaFloor</gx:altitudeMode>
			<coordinates>173.07076112,-42.53517747342462,0.0</coordinates>
		</Point>
	</Placemark>
	<Placemark>
		<name>2.53</name>
		<styleUrl>#linestyle</styleUrl>
		<Style>
 			<LineStyle>
				<color>#ff39ff00</color>
 			</LineStyle>
 		</Style>
		<LineString>
			<tessellate>1</tessellate>
			<altitudeMode>clampToSeaFloor</altitudeMode>
			<gx:altitudeMode>clampToSeaFloor</gx:altitudeMode>
			<coordinates>
173.02076112,-42.62946478179408,0.0 173.07076112,-42.60195568007087,0.0 173.12076112,-42.595514868353234,0.0 173.120810060051,-42.59548357,0.0 173.17076112,-42.5720595935874,0.0 173.19804078262086,-42.54548357,0.0 173.17076112,-42.52281955536443,0.0 173.1216368282499,-42.49548357,0.0 173.12076112,-42.49513056658358,0.0 173.1203747315061,-42.49548357,0.0 173.07076112,-42.53517747342462,0.0 173.05940220858872,-42.54548357,0.0 173.02076112,-42.573177487512005,0.0 172.98889508604864,-42.59548357,0.0 173.02076112,-42.62946478179408,0.0 
			</coordinates>
		</LineString>
	</Placemark>
	<Placemark>
		<name>2.53</name>
		<styleUrl>#linestyle</styleUrl>
		<Style>
 			<LineStyle>
				<color>#ff39ff00</color>
 			</LineStyle>
 		</Style>
		<LineString>
			<tessellate>1</tessellate>
			<altitudeMode>clampToSeaFloor</altitudeMode>
			<gx:altitudeMode>clampToSeaFloor</gx:altitudeMode>
			<coordinates>
173.47076112,-42.34613378118262,0.0 173.4728977712744,-42.34548357,0.0 173.47076112,-42.34352745050088,0.0 173.46992585271332,-42.34548357,0.0 173.47076112,-42.34613378118262,0.0 
			</coordinates>
		</LineString>
	</Placemark>
	<Placemark>
		<name>2.5 events</name>
		<styleUrl>#sn_noicon</styleUrl>
		<Point>
			<altitudeMode>clampToSeaFloor</altitudeMode>
			<gx:altitudeMode>clampToSeaFloor</gx:altitudeMode>
			<coordinates>173.57076112,-42.33375494161751,0.0</coordinates>
		</Point>
	</Placemark>
	<Placemark>
		<name>2.5 events</name>
		<styleUrl>#sn_noicon</styleUrl>
		<Point>
			<altitudeMode>clampToSeaFloor</altitudeMode>
			<gx:altitudeMode>clampToSeaFloor</gx:altitudeMode>
			<coordinates>173.76671841366954,-42.19548357,0.0</coordinates>
		</Point>
	</Placemark>
	<Placemark>
		<name>2.5 events</name>
		<styleUrl>#sn_noicon</styleUrl>
		<Point>
			<altitudeMode>clampToSeaFloor</altitudeMode>
			<gx:altitudeMode>clampToSeaFloor</gx:altitudeMode>
			<coordinates>173.53924135032665,-42.14548357,0.0</coordinates>
		</Point>
	</Placemark>
	<Placemark>
		<name>2.53</name>
		<styleUrl>#linestyle</styleUrl>
		<Style>
 			<LineStyle>
				<color>#ff39ff00</color>
 			</LineStyle>
 		</Style>
		<LineString>
			<tessellate>1</tessellate>
			<altitudeMode>clampToSeaFloor</altitudeMode>
			<gx:altitudeMode>clampToSeaFloor</gx:altitudeMode>
			<coordinates>
173.52076112,-42.32375250260986,0.0 173.57076112,-42.33375494161751,0.0 173.62076112,-42.33875198424043,0.0 173.67076112,-42.33561585612256,0.0 173.72076112,-42.3204360664282,0.0 173.74901735076338,-42.29548357,0.0 173.76865137382777,-42.24548357,0.0 173.76671841366954,-42.19548357,0.0 173.77030604746804,-42.14548357,0.0 173.72076112,-42.0997172592028,0.0 173.67076112,-42.113704753836984,0.0 173.62076112,-42.11646613401012,0.0 173.57076112,-42.11982401226203,0.0 173.53924135032665,-42.14548357,0.0 173.52076112,-42.18882530997636,0.0 173.51585523039586,-42.19548357,0.0 173.50179857322118,-42.24548357,0.0 173.4936290781256,-42.29548357,0.0 173.52076112,-42.32375250260986,0.0 
			</coordinates>
		</LineString>
	</Placemark>
	<Placemark>
		<name>2.53</name>
		<styleUrl>#linestyle</styleUrl>
		<Style>
 			<LineStyle>
				<color>#ff39ff00</color>
 			</LineStyle>
 		</Style>
		<LineString>
			<tessellate>1</tessellate>
			<altitudeMode>clampToSeaFloor</altitudeMode>
			<gx:altitudeMode>clampToSeaFloor</gx:altitudeMode>
			<coordinates>
173.82076112,-42.16175442674748,0.0 173.83666865452955,-42.14548357,0.0 173.82076112,-42.11246137929209,0.0 173.77109176668344,-42.14548357,0.0 173.82076112,-42.16175442674748,0.0 
			</coordinates>
		</LineString>
	</Placemark>
	<Placemark>
		<name>2.5 events</name>
		<styleUrl>#sn_noicon</styleUrl>
		<Point>
			<altitudeMode>clampToSeaFloor</altitudeMode>
			<gx:altitudeMode>clampToSeaFloor</gx:altitudeMode>
			<coordinates>173.79478152483964,-41.99548357,0.0</coordinates>
		</Point>
	</Placemark>
	<Placemark>
		<name>2.53</name>
		<styleUrl>#linestyle</styleUrl>
		<Style>
 			<LineStyle>
				<color>#ff39ff00</color>
 			</LineStyle>
 		</Style>
		<LineString>
			<tessellate>1</tessellate>
			<altitudeMode>clampToSeaFloor</altitudeMode>
			<gx:altitudeMode>clampToSeaFloor</gx:altitudeMode>
			<coordinates>
173.72076112,-42.09449956184348,0.0 173.77076112,-42.09438478918817,0.0 173.81206806602455,-42.04548357,0.0 173.79478152483964,-41.99548357,0.0 173.77076112,-41.98356981616618,0.0 173.72076112,-41.95383711557239,0.0 173.67131944764887,-41.99548357,0.0 173.67903130319112,-42.04548357,0.0 173.72076112,-42.09449956184348,0.0 
			</coordinates>
		</LineString>
	</Placemark>
	<Placemark>
		<name>2.5 events</name>
		<styleUrl>#sn_noicon</styleUrl>
		<Point>
			<altitudeMode>clampToSeaFloor</altitudeMode>
			<gx:altitudeMode>clampToSeaFloor</gx:altitudeMode>
			<coordinates>174.25541895983233,-41.84548357,0.0</coordinates>
		</Point>
	</Placemark>
	<Placemark>
		<name>2.5 events</name>
		<styleUrl>#sn_noicon</styleUrl>
		<Point>
			<altitudeMode>clampToSeaFloor</altitudeMode>
			<gx:altitudeMode>clampToSeaFloor</gx:altitudeMode>
			<coordinates>174.35511041815525,-41.69548357,0.0</coordinates>
		</Point>
	</Placemark>
	<Placemark>
		<name>2.5 events</name>
		<styleUrl>#sn_noicon</styleUrl>
		<Point>
			<altitudeMode>clampToSeaFloor</altitudeMode>
			<gx:altitudeMode>clampToSeaFloor</gx:altitudeMode>
			<coordinates>174.17076112,-41.71417434994911,0.0</coordinates>
		</Point>
	</Placemark>
	<Placemark>
		<name>2.53</name>
		<styleUrl>#linestyle</styleUrl>
		<Style>
 			<LineStyle>
				<color>#ff39ff00</color>
 			</LineStyle>
 		</Style>
		<LineString>
			<tessellate>1</tessellate>
			<altitudeMode>clampToSeaFloor</altitudeMode>
			<gx:altitudeMode>clampToSeaFloor</gx:altitudeMode>
			<coordinates>
174.17076112,-41.851877064810125,0.0 174.22076112,-41.860763008633846,0.0 174.25541895983233,-41.84548357,0.0 174.27076112,-41.841955059980805,0.0 174.3187353869179,-41.79548357,0.0 174.32076112,-41.78673844474044,0.0 174.34354688859128,-41.74548357,0.0 174.35511041815525,-41.69548357,0.0 174.32076112,-41.65656973501482,0.0 174.27076112,-41.65508338096016,0.0 174.22076112,-41.6853496199938,0.0 174.20615738286702,-41.69548357,0.0 174.17076112,-41.71417434994911,0.0 174.13710540788315,-41.74548357,0.0 174.12571909126507,-41.79548357,0.0 174.15467190892724,-41.84548357,0.0 174.17076112,-41.851877064810125,0.0 
			</coordinates>
		</LineString>
	</Placemark>
	<Placemark>
		<name>3.1 events</name>
		<styleUrl>#sn_noicon</styleUrl>
		<Point>
			<altitudeMode>clampToSeaFloor</altitudeMode>
			<gx:altitudeMode>clampToSeaFloor</gx:altitudeMode>
			<coordinates>173.62076112,-42.31887640954357,0.0</coordinates>
		</Point>
	</Placemark>
	<Placemark>
		<name>3.1 events</name>
		<styleUrl>#sn_noicon</styleUrl>
		<Point>
			<altitudeMode>clampToSeaFloor</altitudeMode>
			<gx:altitudeMode>clampToSeaFloor</gx:altitudeMode>
			<coordinates>173.72221163128012,-42.19548357,0.0</coordinates>
		</Point>
	</Placemark>
	<Placemark>
		<name>3.1 events</name>
		<styleUrl>#sn_noicon</styleUrl>
		<Point>
			<altitudeMode>clampToSeaFloor</altitudeMode>
			<gx:altitudeMode>clampToSeaFloor</gx:altitudeMode>
			<coordinates>173.57076112,-42.13993781265081,0.0</coordinates>
		</Point>
	</Placemark>
	<Placemark>
		<name>3.16</name>
		<styleUrl>#linestyle</styleUrl>
		<Style>
 			<LineStyle>
				<color>#ff00ff39</color>
 			</LineStyle>
 		</Style>
		<LineString>
			<tessellate>1</tessellate>
			<altitudeMode>clampToSeaFloor</altitudeMode>
			<gx:altitudeMode>clampToSeaFloor</gx:altitudeMode>
			<coordinates>
173.62076112,-42.31887640954357,0.0 173.67076112,-42.317074357707206,0.0 173.70922837849164,-42.29548357,0.0 173.72076112,-42.27984885211836,0.0 173.74155420049541,-42.24548357,0.0 173.72221163128012,-42.19548357,0.0 173.72076112,-42.19322487341054,0.0 173.67076112,-42.15688823372866,0.0 173.6244891033439,-42.14548357,0.0 173.62076112,-42.14459927695122,0.0 173.57076112,-42.13993781265081,0.0 173.56394880483478,-42.14548357,0.0 173.54237677651523,-42.19548357,0.0 173.54060700831943,-42.24548357,0.0 173.57076112,-42.292710821519066,0.0 173.5730057134367,-42.29548357,0.0 173.62076112,-42.31887640954357,0.0 
			</coordinates>
		</LineString>
	</Placemark>
	<Placemark>
		<name>3.16</name>
		<styleUrl>#linestyle</styleUrl>
		<Style>
 			<LineStyle>
				<color>#ff00ff39</color>
 			</LineStyle>
 		</Style>
		<LineString>
			<tessellate>1</tessellate>
			<altitudeMode>clampToSeaFloor</altitudeMode>
			<gx:altitudeMode>clampToSeaFloor</gx:altitudeMode>
			<coordinates>
173.72076112,-42.06031181390009,0.0 173.74475644857546,-42.04548357,0.0 173.73474644519163,-41.99548357,0.0 173.72076112,-41.986467909175225,0.0 173.7100579435915,-41.99548357,0.0 173.70813707877844,-42.04548357,0.0 173.72076112,-42.06031181390009,0.0 
			</coordinates>
		</LineString>
	</Placemark>
	<Placemark>
		<name>3.1 events</name>
		<styleUrl>#sn_noicon</styleUrl>
		<Point>
			<altitudeMode>clampToSeaFloor</altitudeMode>
			<gx:altitudeMode>clampToSeaFloor</gx:altitudeMode>
			<coordinates>174.22076112,-41.84071793039005,0.0</coordinates>
		</Point>
	</Placemark>
	<Placemark>
		<name>3.1 events</name>
		<styleUrl>#sn_noicon</styleUrl>
		<Point>
			<altitudeMode>clampToSeaFloor</altitudeMode>
			<gx:altitudeMode>clampToSeaFloor</gx:altitudeMode>
			<coordinates>174.32001851049824,-41.69548357,0.0</coordinates>
		</Point>
	</Placemark>
	<Placemark>
		<name>3.1 events</name>
		<styleUrl>#sn_noicon</styleUrl>
		<Point>
			<altitudeMode>clampToSeaFloor</altitudeMode>
			<gx:altitudeMode>clampToSeaFloor</gx:altitudeMode>
			<coordinates>174.17076112,-41.73964005755487,0.0</coordinates>
		</Point>
	</Placemark>
	<Placemark>
		<name>3.16</name>
		<styleUrl>#linestyle</styleUrl>
		<Style>
 			<LineStyle>
				<color>#ff00ff39</color>
 			</LineStyle>
 		</Style>
		<LineString>
			<tessellate>1</tessellate>
			<altitudeMode>clampToSeaFloor</altitudeMode>
			<gx:altitudeMode>clampToSeaFloor</gx:altitudeMode>
			<coordinates>
174.17076112,-41.81697019044129,0.0 174.22076112,-41.84071793039005,0.0 174.27076112,-41.82817844847978,0.0 174.3045132727217,-41.79548357,0.0 174.31369620928228,-41.74548357,0.0 174.32001851049824,-41.69548357,0.0 174.27076112,-41.66997423121329,0.0 174.23522389088075,-41.69548357,0.0 174.22076112,-41.71565489284833,0.0 174.17076112,-41.73964005755487,0.0 174.16447966130238,-41.74548357,0.0 174.1531117577293,-41.79548357,0.0 174.17076112,-41.81697019044129,0.0 
			</coordinates>
		</LineString>
	</Placemark>
	<Placemark>
		<name>3.7 events</name>
		<styleUrl>#sn_noicon</styleUrl>
		<Point>
			<altitudeMode>clampToSeaFloor</altitudeMode>
			<gx:altitudeMode>clampToSeaFloor</gx:altitudeMode>
			<coordinates>173.62076112,-42.29900083484671,0.0</coordinates>
		</Point>
	</Placemark>
	<Placemark>
		<name>3.7 events</name>
		<styleUrl>#sn_noicon</styleUrl>
		<Point>
			<altitudeMode>clampToSeaFloor</altitudeMode>
			<gx:altitudeMode>clampToSeaFloor</gx:altitudeMode>
			<coordinates>173.67076112,-42.29853285929185,0.0</coordinates>
		</Point>
	</Placemark>
	<Placemark>
		<name>3.7 events</name>
		<styleUrl>#sn_noicon</styleUrl>
		<Point>
			<altitudeMode>clampToSeaFloor</altitudeMode>
			<gx:altitudeMode>clampToSeaFloor</gx:altitudeMode>
			<coordinates>173.67076112,-42.18612033683392,0.0</coordinates>
		</Point>
	</Placemark>
	<Placemark>
		<name>3.7 events</name>
		<styleUrl>#sn_noicon</styleUrl>
		<Point>
			<altitudeMode>clampToSeaFloor</altitudeMode>
			<gx:altitudeMode>clampToSeaFloor</gx:altitudeMode>
			<coordinates>173.57076112,-42.232356774855454,0.0</coordinates>
		</Point>
	</Placemark>
	<Placemark>
		<name>3.80</name>
		<styleUrl>#linestyle</styleUrl>
		<Style>
 			<LineStyle>
				<color>#ff00ffaa</color>
 			</LineStyle>
 		</Style>
		<LineString>
			<tessellate>1</tessellate>
			<altitudeMode>clampToSeaFloor</altitudeMode>
			<gx:altitudeMode>clampToSeaFloor</gx:altitudeMode>
			<coordinates>
173.62076112,-42.29900083484671,0.0 173.67076112,-42.29853285929185,0.0 173.67619389072595,-42.29548357,0.0 173.71594171473993,-42.24548357,0.0 173.68319812421072,-42.19548357,0.0 173.67076112,-42.18612033683392,0.0 173.62076112,-42.16713301967146,0.0 173.57076112,-42.18633255804466,0.0 173.56679858805757,-42.19548357,0.0 173.57076112,-42.232356774855454,0.0 173.5722704109864,-42.24548357,0.0 173.6135807855035,-42.29548357,0.0 173.62076112,-42.29900083484671,0.0 
			</coordinates>
		</LineString>
	</Placemark>
	<Placemark>
		<name>3.7 events</name>
		<styleUrl>#sn_noicon</styleUrl>
		<Point>
			<altitudeMode>clampToSeaFloor</altitudeMode>
			<gx:altitudeMode>clampToSeaFloor</gx:altitudeMode>
			<coordinates>174.27076112,-41.81440183697875,0.0</coordinates>
		</Point>
	</Placemark>
	<Placemark>
		<name>3.7 events</name>
		<styleUrl>#sn_noicon</styleUrl>
		<Point>
			<altitudeMode>clampToSeaFloor</altitudeMode>
			<gx:altitudeMode>clampToSeaFloor</gx:altitudeMode>
			<coordinates>174.27076112,-41.68486508146642,0.0</coordinates>
		</Point>
	</Placemark>
	<Placemark>
		<name>3.80</name>
		<styleUrl>#linestyle</styleUrl>
		<Style>
 			<LineStyle>
				<color>#ff00ffaa</color>
 			</LineStyle>
 		</Style>
		<LineString>
			<tessellate>1</tessellate>
			<altitudeMode>clampToSeaFloor</altitudeMode>
			<gx:altitudeMode>clampToSeaFloor</gx:altitudeMode>
			<coordinates>
174.22076112,-41.829409384978625,0.0 174.27076112,-41.81440183697875,0.0 174.2902911585255,-41.79548357,0.0 174.2921611114945,-41.74548357,0.0 174.2912649456998,-41.69548357,0.0 174.27076112,-41.68486508146642,0.0 174.25596843316978,-41.69548357,0.0 174.22076112,-41.744587444107175,0.0 174.21882895156497,-41.74548357,0.0 174.176060902488,-41.79548357,0.0 174.22076112,-41.829409384978625,0.0 
			</coordinates>
		</LineString>
	</Placemark>
	<Placemark>
		<name>4.4 events</name>
		<styleUrl>#sn_noicon</styleUrl>
		<Point>
			<altitudeMode>clampToSeaFloor</altitudeMode>
			<gx:altitudeMode>clampToSeaFloor</gx:altitudeMode>
			<coordinates>173.62076112,-42.27097128989095,0.0</coordinates>
		</Point>
	</Placemark>
	<Placemark>
		<name>4.4 events</name>
		<styleUrl>#sn_noicon</styleUrl>
		<Point>
			<altitudeMode>clampToSeaFloor</altitudeMode>
			<gx:altitudeMode>clampToSeaFloor</gx:altitudeMode>
			<coordinates>173.63491455292396,-42.19548357,0.0</coordinates>
		</Point>
	</Placemark>
	<Placemark>
		<name>4.43</name>
		<styleUrl>#linestyle</styleUrl>
		<Style>
 			<LineStyle>
				<color>#ff00e3ff</color>
 			</LineStyle>
 		</Style>
		<LineString>
			<tessellate>1</tessellate>
			<altitudeMode>clampToSeaFloor</altitudeMode>
			<gx:altitudeMode>clampToSeaFloor</gx:altitudeMode>
			<coordinates>
173.62076112,-42.27097128989095,0.0 173.67076112,-42.27476643968846,0.0 173.69522624257476,-42.24548357,0.0 173.67076112,-42.213748019365504,0.0 173.63491455292396,-42.19548357,0.0 173.62076112,-42.1894850479079,0.0 173.60863007562565,-42.19548357,0.0 173.59839986026222,-42.24548357,0.0 173.62076112,-42.27097128989095,0.0 
			</coordinates>
		</LineString>
	</Placemark>
	<Placemark>
		<name>4.43</name>
		<styleUrl>#linestyle</styleUrl>
		<Style>
 			<LineStyle>
				<color>#ff00e3ff</color>
 			</LineStyle>
 		</Style>
		<LineString>
			<tessellate>1</tessellate>
			<altitudeMode>clampToSeaFloor</altitudeMode>
			<gx:altitudeMode>clampToSeaFloor</gx:altitudeMode>
			<coordinates>
174.22076112,-41.818100839567194,0.0 174.27076112,-41.80062522547773,0.0 174.27606904432932,-41.79548357,0.0 174.27076112,-41.74631017562735,0.0 174.22076112,-41.76180241600935,0.0 174.19096089648824,-41.79548357,0.0 174.22076112,-41.818100839567194,0.0 
			</coordinates>
		</LineString>
	</Placemark>
	<Placemark>
		<name>5.0 events</name>
		<styleUrl>#sn_noicon</styleUrl>
		<Point>
			<altitudeMode>clampToSeaFloor</altitudeMode>
			<gx:altitudeMode>clampToSeaFloor</gx:altitudeMode>
			<coordinates>173.67076112,-42.249971613090146,0.0</coordinates>
		</Point>
	</Placemark>
	<Placemark>
		<name>5.06</name>
		<styleUrl>#linestyle</styleUrl>
		<Style>
 			<LineStyle>
				<color>#ff0071ff</color>
 			</LineStyle>
 		</Style>
		<LineString>
			<tessellate>1</tessellate>
			<altitudeMode>clampToSeaFloor</altitudeMode>
			<gx:altitudeMode>clampToSeaFloor</gx:altitudeMode>
			<coordinates>
173.67076112,-42.249971613090146,0.0 173.6745107704096,-42.24548357,0.0 173.67076112,-42.240619616423984,0.0 173.64293265586863,-42.24548357,0.0 173.67076112,-42.249971613090146,0.0 
			</coordinates>
		</LineString>
	</Placemark>
	<Placemark>
		<name>5.06</name>
		<styleUrl>#linestyle</styleUrl>
		<Style>
 			<LineStyle>
				<color>#ff0071ff</color>
 			</LineStyle>
 		</Style>
		<LineString>
			<tessellate>1</tessellate>
			<altitudeMode>clampToSeaFloor</altitudeMode>
			<gx:altitudeMode>clampToSeaFloor</gx:altitudeMode>
			<coordinates>
174.22076112,-41.80679229415577,0.0 174.25149680009932,-41.79548357,0.0 174.22076112,-41.77864285991355,0.0 174.2058608904885,-41.79548357,0.0 174.22076112,-41.80679229415577,0.0 
			</coordinates>
		</LineString>
	</Placemark>
	<Placemark>
		<name>5.6 events</name>
		<styleUrl>#sn_noicon</styleUrl>
		<Point>
			<altitudeMode>clampToSeaFloor</altitudeMode>
			<gx:altitudeMode>clampToSeaFloor</gx:altitudeMode>
			<coordinates>174.22076112,-41.79548374874434,0.0</coordinates>
		</Point>
	</Placemark>
	<Placemark>
		<name>5.69</name>
		<styleUrl>#linestyle</styleUrl>
		<Style>
 			<LineStyle>
				<color>#ff0000ff</color>
 			</LineStyle>
 		</Style>
		<LineString>
			<tessellate>1</tessellate>
			<altitudeMode>clampToSeaFloor</altitudeMode>
			<gx:altitudeMode>clampToSeaFloor</gx:altitudeMode>
			<coordinates>
174.22076112,-41.79548374874434,0.0 174.22076160580446,-41.79548357,0.0 
			</coordinates>
		</LineString>
	</Placemark>
</Document>
</kml>
